{
  "version": 0.6,
  "generator": "Overpass API 0.7.55.9 ab41fea6",
  "osm3s": {
    "timestamp_osm_base": "2020-02-14T10:44:02Z",
    "copyright": "The data included in this document is from www.openstreetmap.org. The data is made available under ODbL."
  },
  "elements": [

{
  "type": "node",
  "id": 34050681,
  "lat": 50.8500506,
  "lon": 5.6932018,
  "tags": {
    "name": "Museum de Historische Drukkerij",
    "tourism": "museum",
    "website": "http://www.drukmuseum.nl/",
    "wikidata": "Q30163006"
  }
},
{
  "type": "node",
  "id": 34050692,
  "lat": 50.9653261,
  "lon": 5.7605743,
  "tags": {
    "addr:city": "Stein",
    "addr:housenumber": "14a",
    "addr:postcode": "6171VP",
    "addr:street": "Hoppenkampstraat",
    "name": "Archeologie Museum",
    "source": "BAG",
    "source:date": "2014-03-24",
    "tourism": "museum",
    "wikidata": "Q2135658",
    "wikipedia": "nl:Archeologiemuseum Stein"
  }
},
{
  "type": "node",
  "id": 41740218,
  "lat": 50.9789498,
  "lon": 6.2646367,
  "tags": {
    "addr:city": "Linnich",
    "addr:country": "DE",
    "addr:housenumber": "9",
    "addr:postcode": "52441",
    "addr:street": "Altermarkt",
    "contact:website": "http://www.heimatmuseumlinnich.de/",
    "name": "Heimatmuseum",
    "tourism": "museum",
    "wikidata": "Q1595634"
  }
},
{
  "type": "node",
  "id": 160079640,
  "lat": 50.8450995,
  "lon": 6.0201736,
  "tags": {
    "addr:city": "Aachen",
    "addr:country": "DE",
    "addr:housenumber": "497",
    "addr:postcode": "52072",
    "addr:street": "Horbacher Straße",
    "contact:phone": "+49-241-9970615",
    "name": "Zollmuseum",
    "tourism": "museum",
    "website": "http://www.zollmuseum-friedrichs.de/",
    "wikidata": "Q16858227"
  }
},
{
  "type": "node",
  "id": 183487777,
  "lat": 50.8943051,
  "lon": 6.1158365,
  "tags": {
    "created_by": "Potlatch 0.6c",
    "name": "Besucherzentrum Grube Adolf Park",
    "tourism": "museum"
  }
},
{
  "type": "node",
  "id": 252382829,
  "lat": 50.8637156,
  "lon": 5.8320799,
  "tags": {
    "addr:city": "Valkenburg",
    "addr:housenumber": "31",
    "addr:postcode": "6301CW",
    "addr:street": "Grotestraat Centrum",
    "name": "Museum Land van Valkenburg",
    "source:addr": "BAG",
    "source:addr:date": "2014-03-24",
    "tourism": "museum",
    "website": "http://www.museumlandvanvalkenburg.nl/"
  }
},
{
  "type": "node",
  "id": 252846215,
  "lat": 50.8749150,
  "lon": 6.1461687,
  "tags": {
    "addr:city": "Alsdorf",
    "addr:country": "DE",
    "addr:housenumber": "7",
    "addr:postcode": "52477",
    "addr:street": "Konrad-Adenauer-Allee",
    "contact:fax": "+49 2404 59911 19",
    "contact:phone": "+49 2404 59911 0",
    "name": "Energeticon gGmbH",
    "tourism": "museum",
    "website": "http://www.energeticon.de/web/",
    "wheelchair": "yes",
    "wheelchair:description": "Im Energeticon befindet sich eine Gaststätte. Das ,,Eduards,, voll Rolligerecht und Mega lecker.",
    "wikidata": "Q16830609"
  }
},
{
  "type": "node",
  "id": 252846234,
  "lat": 50.8745859,
  "lon": 6.1495992,
  "tags": {
    "name": "EBV Kraftzentrale",
    "tourism": "museum"
  }
},
{
  "type": "node",
  "id": 271394429,
  "lat": 50.7213483,
  "lon": 5.9888327,
  "tags": {
    "name": "Musee de Moresnet",
    "tourism": "museum"
  }
},
{
  "type": "node",
  "id": 274975563,
  "lat": 50.8332301,
  "lon": 6.1207126,
  "tags": {
    "name": "Karnevalsmuseum",
    "tourism": "museum"
  }
},
{
  "type": "node",
  "id": 299640182,
  "lat": 50.7750373,
  "lon": 6.0828206,
  "tags": {
    "fee": "yes",
    "name": "Domschatzkammer",
    "opening_hours": "Tu-Su,PH 10:00-18:00, Mo 10:00-13:00",
    "phone": "+49 241 47709127",
    "toilets:wheelchair": "yes",
    "tourism": "museum",
    "website": "http://www.aachendom.de/schatzkammer.html",
    "wheelchair": "yes",
    "wikidata": "Q15106167",
    "wikipedia": "de:Aachener Domschatzkammer"
  }
},
{
  "type": "node",
  "id": 358039107,
  "lat": 50.8606699,
  "lon": 5.8559632,
  "tags": {
    "amenity": "place_of_worship",
    "name": "kruisweg op de Schaelsberg",
    "opening_hours": "24/7",
    "religion": "christian",
    "tourism": "museum",
    "website": "http://www.dekluisvalkenburg.nl"
  }
},
{
  "type": "node",
  "id": 450136480,
  "lat": 50.9194293,
  "lon": 6.3491219,
  "tags": {
    "name": "Jagd- und Forstausstellung",
    "tourism": "museum",
    "wheelchair": "yes"
  }
},
{
  "type": "node",
  "id": 465202922,
  "lat": 50.7668143,
  "lon": 6.2331185,
  "tags": {
    "contact:website": "http://www.museum-torburg.de",
    "fee": "yes",
    "lastcheck": "2016-09-11",
    "name": "Museum Torburg - Heimat und Handwerksmuseum Stolberg",
    "opening_hours": "Sa,Su,PH 14:00-18:00",
    "tourism": "museum",
    "wheelchair": "no"
  }
},
{
  "type": "node",
  "id": 473380736,
  "lat": 50.8653394,
  "lon": 5.8214553,
  "tags": {
    "name": "Romeinse katakomben",
    "tourism": "museum",
    "website": "https://www.katakomben.nl/",
    "wikidata": "Q2409236"
  }
},
{
  "type": "node",
  "id": 490948959,
  "lat": 50.9104683,
  "lon": 6.1713919,
  "tags": {
    "name": "Riesenmemory",
    "tourism": "museum"
  }
},
{
  "type": "node",
  "id": 534928048,
  "lat": 50.6688706,
  "lon": 5.8840043,
  "tags": {
    "name": "Remember 39-45",
    "tourism": "museum"
  }
},
{
  "type": "node",
  "id": 604961647,
  "lat": 50.6347977,
  "lon": 6.4758914,
  "tags": {
    "addr:city": "Heimbach",
    "addr:country": "DE",
    "addr:housenumber": "1",
    "addr:postcode": "52396",
    "addr:street": "Karl-H.-Krischer-Platz",
    "email": "schmidt@wasser-info-zentrum-eifel.de",
    "name": "Wasser Info Zentrum Eifel",
    "phone": "+49 2446 9119906",
    "short_name": "W.I.Z.E.",
    "tourism": "museum",
    "website": "http://www.wasser-info-zentrum-eifel.de",
    "wheelchair": "yes"
  }
},
{
  "type": "node",
  "id": 619266524,
  "lat": 50.8333135,
  "lon": 6.0444999,
  "tags": {
    "name": "Skulptur",
    "tourism": "museum"
  }
},
{
  "type": "node",
  "id": 706736849,
  "lat": 50.8922713,
  "lon": 5.9701628,
  "tags": {
    "addr:city": "Heerlen",
    "addr:country": "NL",
    "addr:housenumber": "1",
    "addr:street": "Kloosterweg",
    "description": "Schachtgebouw van de voormalige steenkolenmijn ON 1.",
    "name": "Nederlands Mijnmuseum",
    "tourism": "museum",
    "website": "nederlandsmijnmuseum.com",
    "wikidata": "Q2054056"
  }
},
{
  "type": "node",
  "id": 713959994,
  "lat": 50.7290846,
  "lon": 6.1819381,
  "tags": {
    "addr:housenumber": "6",
    "addr:street": "Abteigarten",
    "name": "kunsthaus nrw",
    "opening_hours": "Th-Sa 14:00-18:00; Su 12:00-18:00",
    "tourism": "museum",
    "website": "https://www.kunsthaus.nrw/",
    "wheelchair": "no",
    "wikidata": "Q1792314",
    "wikipedia": "de:Kunst aus Nordrhein-Westfalen"
  }
},
{
  "type": "node",
  "id": 974966754,
  "lat": 50.6109969,
  "lon": 5.6797217,
  "tags": {
    "name": "Musée de Fléron",
    "tourism": "museum"
  }
},
{
  "type": "node",
  "id": 1006149800,
  "lat": 50.6863350,
  "lon": 5.7226648,
  "tags": {
    "heritage": "1",
    "heritage:operator": "whc",
    "historic": "industrial",
    "name": "Charbonnage de Blegny-Mine",
    "ref:whc": "1344-004",
    "tourism": "museum",
    "whc:criteria": "(ii)(iv)",
    "whc:inscription_date": "2012"
  }
},
{
  "type": "node",
  "id": 1100566560,
  "lat": 50.6258969,
  "lon": 6.0301564,
  "tags": {
    "addr:housenumber": "3",
    "addr:postcode": "4700",
    "addr:street": "Loten",
    "name": "Ikob -Internationales Kunstzentrum Ostbelgien",
    "tourism": "museum"
  }
},
{
  "type": "node",
  "id": 1119267797,
  "lat": 50.9654688,
  "lon": 6.4611761,
  "tags": {
    "addr:city": "Titz-Rödingen",
    "addr:housenumber": "1",
    "addr:postcode": "52445",
    "addr:street": "Mühlenend",
    "name": "LVR-Kulturhaus Landsynagoge Rödingen",
    "opening_hours": "Su 11:00-17:00; \"Wochentags auf Anfrage\"",
    "operator": "Landschaftsverband Rheinland",
    "tourism": "museum",
    "website": "https://synagoge-roedingen.lvr.de/",
    "wikidata": "Q1785183"
  }
},
{
  "type": "node",
  "id": 1200202359,
  "lat": 50.6918624,
  "lon": 6.1057144,
  "tags": {
    "name": "Mö(h)renmuseum",
    "tourism": "museum"
  }
},
{
  "type": "node",
  "id": 1268706780,
  "lat": 50.6787456,
  "lon": 6.1206606,
  "tags": {
    "name": "Töpfereimuseum Raeren",
    "tourism": "museum"
  }
},
{
  "type": "node",
  "id": 1460925389,
  "lat": 51.0549918,
  "lon": 6.2306113,
  "tags": {
    "name": "Opelmuseum Hückelhoven",
    "tourism": "museum"
  }
},
{
  "type": "node",
  "id": 1709919891,
  "lat": 50.9402730,
  "lon": 5.7937123,
  "tags": {
    "addr:city": "Beek",
    "addr:housenumber": "4c",
    "addr:postcode": "6191EB",
    "addr:street": "Wolfeynde",
    "name": "Elsmuseum",
    "source": "BAG",
    "source:date": "2014-03-24",
    "tourism": "museum",
    "website": "http://www.elsmuseum.nl/",
    "wikidata": "Q28737188"
  }
},
{
  "type": "node",
  "id": 1722636722,
  "lat": 50.9377946,
  "lon": 5.7917487,
  "tags": {
    "name": "Heemkunde Museum",
    "tourism": "museum"
  }
},
{
  "type": "node",
  "id": 1825565895,
  "lat": 50.8091873,
  "lon": 6.4859000,
  "tags": {
    "addr:city": "Düren",
    "addr:housenumber": "38",
    "addr:postcode": "52351",
    "addr:street": "Arnoldsweilerstraße",
    "contact:website": "http://www.stadtmuseumdueren.de",
    "fee": "no",
    "lastcheck": "2017-02-27",
    "name": "Stadtmuseum Düren",
    "tourism": "museum",
    "wheelchair": "limited",
    "wikidata": "Q1806137"
  }
},
{
  "type": "node",
  "id": 2031586109,
  "lat": 50.4767247,
  "lon": 6.1137356,
  "tags": {
    "name": "Archivothèque de la Haute Ardenne Centre de documentation",
    "tourism": "museum"
  }
},
{
  "type": "node",
  "id": 2091294355,
  "lat": 50.6888096,
  "lon": 6.4773373,
  "tags": {
    "addr:city": "Nideggen",
    "addr:country": "DE",
    "addr:postcode": "52385",
    "addr:street": "Kirchgasse",
    "contact:fax": "+49 02427/902885",
    "contact:phone": "+49 02427/6340",
    "email": "burgenmuseum@kreis-dueren.de",
    "name": "Burgenmuseum",
    "operator": "Kreis Düren",
    "payment:cash": "yes",
    "payment:coins": "yes",
    "payment:notes": "yes",
    "tourism": "museum",
    "website": "http://www.burgenmuseum-nideggen.de",
    "wheelchair": "no",
    "wikidata": "Q1014871",
    "wikipedia": "de:Burgenmuseum (Nideggen)"
  }
},
{
  "type": "node",
  "id": 2095524716,
  "lat": 50.5549283,
  "lon": 6.2442764,
  "tags": {
    "name": "Kunst und Kulturzentrum KUK",
    "tourism": "museum",
    "wikidata": "Q23826178",
    "wikipedia": "de:Kunst- und Kulturzentrum Monschau"
  }
},
{
  "type": "node",
  "id": 2195545885,
  "lat": 50.8316829,
  "lon": 5.9782537,
  "tags": {
    "name": "Zuid-Limburgse Stoomtrein Maatschappij (ZLSM)",
    "tourism": "museum",
    "wheelchair": "yes"
  }
},
{
  "type": "node",
  "id": 2311112624,
  "lat": 50.8413843,
  "lon": 6.2835251,
  "tags": {
    "addr:city": "Eschweiler",
    "addr:housenumber": "15a",
    "addr:postcode": "52249",
    "addr:street": "Lürkener Straße",
    "contact:website": "http://karnevalsmuseum-eschweiler.de",
    "lastcheck": "2016-12-14",
    "name": "Eschweiler Karnevals Museum",
    "tourism": "museum",
    "wikidata": "Q1367195"
  }
},
{
  "type": "node",
  "id": 2650701092,
  "lat": 50.8508529,
  "lon": 5.6867884,
  "tags": {
    "name": "N More",
    "tourism": "museum"
  }
},
{
  "type": "node",
  "id": 2789496868,
  "lat": 50.7701797,
  "lon": 6.0195270,
  "tags": {
    "name": "Museum de Kopermolen",
    "tourism": "museum",
    "wheelchair": "no"
  }
},
{
  "type": "node",
  "id": 2804892708,
  "lat": 50.8483543,
  "lon": 5.6887551,
  "tags": {
    "addr:city": "Maastricht",
    "addr:housenumber": "18",
    "addr:postcode": "6211LD",
    "addr:street": "Vrijthof",
    "description": "photography museum",
    "fee": "MJK_free",
    "name": "Museum aan het Vrijthof",
    "opening_hours": "Tu-Su 10:00-17:30",
    "source": "BAG",
    "source:date": "2014-03-24",
    "tourism": "museum",
    "website": "http://www.museumaanhetvrijthof.nl/",
    "wikidata": "Q1634251",
    "wikipedia": "nl:Museum aan het Vrijthof"
  }
},
{
  "type": "node",
  "id": 2804898630,
  "lat": 50.8457856,
  "lon": 5.6927111,
  "tags": {
    "addr:city": "Maastricht",
    "addr:housenumber": "7",
    "addr:postcode": "6211JM",
    "addr:street": "Sint Pieterstraat",
    "name": "Regionaal Historisch Centrum Limburg",
    "source": "BAG",
    "source:date": "2014-03-24",
    "tourism": "museum",
    "website": "https://www.rhcl.nl/",
    "wikidata": "Q21004453",
    "wikipedia": "nl:Regionaal Historisch Centrum Limburg"
  }
},
{
  "type": "node",
  "id": 2804898641,
  "lat": 50.8450433,
  "lon": 5.6878046,
  "tags": {
    "addr:city": "Maastricht",
    "addr:housenumber": "7",
    "addr:postcode": "6211KJ",
    "addr:street": "De Bosquetplein",
    "fee": "MJK_free",
    "name": "Natuurhistorisch Museum Maastricht",
    "opening_hours": "Tu-Fr 11:00-17:00; Sa,Su 13:00-17:00",
    "source": "BAG",
    "source:date": "2014-03-24",
    "tourism": "museum",
    "website": "https://nhmmaastricht.nl/",
    "wikidata": "Q2412016"
  }
},
{
  "type": "node",
  "id": 2804902056,
  "lat": 50.8477987,
  "lon": 5.6931982,
  "tags": {
    "addr:city": "Maastricht",
    "addr:housenumber": "6",
    "addr:postcode": "6211HD",
    "addr:street": "Onze Lieve Vrouweplein",
    "name": "Museumkelder Derlon",
    "operator": "Hotel Derlon",
    "source": "BAG",
    "source:date": "2014-03-24",
    "tourism": "museum",
    "wikidata": "Q13866198",
    "wikipedia": "nl:Museumkelder Derlon"
  }
},
{
  "type": "node",
  "id": 2808618022,
  "lat": 50.8518926,
  "lon": 5.6858430,
  "tags": {
    "addr:city": "Maastricht",
    "addr:housenumber": "98",
    "addr:postcode": "6211RT",
    "addr:street": "Capucijnenstraat",
    "description": "Contemporary Culture",
    "fee": "MJK_free",
    "name": "Marres",
    "opening_hours": "Tu-Su 12:00-17:00",
    "source": "BAG",
    "source:date": "2014-03-24",
    "tourism": "museum",
    "website": "https://www.marres.org/"
  }
},
{
  "type": "node",
  "id": 2821530250,
  "lat": 50.9477849,
  "lon": 5.7589953,
  "tags": {
    "addr:city": "Elsloo",
    "addr:housenumber": "6",
    "addr:postcode": "6181GT",
    "addr:street": "Op de Berg",
    "name": "Streekmuseum Schippersbeurs",
    "source": "BAG",
    "source:date": "2014-03-24",
    "tourism": "museum"
  }
},
{
  "type": "node",
  "id": 2822975623,
  "lat": 50.9034461,
  "lon": 5.8247379,
  "tags": {
    "addr:city": "Schimmert",
    "addr:housenumber": "36",
    "addr:postcode": "6333BJ",
    "addr:street": "Hoofdstraat",
    "fee": "yes",
    "name": "Boerderij- en Heemkundemuseum Schimmert",
    "source": "BAG",
    "source:date": "2014-03-24",
    "tourism": "museum",
    "website": "http://www.boerderijmuseumschimmert.nl"
  }
},
{
  "type": "node",
  "id": 2952898756,
  "lat": 50.7453064,
  "lon": 5.7310075,
  "tags": {
    "addr:city": "Berneau",
    "addr:housenumber": "29",
    "addr:postcode": "4607",
    "addr:street": "Rue de Maëstricht",
    "name": "World War II Memory Museum",
    "note": "I don't know the exact location but it must be very near the indicated point.",
    "phone": "+32 479 82 98 12",
    "tourism": "museum",
    "website": "http://www.wwii-memory-museum.com"
  }
},
{
  "type": "node",
  "id": 2986025218,
  "lat": 50.8617039,
  "lon": 6.0581178,
  "tags": {
    "name": "Continium Discovery Center",
    "opening_hours": "Tu-Su,PH 10:00-17:00",
    "tourism": "museum",
    "website": "http://continium.nl/",
    "wikidata": "Q19461133",
    "wikipedia": "nl:Discovery Center Continium"
  }
},
{
  "type": "node",
  "id": 3179862961,
  "lat": 50.5858808,
  "lon": 6.1296773,
  "tags": {
    "addr:city": "Eupen",
    "addr:housenumber": "2 - 3",
    "addr:postcode": "4700",
    "addr:street": "Ternell",
    "fee": "yes",
    "name": "Venn- und Waldmuseum",
    "opening_hours": "Mo-Fr 10:00-12:00, 13:00-17:00, Sa-Su, PH 10:00-17:00",
    "payment:cash": "yes",
    "payment:coins": "yes",
    "payment:notes": "yes",
    "tourism": "museum",
    "wheelchair": "limited"
  }
},
{
  "type": "node",
  "id": 3825351116,
  "lat": 50.8305623,
  "lon": 5.6419091,
  "tags": {
    "addr:city": "Vroenhoven (Riemst)",
    "addr:housenumber": "212",
    "addr:postcode": "3770",
    "addr:street": "Maastrichtersteenweg",
    "air_conditioning": "no",
    "fee": "yes",
    "name": "Brug van Vroenhoven",
    "opening_hours": "We-Su 10:00-17:00",
    "payment:cash": "yes",
    "payment:debit_cards": "yes",
    "tourism": "museum",
    "website": "http://www.debrugvanvroenhoven.be/",
    "wheelchair": "yes"
  }
},
{
  "type": "node",
  "id": 3866902357,
  "lat": 50.8608270,
  "lon": 6.0577402,
  "tags": {
    "fixme": "position",
    "name": "Cube Design Museum",
    "opening_hours": "Tu-Su,PH 10:00-17:00",
    "tourism": "museum",
    "website": "https://www.cubedesignmuseum.nl/",
    "wikidata": "Q54944120"
  }
},
{
  "type": "node",
  "id": 4536467528,
  "lat": 50.5532428,
  "lon": 6.2368087,
  "tags": {
    "name": "Erlebnismuseum Lernort Natur",
    "tourism": "museum"
  }
},
{
  "type": "node",
  "id": 4567421552,
  "lat": 50.5564454,
  "lon": 6.2400120,
  "tags": {
    "addr:city": "Monschau",
    "addr:country": "DE",
    "addr:street": "Laufenstraße",
    "name": "Sparkassen Museum",
    "payment:coins": "no",
    "payment:notes": "no",
    "tourism": "museum",
    "wheelchair": "yes"
  }
},
{
  "type": "node",
  "id": 4719991841,
  "lat": 50.8490467,
  "lon": 5.6872893,
  "tags": {
    "name": "De Schatkamer",
    "opening_hours": "Mo-Sa 10:00-17:00; Su 12:30-17:00",
    "operator": "Sint Servaasbasilliek",
    "tourism": "museum",
    "website": "https://www.sintservaas.nl/index24.html"
  }
},
{
  "type": "node",
  "id": 4883868495,
  "lat": 50.7910336,
  "lon": 6.1030625,
  "tags": {
    "name": "Fernmeldemuseum Aachen",
    "opening_hours": "Mo 11:00+ || \"nach Vereinbarung\"",
    "operator": "Verein der Förderer des Fernmeldemuseums Aachen e.V.",
    "phone": "+49 241 9191148",
    "tourism": "museum",
    "website": "http://www.fernmeldemuseum-aachen.de/",
    "wikidata": "Q16831351"
  }
},
{
  "type": "node",
  "id": 5006029993,
  "lat": 50.8567335,
  "lon": 5.6902773,
  "tags": {
    "addr:city": "Maastricht",
    "addr:housenumber": "9",
    "addr:postcode": "6211AS",
    "addr:street": "Boschstraat",
    "fee": "MJK_free",
    "name": "Bureau Europa",
    "opening_hours": "We-Su 12:00-17:00; Jan 01 off; Dec 25 off; Apr 27 off; \"during Carnival off\"",
    "source": "BAG",
    "source:date": "2017-08-01",
    "tourism": "museum"
  }
},
{
  "type": "node",
  "id": 5584611381,
  "lat": 50.9612561,
  "lon": 5.6996866,
  "tags": {
    "name": "Carnavalmuseum Mechelen-aan-de-Maas",
    "tourism": "museum"
  }
},
{
  "type": "node",
  "id": 6106216508,
  "lat": 50.8842344,
  "lon": 5.7540496,
  "tags": {
    "name": "Erfgoedhuis Meerssen",
    "tourism": "museum"
  }
},
{
  "type": "node",
  "id": 6202145549,
  "lat": 50.7694254,
  "lon": 6.0030476,
  "tags": {
    "addr:city": "Vaals",
    "addr:housenumber": "7",
    "addr:postcode": "6291NK",
    "addr:street": "Eschberg",
    "description": "  Museum Vaals is sinds eind april 2009 een nieuwe trekpleister in het mooie heuvel-achtige Zuid-Limburg, een stukje buitenland in Nederland, slechts twee kilometer vanaf het drielandenpunt.",
    "name": "Museum Vaals",
    "tourism": "museum",
    "website": "http://www.museumvaals.nl/index.html"
  }
},
{
  "type": "node",
  "id": 6583641279,
  "lat": 50.7952720,
  "lon": 6.0951874,
  "tags": {
    "name": "CHIO Aachen-Museum",
    "opening_hours": "We,Fr 12:00-17:00; Mo,Tu,Th,Sa,Su,PH off",
    "toilets:wheelchair": "yes",
    "tourism": "museum",
    "website": "https://www.chioaachen.de/de/chio-co/mehr-chio-aachen/chio-aachen-museum/",
    "wheelchair": "yes"
  }
},
{
  "type": "node",
  "id": 6791455375,
  "lat": 50.6110303,
  "lon": 5.7486434,
  "tags": {
    "name": "Musée de la vie populaire",
    "tourism": "museum"
  }
},
{
  "type": "node",
  "id": 6817576615,
  "lat": 50.9504299,
  "lon": 6.1686498,
  "tags": {
    "addr:city": "Geilenkirchen",
    "addr:housenumber": "9",
    "addr:postcode": "52511",
    "addr:street": "Ringstraße",
    "name": "Historisches Klassenzimmer",
    "opening_hours": "Th 15:00-17:00  Su 15:00-17:00",
    "operator": "Historisches Klassenzimmer Geilenkirchen-Immendorf e.V.",
    "phone": "+4924628722",
    "tourism": "museum",
    "wikidata": "Q76634623"
  }
},
{
  "type": "way",
  "id": 28214373,
  "nodes": [
    2630595599,
    2630595602,
    2630595600,
    2630595605,
    2630595584,
    2630595582,
    2630595580,
    2630595579,
    2630595578,
    2630595576,
    2630595574,
    2630595573,
    2630595557,
    2630595549,
    2630595547,
    2630595546,
    2630595545,
    2630595543,
    2630595540,
    2630595538,
    2630595534,
    2630595532,
    2630595531,
    2630595529,
    2630595528,
    2630595525,
    2630595523,
    2630595522,
    2630595521,
    2630595524,
    2630595518,
    2630595520,
    2630595535,
    2630595544,
    2630595541,
    2630595539,
    2630595537,
    2630595533,
    2630595536,
    2630595542,
    2630595519,
    2630595527,
    2630595550,
    3224540273,
    2630595555,
    2630595561,
    2630595565,
    2630595569,
    2630595571,
    2630595560,
    2630595570,
    2630595583,
    2630595585,
    2630595587,
    2630595589,
    2630595590,
    2630595591,
    2630595592,
    2630595595,
    2630595598,
    2630595604,
    2630595606,
    2630595607,
    2630595609,
    2630595610,
    2630595611,
    2630595608,
    2630595617,
    2630595593,
    2630595594,
    2630595596,
    2630595597,
    2630595599
  ],
  "tags": {
    "addr:city": "Düren",
    "addr:housenumber": "1",
    "addr:postcode": "52349",
    "addr:street": "Hoeschplatz",
    "building": "yes",
    "contact:phone": "+49 2421 252561",
    "image": "File:Dueren_leopold-hoesch-museum.jpg",
    "museum": "art",
    "museum_type": "municipal",
    "name": "Leopold-Hoesch-Museum",
    "opening_hours": "Tu-Su 10:00-17:00, Th 10:00-19:00",
    "operator": "Stadt Düren",
    "operator:type": "public",
    "tourism": "museum",
    "url": "https://www.leopoldhoeschmuseum.de/",
    "wheelchair": "limited",
    "wikidata": "Q600801",
    "wikipedia": "de:Leopold-Hoesch-Museum"
  }
},
{
  "type": "way",
  "id": 28995564,
  "nodes": [
    318863020,
    318863021,
    4618507418,
    318863022,
    318863023,
    318863020
  ],
  "tags": {
    "amenity": "community_centre",
    "building": "yes",
    "contact:email": "info@rkmvip.de",
    "contact:phone": "+49 2251 791 185",
    "contact:website": "http://www.drk-eu.de/index.php?id=rkmvip",
    "image": "https://www.drk-eu.de/fileadmin/_processed_/5/f/csm_photo_20190317062458_6553619_0_2_150fda0e2a.jpg",
    "int_name": "Museum of the german red cross",
    "name": "Rotkreuzmuseum Vogelsang IP",
    "opening_hours": "May-Oct: Sa,Su,PH 10:00-17:00",
    "tourism": "museum",
    "wikidata": "Q2168820",
    "wikipedia": "de:Rotkreuz-Museum vogelsang ip"
  }
},
{
  "type": "way",
  "id": 33419227,
  "nodes": [
    380238665,
    380238667,
    380238669,
    380238671,
    380238673,
    380238674,
    380238676,
    380238677,
    380238678,
    380238679,
    380238681,
    924402600,
    380238682,
    380238684,
    380238686,
    380238687,
    380238688,
    380238690,
    380238692,
    380238694,
    380238696,
    380238697,
    380238665
  ],
  "tags": {
    "addr:city": "Aachen",
    "addr:country": "DE",
    "addr:housenumber": "45",
    "addr:street": "Goffartstraße",
    "building": "yes",
    "building:levels": "3",
    "castle_type": "castle",
    "heritage": "8",
    "heritage:operator": "UntereDenkmalbehörde",
    "historic": "castle",
    "name": "Burg Frankenberg",
    "operator": "Frankenb(u)erger e.V.",
    "roof:levels": "1",
    "toilets:wheelchair": "yes",
    "tourism": "museum",
    "website": "http://www.burgfrankenberg.de/",
    "wheelchair": "yes",
    "wikidata": "Q1011767",
    "wikipedia": "de:Burg Frankenberg (Aachen)"
  }
},
{
  "type": "way",
  "id": 44063882,
  "nodes": [
    2631484661,
    2631484286,
    2631483930,
    2631483983,
    2631484246,
    2631484999,
    2631484661
  ],
  "tags": {
    "addr:city": "Düren",
    "addr:country": "DE",
    "addr:housename": "Papiermuseum Düren",
    "addr:housenumber": "2-8",
    "addr:postcode": "52349",
    "addr:street": "Wallstraße",
    "building": "yes",
    "contact:fax": "+49 2421 252560",
    "contact:phone": "+49 2421 252561",
    "name": "Papiermuseum Düren",
    "opening_hours": "Tu-Su 10:00-17:00, Th 10:00-19:00",
    "operator": "Stadt Düren",
    "operator:type": "public",
    "tourism": "museum",
    "website": "https://www.papiermuseum-dueren.de/",
    "wikidata": "Q2050718"
  }
},
{
  "type": "way",
  "id": 44225062,
  "nodes": [
    561925416,
    561925424,
    561925399,
    561925409,
    561925402,
    561925443,
    6786651264,
    561924774,
    561924741,
    561924751,
    561925441,
    561925416
  ],
  "tags": {
    "building": "civic",
    "name": "Maison de la Montagne Saint Pierre",
    "tourism": "museum"
  }
},
{
  "type": "way",
  "id": 47236397,
  "nodes": [
    2577691874,
    2577690946,
    2577690852,
    2577690956,
    2577690791,
    2577691636,
    2577691874
  ],
  "tags": {
    "building": "yes",
    "contact:email": "info@Bauernmuseum-Selfkant.de",
    "contact:fax": "+49 2456 509530",
    "contact:phone": "+49 2456 5070365",
    "contact:website": "http://www.bauernmuseum-selfkant.de",
    "museum": "agriculture",
    "name": "Bauernmuseum Selfkant",
    "opening_hours": "We,Su 13:00-18:00 || \"Groups can make additional reservation by phone.\"",
    "tourism": "museum",
    "wikidata": "Q55189564"
  }
},
{
  "type": "way",
  "id": 47806393,
  "nodes": [
    607997094,
    607997103,
    607997106,
    607997102,
    607997105,
    607997104,
    607997094
  ],
  "tags": {
    "amenity": "arts_centre",
    "building": "yes",
    "name": "Töpfereimuseum",
    "tourism": "museum"
  }
},
{
  "type": "way",
  "id": 47806395,
  "nodes": [
    607997082,
    607997085,
    607997089,
    607997090,
    607997087,
    607997093,
    607997092,
    607997095,
    607997100,
    607997101,
    607997099,
    607997098,
    607997096,
    607997097,
    607997086,
    607997091,
    607997088,
    607997083,
    607997084,
    607997074,
    607997082
  ],
  "tags": {
    "addr:city": "Langerwehe",
    "addr:country": "DE",
    "addr:housenumber": "1",
    "addr:postcode": "52379",
    "addr:street": "Pastoratsweg",
    "amenity": "arts_centre",
    "building": "yes",
    "email": "info@toepfereimuseum.de",
    "name": "Töpfereimuseum",
    "opening_hours": "Mo-Fr 10:00-13:00, 14:00-18:00; Su 11:00-18:00",
    "phone": "+49 2423 4446",
    "source": "Bing Luftbild",
    "tourism": "museum",
    "website": "http://www.toepfereimuseum.de/",
    "wikidata": "Q2464072",
    "wikipedia": "de:Töpfereimuseum Langerwehe"
  }
},
{
  "type": "way",
  "id": 50670009,
  "nodes": [
    2648284481,
    2648284472,
    2648284501,
    2648284502,
    2648284529,
    2648284498,
    2648284504,
    2648284496,
    2648284489,
    2648284481
  ],
  "tags": {
    "addr:city": "Waldfeucht",
    "addr:country": "DE",
    "addr:housenumber": "32",
    "addr:postcode": "52525",
    "addr:street": "Brabanter Straße",
    "building": "yes",
    "description": "Der in zeittypischer Backsteinmanier errichtete zweigeschossige Bau erhielt ein angesetztes Treppenhaus und eine in den Geschossen unterschiedliche Fassadengestaltung",
    "heritage": "yes",
    "historic": "building",
    "historic:website": "www.limburg-bernd.de",
    "image": "https://upload.wikimedia.org/wikipedia/commons/3/3f/Waldfeucht_Denkmal-Nr._84%2C_Brabanter_Stra%C3%9Fe_32_%285063%29.jpg",
    "name": "Gerhard-Tholen-Stube",
    "note": "Sonntags nur am 3. Sonntag im Monat geöffnet!",
    "old_name": "ehemalige Volksschule",
    "opening_hours": "Mo-Th 09:00-12:00,14:00-16:00, Fr 09:00-12:00, Su 14:00-17:00",
    "operator": "Historischer Verein Waldfeucht e.V.",
    "source": "3dShapes",
    "start_date": "1935",
    "tourism": "museum",
    "tourism:website": "www.hist-waldfeucht.de",
    "wheelchair": "no",
    "wikipedia": "de:Liste der Baudenkmäler in Waldfeucht"
  }
},
{
  "type": "way",
  "id": 51100942,
  "nodes": [
    651915725,
    651931962,
    4266883412,
    4266883409,
    4266883410,
    4266883407,
    4266883405,
    4266883408,
    651931950,
    651915722,
    651915725
  ],
  "tags": {
    "addr:city": "Heimbach",
    "addr:housenumber": "102",
    "addr:street": "Über Rur",
    "building": "yes",
    "name": "Haus des Gastes",
    "opening_hours": "Mo-Su 14:00-17:00",
    "tourism": "museum"
  }
},
{
  "type": "way",
  "id": 77755724,
  "nodes": [
    914438449,
    1013134219,
    914438514,
    914438379,
    914438434,
    914438499,
    914438512,
    914438564,
    2446449981,
    914438403,
    914438521,
    914438500,
    914438449
  ],
  "tags": {
    "addr:city": "Aachen",
    "addr:country": "DE",
    "addr:housenumber": "18-20",
    "addr:postcode": "52070",
    "addr:street": "Wilhelmstraße",
    "building": "civic",
    "building:levels": "6",
    "contact:fax": "+49-241-37075",
    "contact:phone": "+49-241-47980-0",
    "name": "Suermondt-Ludwig-Museum",
    "name:de": "Suermondt-Ludwig-Museum",
    "name:ru": "Музей Сюрмонда-Людвига",
    "opening_hours": "Tu 12:00-18:00;We 12:00-20:00;Th-Fr 12:00-18:00;Sa-Su 11:00-18:00",
    "phone": "+49 241 479800",
    "toilets:wheelchair": "yes",
    "tourism": "museum",
    "website": "http://www.suermondt-ludwig-museum.de/",
    "wheelchair": "yes",
    "wikipedia": "de:Suermondt-Ludwig-Museum"
  }
},
{
  "type": "way",
  "id": 77817084,
  "nodes": [
    914914841,
    1222029410,
    914914843,
    1222029423,
    914914837,
    1715129232,
    914914848,
    1222029428,
    914914855,
    1222029421,
    1222029394,
    1222029402,
    914914845,
    914914841
  ],
  "tags": {
    "addr:city": "Aachen",
    "addr:country": "DE",
    "addr:housenumber": "97-109",
    "addr:postcode": "52070",
    "addr:street": "Jülicher Straße",
    "building": "yes",
    "contact:fax": "+49-241- 1807-101",
    "contact:phone": "+49-241- 1807-104",
    "heritage": "8",
    "heritage:operator": "UntereDenkmalbehörde",
    "name": "Ludwig Forum für Internationale Kunst",
    "name:ru": "Музей современного искусства Людвига",
    "opening_hours": "Tu-We 12:00-18:00; Th 12:00-22:00; Fr 12:00-18:00; Sa, Su, PH 11:00-18:00",
    "short_name": "Ludwig Forum",
    "tourism": "museum",
    "website": "http://www.ludwigforum.de/",
    "wheelchair": "yes",
    "wikidata": "Q464386",
    "wikipedia": "de:Ludwig Forum für Internationale Kunst"
  }
},
{
  "type": "way",
  "id": 79140320,
  "nodes": [
    924649326,
    1002784928,
    914308061,
    914307535,
    924649347,
    924649360,
    924649338,
    924649372,
    2297392445,
    924649359,
    4288767274,
    2297392410,
    4288767275,
    924649326
  ],
  "tags": {
    "addr:city": "Aachen",
    "addr:country": "DE",
    "addr:housenumber": "14",
    "addr:postcode": "52062",
    "addr:street": "Büchel",
    "building": "yes",
    "building:levels": "4",
    "description": "Es sollen in der roten Burg während des Jahres literarische Abende mit Lesungen von Autoren (auch aus der Region Aachen) und Musikabende zur Förderung junger Musiker stattfinden. https://roteburg-buechelmuseum.de/2018/07/17/eroeffnung/",
    "email": "info@roteburg-buechelmuseum.de",
    "fee": "https://roteburg-buechelmuseum.de/kontakt/",
    "heritage": "8",
    "heritage:operator": "UntereDenkmalbehörde",
    "name": "Büchel-Museum Rote Burg",
    "opening_hours": "Tu-Su 12:00-18:00",
    "operator": "Jörg von der Laage",
    "phone": "+49 241 887 499 88",
    "start_date": "September 2018",
    "tourism": "museum",
    "website": "https://roteburg-buechelmuseum.de/",
    "wikidata": "Q62665060",
    "wikipedia": "de:Rote Burg"
  }
},
{
  "type": "way",
  "id": 79141497,
  "nodes": [
    924660521,
    981576492,
    220999729,
    924660530,
    316560768,
    924660508,
    924660527,
    924660519,
    924660509,
    924660521
  ],
  "tags": {
    "addr:city": "Aachen",
    "addr:country": "DE",
    "addr:housename": "Haus Monheim",
    "addr:housenumber": "17",
    "addr:postcode": "52062",
    "addr:street": "Hühnermarkt",
    "building": "yes",
    "heritage": "8",
    "heritage:operator": "UntereDenkmalbehörde",
    "name": "Couven-Museum",
    "name:ru": "Музей Кувен (музей быта)",
    "opening_hours": "Tu-Su 10:00-18:00",
    "phone": "+49 241 4324421",
    "toilets:wheelchair": "no",
    "tourism": "museum",
    "website": "http://www.couven-museum.de",
    "wheelchair": "limited",
    "wikidata": "Q1590371",
    "wikipedia": "de:Haus Monheim"
  }
},
{
  "type": "way",
  "id": 87810971,
  "nodes": [
    1020870032,
    1020870206,
    1020870138,
    1020870066,
    1020870032
  ],
  "tags": {
    "building": "yes",
    "email": "museum@juelich.de",
    "name": "Infopavillon",
    "opening_hours": "Apr-Oct Mo-Fr 14:00-17:00, Sa-Su 11:00-18:00; Nov-Mar Sa 14:00-17:00, Su 11:00-17:00",
    "operator": "Museum Zitadelle",
    "tourism": "museum",
    "url": "http://www.juelich.de/museum/",
    "wheelchair": "limited",
    "wikidata": "Q1954510",
    "wikipedia:de": "Museum Zitadelle"
  }
},
{
  "type": "way",
  "id": 90437931,
  "nodes": [
    4665425859,
    4665425814,
    4665425826,
    4665425835,
    4665425838,
    4665425858,
    4665425888,
    4665426204,
    4665425859
  ],
  "tags": {
    "addr:city": "Simmerath",
    "addr:country": "DE",
    "addr:housenumber": "23",
    "addr:postcode": "52152",
    "addr:street": "Breitestraße",
    "building": "yes",
    "name": "Bauernmuseum",
    "organisation": "Josef Arnolds",
    "phone": "+49 2473 8252",
    "tourism": "museum",
    "url": "http://www.eicherscheid.de/eicherscheid/bauernmuseum/"
  }
},
{
  "type": "way",
  "id": 90593644,
  "nodes": [
    2577537802,
    2577537786,
    2577537823,
    2577537784,
    2577537782,
    2577537712,
    2577537679,
    2577537673,
    2577537657,
    2577537629,
    2577537623,
    2577537601,
    2577537574,
    2577537654,
    2577537651,
    2577537692,
    2577537703,
    2577537713,
    2577537709,
    2577537760,
    2577537719,
    2577537761,
    2577537785,
    2577537792,
    2577537801,
    2577537794,
    2577537809,
    2577537766,
    2577537783,
    2577537772,
    2577537802
  ],
  "tags": {
    "addr:city": "Monschau",
    "addr:country": "DE",
    "addr:housenumber": "2, 4, 6",
    "addr:postcode": "52156",
    "addr:street": "Sankt-Vither-Straße",
    "amenity": "pub",
    "building": "yes",
    "email": "info@brauerei-museum.de",
    "microbrewery": "yes",
    "name": "Felsenkeller Brauereimuseum",
    "opening_hours": "Tu-Su 11:00+; Mo off",
    "phone": "+49 2472 3018",
    "tourism": "museum",
    "website": "http://www.brauerei-museum.de/",
    "wikidata": "Q19835722",
    "wikipedia": "de:Brauerei-Museum Felsenkeller"
  }
},
{
  "type": "way",
  "id": 91594999,
  "nodes": [
    1064202822,
    1064201876,
    1064201384,
    1064203238,
    4595136248,
    4595136251,
    1064202822
  ],
  "tags": {
    "addr:city": "Monschau",
    "addr:country": "DE",
    "addr:housenumber": "4",
    "addr:postcode": "52156",
    "addr:street": "Ringstraße",
    "building": "yes",
    "name": "Dorfmuseum - Uraalt Scholl",
    "tourism": "museum",
    "wikidata": "Q76634951"
  }
},
{
  "type": "way",
  "id": 93729467,
  "nodes": [
    4619142595,
    4619142573,
    4619142578,
    4619142597,
    4619142595
  ],
  "tags": {
    "addr:city": "Simmerath",
    "addr:country": "DE",
    "addr:housenumber": "3",
    "addr:postcode": "52152",
    "addr:street": "Bahnhofstraße",
    "building": "yes",
    "name": "Bauernmuseum",
    "operator": "Verein für Heimatgeschichte und Dorfkultur Lammersdorf",
    "tourism": "museum",
    "url": "http://www.lammersdorf-bauernmuseum.de/bauernmuseum/"
  }
},
{
  "type": "way",
  "id": 100272170,
  "nodes": [
    1158949380,
    3526575089,
    1158949455,
    1158949698,
    1158949607,
    3526575091,
    1158949716,
    3526579497,
    1158949785,
    1158949433,
    3526579500,
    1158949425,
    3526579502,
    3526579501,
    1158949563,
    3526579499,
    1158949509,
    1158949668,
    3526579494,
    1158949380
  ],
  "tags": {
    "addr:city": "Monschau",
    "addr:country": "DE",
    "addr:housenumber": "18",
    "addr:postcode": "52156",
    "addr:street": "Am Handwerkerzentrum",
    "building": "yes",
    "name": "Druckereimuseum",
    "tourism": "museum"
  }
},
{
  "type": "way",
  "id": 103544384,
  "nodes": [
    1195493049,
    1195493050,
    1195492988,
    5881569776,
    1195493016,
    5881569784,
    5881569893,
    1213673508,
    1195493049
  ],
  "tags": {
    "MDG:criteria": "D",
    "MDG:inscription_date": "1983-03-25",
    "addr:city": "Eupen",
    "addr:country": "BE",
    "addr:housenumber": "52",
    "addr:postcode": "4700",
    "addr:street": "Gospertstraße",
    "building": "yes",
    "building:levels": "3",
    "description": "The townhouse dates back to 1697. Since 1980 it houses the city museum.",
    "description:de": "Das Stadthausstammt aus dem Jahr 1697. Es beherbergt seit 1980 das Stadtmuseum.",
    "description:en": "The townhouse dates back to 1697. Since 1980 it houses the city museum.",
    "description:fr": "La maison de ville date de 1697. Depuis 1980, elle abrite le musée de la ville.",
    "description:nl": "Het herenhuis dateert uit 1697. Sinds 1980 herbergt het stadsmuseum.",
    "email": "info@eupener-stadtmuseum.be",
    "heritage": "4",
    "heritage:operator": "MDG",
    "heritage:website": "http://www.ostbelgienkulturerbe.be/desktopdefault.aspx/tabid-3557/linkid=31126",
    "historic": "building",
    "image": "File:EUPEN_Gospertstrasse_52_(Stadtmuseum)_(2).JPG",
    "name": "Stadtmuseum Eupen",
    "opening_hours": "Mo-Fr 08:00-12:00, 13:00-17:00; Sa 08:00-12:00, 13:00-15:00",
    "operator": "Stadt Eupen",
    "payment:coins": "yes",
    "payment:maestro": "yes",
    "payment:mastercard": "yes",
    "payment:notes": "yes",
    "payment:visa": "yes",
    "phone": "+32 87 74 00 05",
    "ref:MDG": "31126",
    "start_date": "1697",
    "tourism": "museum",
    "wheelchair": "yes",
    "wikimedia_commons": "Category:Haus_Gospertstraße_52_(Eupen)"
  }
},
{
  "type": "way",
  "id": 105325959,
  "nodes": [
    1213673589,
    1195493049,
    1213673508,
    5881569894,
    5520141177,
    5881569899,
    1213673589
  ],
  "tags": {
    "addr:city": "Eupen",
    "addr:country": "BE",
    "addr:housenumber": "54",
    "addr:postcode": "4700",
    "addr:street": "Gospertstraße",
    "building": "yes",
    "building:levels": "3",
    "email": "info@eupener-stadtmuseum.be",
    "image": "https://commons.wikimedia.org/wiki/File:EUPEN_Gospertstrasse_52_(Stadtmuseum)_(2).JPG",
    "name": "Stadtmuseum Eupen",
    "opening_hours": "Mo-Fr 08:00-12:00, 13:00-17:00; Sa 08:00-12:00, 13:00-15:00",
    "operator": "Stadt Eupen",
    "payment:coins": "yes",
    "payment:maestro": "yes",
    "payment:mastercard": "yes",
    "payment:notes": "yes",
    "payment:visa": "yes",
    "phone": "+32 87 74 00 05",
    "tourism": "museum",
    "wheelchair": "yes",
    "wikimedia_commons": "Category:Stadtmuseum_Eupen"
  }
},
{
  "type": "way",
  "id": 109583529,
  "nodes": [
    1254086360,
    1254086264,
    1254086306,
    1254086406,
    3974674706,
    3974674702,
    1254086388,
    1254086360
  ],
  "tags": {
    "building": "yes",
    "disused": "yes",
    "historic": "yes",
    "military": "bunker",
    "name": "Sanitätsbunker Simonskall",
    "opening_hours": "Mar-Nov Su 11:00-17:00",
    "operator": "Geschichtsverein Hürtgenwald 1944 und im Frieden e. V.",
    "phone": "+49 2429 902613",
    "ref": "374",
    "source": "Bing",
    "tourism": "museum",
    "website": "https://www.museum-huertgenwald.de"
  }
},
{
  "type": "way",
  "id": 117707566,
  "nodes": [
    1325553109,
    1325553106,
    1325553088,
    1325553086,
    1325553077,
    1325553080,
    1325553109
  ],
  "tags": {
    "addr:city": "Hürtgenwald",
    "addr:country": "DE",
    "addr:housenumber": "21 - 23",
    "addr:postcode": "52393",
    "addr:street": "Pfarrer-Dickmann-Straße",
    "building": "yes",
    "name": "Museum Hürtgenwald 1944 und im Frieden",
    "opening_hours": "Mar-Nov Su 11:00-17:00",
    "operator": "Geschichtsverein Hürtgenwald 1944 und im Frieden e. V.",
    "phone": "+49-2429-902613",
    "source": "Bing",
    "tourism": "museum",
    "wheelchair": "yes",
    "wikipedia": "de:Museum Hürtgenwald 1944"
  }
},
{
  "type": "way",
  "id": 118829420,
  "nodes": [
    3495819962,
    3495819926,
    3495819908,
    3495819940,
    3495819962
  ],
  "tags": {
    "addr:city": "Aldenhoven",
    "addr:country": "DE",
    "addr:housenumber": "8a",
    "addr:postcode": "52457",
    "addr:street": "Dietrich-Mülfahrt-Straße",
    "building": "yes",
    "name": "Glück-Auf Museum",
    "opening_hours": "Apr 1- Oct 31 Th 17:00-23:00; Apr 1- Oct 31 Su 14:00-17:00; Nov 1-Mar 31 Th 17:00-23:00",
    "operator": "Bergmännischer Traditionsverein für Stein- und Braunkohle \"GLÜCK AUF\" Aldenhoven 1992 e.V.",
    "tourism": "museum",
    "website": "http://www.traditionsverein-aldenhoven.de/",
    "wheelchair": "no"
  }
},
{
  "type": "way",
  "id": 131299948,
  "nodes": [
    1445338598,
    1445338596,
    1445338597,
    1445338599,
    1445338598
  ],
  "tags": {
    "addr:housenumber": "64",
    "addr:street": "Avenue de Navagne",
    "building": "yes",
    "name": "Club des Chercheurs et Correspondants Cheminot",
    "opening_hours": "\"needs reservation by phone\"",
    "phone": "+32 473 79 08 90",
    "short_name": "CCCC",
    "tourism": "museum",
    "website": "http://cccc-vise.over-blog.com/"
  }
},
{
  "type": "way",
  "id": 137314095,
  "nodes": [
    4663150752,
    4663155627,
    4663155624,
    4663155621,
    4663155538,
    4663155542,
    4663155534,
    4663155631,
    4663155632,
    4663150752
  ],
  "tags": {
    "addr:city": "Monschau",
    "addr:country": "DE",
    "addr:housenumber": "121",
    "addr:postcode": "52156",
    "addr:street": "Hauptstraße",
    "addr:suburb": "Höfen",
    "building": "yes",
    "tourism": "museum"
  }
},
{
  "type": "way",
  "id": 155557497,
  "nodes": [
    1679501065,
    5863186417,
    1679501063,
    1679501064,
    1679501069,
    1679501067,
    1679501065
  ],
  "tags": {
    "addr:city": "Limbourg",
    "addr:housenumber": "30",
    "addr:postcode": "4830",
    "addr:street": "Place Saint-Georges",
    "building": "yes",
    "name": "L'Arvo",
    "tourism": "museum"
  }
},
{
  "type": "way",
  "id": 163977380,
  "nodes": [
    1756331524,
    1756331504,
    1756331510,
    1756331512,
    1756331527,
    1756331525,
    1756331524
  ],
  "tags": {
    "addr:housenumber": "17",
    "addr:street": "Rue Renier",
    "building": "yes",
    "historic": "archaeological_site",
    "name": "Musée des Beaux-Arts et de la Céramique",
    "opening_hours": "Tu, We, Sa 14:00-17:00; Su 15:00-18:00",
    "tourism": "museum",
    "website": "http://musees.verviers.be/musee-des-beaux-arts"
  }
},
{
  "type": "way",
  "id": 164061380,
  "nodes": [
    4758463326,
    1757225827,
    4758463328,
    5995922028,
    4758463325,
    4758463326
  ],
  "tags": {
    "addr:city": "Verviers",
    "addr:housenumber": "42",
    "addr:postcode": "4800",
    "addr:street": "Rue des Raines",
    "building": "yes",
    "name": "Musée d'Archéologie et de Folklore",
    "phone": "+32 87 33 16 95",
    "tourism": "museum",
    "website": "http://musees.verviers.be"
  }
},
{
  "type": "way",
  "id": 174647053,
  "nodes": [
    1853014727,
    1853014725,
    1853014726,
    5043813894,
    5043813893,
    6695967263,
    6695967264,
    1853014729,
    5043813892,
    5043813891,
    1853014728,
    1853014730,
    1853014727
  ],
  "tags": {
    "building": "yes",
    "disused:man_made": "mine",
    "historic": "mine",
    "image": "File:Blegny- Mine Puits Marie 2.jpg",
    "name": "Blegny-Mine - Puits Marie",
    "resource": "coal",
    "tourism": "museum"
  }
},
{
  "type": "way",
  "id": 175144879,
  "nodes": [
    1857855435,
    1857855434,
    1857855418,
    1857855408,
    1857855428,
    443143562,
    1857855435
  ],
  "tags": {
    "addr:city": "Stolberg",
    "addr:housenumber": "90",
    "addr:postcode": "52223",
    "addr:street": "Cockerillstraße",
    "name": "Zinkhütter Hof",
    "tourism": "museum",
    "website": "http://www.zinkhuetterhof.de/",
    "wheelchair": "limited",
    "wikidata": "Q1954517",
    "wikipedia": "de:Museum Zinkhütter Hof"
  }
},
{
  "type": "way",
  "id": 179746727,
  "nodes": [
    3468922025,
    3468922035,
    3468922036,
    3468922130,
    5276002937,
    3468918488,
    3468922034,
    3468918472,
    3468922017,
    3468922018,
    3468921996,
    3468922001,
    3468922019,
    3468918473,
    3468922025
  ],
  "tags": {
    "addr:city": "Linnich",
    "addr:country": "DE",
    "addr:housenumber": "11",
    "addr:postcode": "52441",
    "addr:street": "Rurstraße",
    "building": "yes",
    "email": "info@glasmalereimuseum.de",
    "name": "Glasmalereimuseum",
    "opening_hours": "Tu-Su 11:00-17:00",
    "phone": "+49 2462 99170",
    "tourism": "museum",
    "website": "https://www.glasmalereimuseum.de/",
    "wikipedia": "de:Deutsches Glasmalerei-Museum"
  }
},
{
  "type": "way",
  "id": 199202512,
  "nodes": [
    2092274551,
    2092274549,
    2092274553,
    2092274555,
    2092274551
  ],
  "tags": {
    "building": "school",
    "historic": "building",
    "name": "Alte Schule Wollseifen",
    "tourism": "museum"
  }
},
{
  "type": "way",
  "id": 210081990,
  "nodes": [
    975268308,
    975268305,
    2202079360,
    2202079384,
    2202079378,
    2202079346,
    2202079351,
    2202079381,
    975268260,
    2202079364,
    2202079366,
    2202079372,
    2202079370,
    2202079368,
    2202079382,
    975268266,
    975268281,
    2202079383,
    5447609394,
    5447609395,
    975268262,
    975268246,
    975268294,
    975268225,
    975268201,
    5447609387,
    975268310,
    1544204551,
    2311741662,
    975268214,
    2311741578,
    2311806242,
    975268256,
    1512631996,
    2311806239,
    975268286,
    975268216,
    975268251,
    975268308
  ],
  "tags": {
    "addr:city": "Aachen",
    "addr:housenumber": "1",
    "addr:postcode": "52062",
    "addr:street": "Katschhof",
    "building": "yes",
    "fee": "yes",
    "heritage": "8",
    "heritage:operator": "UntereDenkmalbehörde",
    "name": "Centre Charlemagne",
    "name:ru": "Исторический музей Ахена",
    "opening_hours": "Tu-Su,PH 10:00-17:00",
    "phone": "+49 241 4324902",
    "toilets:wheelchair": "yes",
    "tourism": "museum",
    "website": "http://www.route-charlemagne.eu/stationen/Centre_Charlemagne/",
    "wheelchair": "yes",
    "wikidata": "Q17278003"
  }
},
{
  "type": "way",
  "id": 226854306,
  "nodes": [
    2649824848,
    2649824835,
    2649824837,
    2649824802,
    2649824804,
    2649824782,
    2649824784,
    2649824808,
    2649824807,
    2649824805,
    2649824806,
    2649824827,
    2649824822,
    2649824829,
    2649824824,
    2649824832,
    2649824839,
    2649824841,
    2649824857,
    2649824855,
    2649824853,
    2649824850,
    2649824848
  ],
  "tags": {
    "addr:city": "Heinsberg",
    "addr:country": "DE",
    "addr:housenumber": "21",
    "addr:postcode": "52525",
    "addr:street": "Hochstraße",
    "building": "yes",
    "description": "Zweigeschossiges Gebäude aus dem 18. Jahrhundert, im Winkel gebaut mit Tordurchfahrt, Ecktürmchen und Blausteingewänden",
    "heritage": "yes",
    "historic": "building",
    "historic:image": "https://upload.wikimedia.org/wikipedia/commons/c/ce/Heinsberg_Denkmal-Nr._22%2C_Hochstra%C3%9Fe_21_%284161%29.jpg",
    "name": "BEGAS HAUS",
    "old_name": "Alte Rathaus mit Innentor",
    "opening_hours": "Tu-Sa 14:00-17:00; Su 11:00-17:00",
    "start_date": "18. Jahrhundert",
    "tourism": "museum",
    "tourism:image": "https://upload.wikimedia.org/wikipedia/commons/b/bb/Carl_Joseph_Begas_Selbstbildnis.jpg",
    "tourism:website": "www.begas-haus.de",
    "website": "http://www.limburg-bernd.de",
    "wheelchair": "yes",
    "wikidata": "Q66421494",
    "wikipedia": "de:Liste der Baudenkmäler in Heinsberg"
  }
},
{
  "type": "way",
  "id": 245352901,
  "nodes": [
    2665253538,
    2665253493,
    2665253495,
    2665253523,
    2665253521,
    2665253529,
    2665253544,
    2665253549,
    2665253558,
    2665253562,
    2665253538
  ],
  "tags": {
    "addr:city": "Hückelhoven",
    "addr:country": "DE",
    "addr:housenumber": "30",
    "addr:postcode": "41836",
    "addr:street": "Sophiastraße",
    "building": "yes",
    "description": "Zweigeschossiges deutsches Strebengerüst in Fachwerkbauweise, 1929 bis in eine Höhe von 23,71 m erstellt und 1934 komplettiert mit den beiden Seilscheibenbühnen. Höhe bis zur oberen Seilscheibenbühne: 42,6 m.",
    "designation": "Bergwerksmuseum Schacht 3",
    "disused": "yes",
    "email": "info@foerderverein-schacht3.de",
    "fax": "+49 2433 42681",
    "heritage": "yes",
    "historic": "building",
    "historic:website": "www.limburg-bernd.de",
    "image": "http://upload.wikimedia.org/wikipedia/commons/thumb/e/e8/H%C3%BCckelhoven_Zeche_Sophia-Jacoba_F%C3%B6rderturm_Schacht-3_0334.jpg/80px-H%C3%BCckelhoven_Zeche_Sophia-Jacoba_F%C3%B6rderturm_Schacht-3_0334.jpg",
    "man_made": "mineshaft",
    "mineshaft_type": "air",
    "name": "Schacht 3",
    "old_name": "Fördergerüst und Maschienenhalle",
    "opening_hours": "Th 09:00-13:00",
    "operator": "Förderverein Schacht 3 Hückelhoven e.V.",
    "phone": "+49 2433 442681",
    "resource": "coal",
    "source": "http://www.schacht-3.de/startseite",
    "start_date": "1929-1934",
    "tourism": "museum",
    "tourism:website": "http://www.schacht-3.de",
    "wikipedia": "de:Liste der Baudenkmäler in Hückelhoven"
  }
},
{
  "type": "way",
  "id": 257800805,
  "nodes": [
    2747678105,
    6886065263,
    2747678097,
    2747678031,
    2747678020,
    6886065262,
    2747678041,
    2747678076,
    2747678086,
    2747678145,
    2747678105
  ],
  "tags": {
    "addr:city": "Erkelenz",
    "addr:country": "DE",
    "addr:housenumber": "23",
    "addr:postcode": "41812",
    "addr:street": "Hauptstraße",
    "addr:suburb": "Lövenich",
    "building": "yes",
    "description": "Baujahr: Zweite Hälfte des 19. Jahrhunderts Backsteinbau, zweigeschossig in fünf Achsen und Torachse, Türgewände in Blaustein, Ladeneinbau.",
    "email": "info@rheinisches-feuerwehrmuseum.de",
    "fax": "+49 2435 948540",
    "heritage": "yes",
    "historic": "building",
    "historic:website": "www.limburg-bernd.de",
    "image": "https://upload.wikimedia.org/wikipedia/commons/6/66/Erkelenz-L%C3%B6venich_Denkmal-Nr._222%2C_Hauptstra%C3%9Fe_23_%283844%29.jpg",
    "name": "Rheinisches Feuerwehrmuseum e.V.",
    "old_name": "Wohnhaus",
    "opening_hours": "Sa 14:00-17:00; Su 11:00-17:00",
    "phone": "+49 2435 3971",
    "start_date": "Zweite Hälfte des 19. Jahrhunderts",
    "tourism": "museum",
    "tourism:image": "http://upload.wikimedia.org/wikipedia/commons/f/f3/Fwmuseum_Loevenich.jpg",
    "tourism:website": "www.rheinisches-feuerwehrmuseum.de",
    "wikidata": "Q2147829",
    "wikipedia": "de:Rheinisches Feuerwehrmuseum"
  }
},
{
  "type": "way",
  "id": 259371270,
  "nodes": [
    2647724720,
    2647724713,
    2647724701,
    2647724702,
    2647724691,
    2647724703,
    2647724728,
    2647724719,
    2647724720
  ],
  "tags": {
    "addr:city": "Waldfeucht",
    "addr:country": "DE",
    "addr:housenumber": "57",
    "addr:postcode": "52525",
    "addr:street": "Kirchstraße",
    "addr:suburb": "Bocket",
    "building": "yes",
    "name": "Radio-Museum Bocket",
    "operator": "Hans Stellmacher",
    "phone": "+49 2455 9309933",
    "tourism": "museum",
    "website": "http://www.radiomuseum-bocket.de"
  }
},
{
  "type": "way",
  "id": 260964818,
  "nodes": [
    2665624373,
    2665624372,
    2665624347,
    2665624335,
    2665624334,
    2665624321,
    2665624280,
    2665624296,
    2665624373
  ],
  "tags": {
    "addr:city": "Hückelhoven",
    "addr:country": "DE",
    "addr:housenumber": "1",
    "addr:postcode": "41836",
    "addr:street": "Ludovicistraße",
    "building": "yes",
    "description": "every second Sunday of the month 11:00-15:00",
    "description:de": "jeden 2. Sonntag im Monat von 11.00 - 15.00 Uhr",
    "email": "info@museum-hueckelhoven.de",
    "name": "Mineralien- und Bergbaufreunde",
    "phone": "+49 2433 2627",
    "tourism": "museum",
    "website": "www.museum-hueckelhoven.de"
  }
},
{
  "type": "way",
  "id": 261457030,
  "nodes": [
    2670731554,
    3370677585,
    2670731555,
    2670731553,
    3370677577,
    3370677576,
    2670731552,
    2670731554
  ],
  "tags": {
    "addr:city": "Übach-Palenberg",
    "addr:country": "DE",
    "addr:housenumber": "21",
    "addr:postcode": "52531",
    "addr:street": "Otbertstraße",
    "building": "yes",
    "description": "by appointment only; Guided tours for groups only by denying",
    "description:de": "nur nach Vereinbarung; Führung für Gruppen nur nach Absprache",
    "name": "Sammlung Riediger",
    "phone": "+49 2451 45076",
    "tourism": "museum",
    "website": "https://liveserver5.ionas.de/brd/nrw/c5/sv_uebach_palenberg/kultur_freizeit_tourismus/kulturtraeger_in_uebach_palenberg/sammlung_riediger/index.html",
    "wheelchair": "no",
    "wikidata": "Q76635150"
  }
},
{
  "type": "way",
  "id": 261596460,
  "nodes": [
    2671916573,
    2671916537,
    2671916536,
    2671916530,
    2671916523,
    2671916512,
    2671916513,
    2671916503,
    2671916504,
    2671916506,
    2671916505,
    2671916524,
    2671916538,
    2671916539,
    2671916574,
    2671916573
  ],
  "tags": {
    "addr:city": "Geilenkirchen",
    "addr:country": "DE",
    "addr:housenumber": "2",
    "addr:postcode": "52511",
    "addr:street": "Vogteistraße",
    "building": "yes",
    "email": "museum@kreis-Heinsberg.de",
    "fax": "+49 2452 134095",
    "name": "Geilenkirchen – Kreismuseum",
    "opening_hours": "Sa 14:00-18:00; Su 10:00-12:30; 14:00-18:00",
    "phone": "+49 2452 134027",
    "tourism": "museum"
  }
},
{
  "type": "way",
  "id": 263412385,
  "nodes": [
    2690224697,
    2690224693,
    2690224715,
    2690224712,
    2690224709,
    2690224706,
    2690224703,
    2690224687,
    2690224690,
    2690224663,
    2690224666,
    2690224641,
    2690224644,
    2690224651,
    2690224648,
    2690224681,
    2690224678,
    2690224675,
    2690224684,
    2690224697
  ],
  "tags": {
    "abandoned:man_made": "windmill",
    "addr:city": "Gangelt",
    "addr:country": "DE",
    "addr:housenumber": "998",
    "addr:postcode": "52538",
    "addr:street": "Waldfeuchter Straße",
    "addr:suburb": "Breberen",
    "building": "yes",
    "description": "Turmwindmühle errichtet im Jahre 1842 (1827) aus Backstein. Die Mühle wurde 1950 restauriert",
    "heritage": "8",
    "heritage:operator": "UntereDenkmalbehörde",
    "image": "https://upload.wikimedia.org/wikipedia/commons/0/0c/Gangelt-Breberen_Denkmal-Nr._30%2C_M%C3%BChlenstra%C3%9Fe_%284013%29.jpg",
    "man_made": "windmill",
    "name": "Museumsmühle",
    "operator": "Verein Historische Mühlen im Selfkant e.V.",
    "ref:Gangelt": "30",
    "related:wikipedia": "de:Liste der Baudenkmäler in Gangelt",
    "start_date": "1842",
    "tourism": "museum",
    "tourism:addr_city": "Waldfeucht",
    "tourism:addr_housenumber": "13",
    "tourism:addr_postcode": "52525",
    "tourism:addr_street": "Lambertusstraße",
    "tourism:email": "j.vraetz@waldfeucht.de",
    "tourism:fax": "+49 2455 4077734",
    "tourism:phone": "+49 2455 39934",
    "tourism:website": "http://www.muehlenverein-selfkant.de/",
    "windmill:vanes": "yes"
  }
},
{
  "type": "way",
  "id": 268644498,
  "nodes": [
    2739781406,
    2739781400,
    2739781398,
    2739781395,
    2739781394,
    2739781380,
    2739781391,
    2739781406
  ],
  "tags": {
    "addr:city": "Hückelhoven",
    "addr:country": "DE",
    "addr:housenumber": "22",
    "addr:postcode": "41836",
    "addr:street": "Nohlmannstraße",
    "addr:suburb": "Hilfarth",
    "building": "yes",
    "description": "Dreiflügelige Backstein-Hofanlage, weiß geschlämmt, Satteldächer, z.T. noch Holzblockrahmen; 18./19. Jahrhundert (Kern älter). (Ehemaliges Franziskanerinnenkloster St. Leonhard wurde 1802 aufgelöst)",
    "heritage": "8",
    "heritage:operator": "UntereDenkmalbehörde",
    "heritage:ref": "229",
    "historic:website": "www.limburg-bernd.de",
    "image": "http://upload.wikimedia.org/wikipedia/commons/thumb/e/ee/H%C3%BCckelhoven-Hilfarth_Denkmal-Nr._229%2C_Nohlmannstra%C3%9Fe_22-24_%284637%29.jpg/120px-H%C3%BCckelhoven-Hilfarth_Denkmal-Nr._229%2C_Nohlmannstra%C3%9Fe_22-24_%284637%29.jpg",
    "name": "Korbmachermuseum",
    "start_date": "C18..C19",
    "tourism": "museum",
    "tourism:website": "www.rurtal-korbmacher.de",
    "wikipedia": "de:Liste der Baudenkmäler in Hückelhoven"
  }
},
{
  "type": "way",
  "id": 274187428,
  "nodes": [
    2789478770,
    2789478838,
    2789478825,
    2789478755,
    2789478770
  ],
  "tags": {
    "addr:city": "Vaals",
    "addr:country": "NL",
    "addr:housenumber": "2c",
    "addr:postcode": "6291BB",
    "addr:street": "Akenerstraat",
    "building": "yes",
    "description": "het kleinste en hoogst gelegen museum van Nederland",
    "image": "File:Vaals-Douanepost Akenerstraat (1).JPG",
    "name": "Kleng Wach",
    "ref:bag": "981100000022080",
    "source": "BAG",
    "source:date": "2014-03-24",
    "start_date": "1988",
    "tourism": "museum",
    "wheelchair": "no",
    "wikimedia_commons": "Category:Grenzmuseum (Vaals)"
  }
},
{
  "type": "way",
  "id": 274540510,
  "nodes": [
    937991582,
    2792437028,
    2792437056,
    599279929,
    937991582
  ],
  "tags": {
    "building": "yes",
    "building:levels": "1",
    "name": "Netherlands American Cemetery and Memorial Museum",
    "ref:bag": "936100000006576",
    "source": "BAG",
    "source:date": "2014-03-24",
    "start_date": "1960",
    "tourism": "museum"
  }
},
{
  "type": "way",
  "id": 275332696,
  "nodes": [
    2799708000,
    2799707992,
    2799707990,
    2799718659,
    2799718660,
    4555503114,
    4555503113,
    4555503112,
    2799708000
  ],
  "tags": {
    "building": "house",
    "name": "Museum Sint-Pieters",
    "ref:bag": "935100000089492",
    "source": "BAG",
    "source:date": "2016-12-15",
    "start_date": "1927",
    "tourism": "museum",
    "wikidata": "Q2685462"
  }
},
{
  "type": "way",
  "id": 275350629,
  "nodes": [
    2799909628,
    2799909632,
    2799909640,
    2799909634,
    2799909646,
    2799909639,
    2799909606,
    2799909603,
    2799909593,
    2799909582,
    2799909586,
    2799909570,
    2799909579,
    2799909573,
    2799909585,
    2799909587,
    2799909604,
    2799909605,
    2799909618,
    2799909628
  ],
  "tags": {
    "building": "yes",
    "name": "Eyewitness",
    "opening_hours": "Mo off; Tu 10:00-17:00; We 10:00-17:00; Th 10:00-17:00; Fr 10:00-17:00; Sa 12:00-18:00; Su 12:00-18:00",
    "ref:bag": "888100000008464",
    "source": "BAG",
    "source:date": "2014-03-24",
    "start_date": "1921",
    "tourism": "museum",
    "website": "https://www.eyewitnesswo2.nl/",
    "wikidata": "Q18433388"
  }
},
{
  "type": "way",
  "id": 275826062,
  "nodes": [
    2804935839,
    2804935809,
    2804935492,
    2804934181,
    2804935839
  ],
  "tags": {
    "building": "yes",
    "name": "Schatkamer Sint-Servaasbasiliek",
    "name:en": "Treasury of the Basilica of Saint Servatius",
    "ref:bag": "935100000017083",
    "source": "BAG",
    "source:date": "2014-03-24",
    "start_date": "1854",
    "tourism": "museum",
    "wikidata": "Q2284283"
  }
},
{
  "type": "way",
  "id": 276399572,
  "nodes": [
    2809919855,
    2809919862,
    2809919872,
    2809919874,
    2809919882,
    2809919886,
    2809919888,
    2809919895,
    2809921301,
    2809921304,
    2809921310,
    2809921314,
    2809921320,
    2809921324,
    2809921327,
    2809921330,
    2809921331,
    2809921329,
    2809921326,
    2809921322,
    2809921318,
    2809921313,
    2809921308,
    2809921303,
    2809919898,
    2809919893,
    2809919887,
    2809919884,
    2809919879,
    2809919871,
    2809919880,
    2809921997,
    2809922000,
    2809921986,
    2809921991,
    2809922205,
    2809922206,
    2809921993,
    2809922201,
    2809922216,
    2809922218,
    2809922202,
    2809922211,
    2809922230,
    2809922232,
    2809922212,
    2809922222,
    2809922732,
    2809922733,
    2809922224,
    2809922234,
    2809922744,
    2809922746,
    2809922728,
    2809922736,
    2809922752,
    2809922754,
    2809922738,
    2809922750,
    2809922763,
    2809922765,
    2809922751,
    2809922758,
    2809922770,
    2809922771,
    2809922759,
    2809922767,
    2809924208,
    2809921398,
    2809923288,
    2809925407,
    2809924236,
    2809924235,
    2809922802,
    2809922809,
    2809922215,
    2809922213,
    2809921959,
    2809921961,
    2809919851,
    2809919844,
    2809917957,
    2809917956,
    2809913760,
    2809909162,
    2809917359,
    2809917928,
    2809920625,
    2809920613,
    2809919587,
    2809919585,
    2809920611,
    2809919597,
    2809919571,
    2809919568,
    2809919595,
    2809919579,
    2809919556,
    2809919554,
    2809919578,
    2809919564,
    2809919536,
    2809919534,
    2809919559,
    2809919550,
    2809919524,
    2809919523,
    2809919545,
    2809919529,
    2809919517,
    2809919515,
    2809919527,
    2809919521,
    2809919506,
    2809919501,
    2809919520,
    2809919510,
    2809916490,
    2809916488,
    2809919508,
    2809916498,
    2809916481,
    2809916480,
    2809920637,
    2809920633,
    2809920627,
    2809920621,
    2809920617,
    2809920610,
    2809919600,
    2809919594,
    2809919586,
    2809919576,
    2809919569,
    2809919560,
    2809919557,
    2809919553,
    2809919551,
    2809919547,
    2809919546,
    2809919549,
    2809919552,
    2809919555,
    2809919558,
    2809919566,
    2809919573,
    2809919583,
    2809919592,
    2809919599,
    2809920607,
    2809920616,
    2809920620,
    2809920631,
    2809920623,
    2809919593,
    2809919561,
    2809919532,
    2809919512,
    2809916493,
    2809916479,
    2809916464,
    2809916457,
    2809916450,
    2809916455,
    2809916463,
    2809916478,
    2809916494,
    2809919514,
    2809919533,
    2809919570,
    2809920609,
    2809920640,
    2809919853,
    2809919876,
    2809919897,
    2809921316,
    2809921334,
    2809921939,
    2809921942,
    2809921945,
    2809921944,
    2809921940,
    2809921335,
    2809921317,
    2809919900,
    2809919878,
    2809919855
  ],
  "tags": {
    "addr:city": "Maastricht",
    "addr:country": "NL",
    "addr:housenumber": "250",
    "addr:street": "Avenue Ceramique",
    "building": "yes",
    "fee": "MJK_free",
    "name": "Bonnefantenmuseum",
    "opening_hours": "Tu-Su 11:00-17:00",
    "ref:bag": "935100000023799",
    "source": "BAG",
    "source:date": "2014-03-24",
    "start_date": "1992",
    "tourism": "museum",
    "website": "https://www.bonnefanten.nl/",
    "wikidata": "Q892727",
    "wikipedia": "nl:Bonnefantenmuseum"
  }
},
{
  "type": "way",
  "id": 280321230,
  "nodes": [
    2844593114,
    2844593172,
    2844593406,
    2844593437,
    2844593427,
    2844593438,
    2844593445,
    2844593451,
    2844593458,
    2844593454,
    2844593446,
    2844593455,
    2844593491,
    2844593853,
    2844593815,
    2844593826,
    2844593811,
    2844593803,
    2844593462,
    2844593192,
    2844592963,
    2844592966,
    2844592916,
    2844592843,
    2844592903,
    2844592824,
    2844593114
  ],
  "tags": {
    "building": "yes",
    "name": "Thermenmuseum",
    "ref:bag": "917100000047163",
    "source": "BAG",
    "source:date": "2014-05-07",
    "start_date": "1977",
    "tourism": "museum",
    "website": "https://www.thermenmuseum.nl/",
    "wikidata": "Q153193",
    "wikipedia": "nl:Thermenmuseum"
  }
},
{
  "type": "way",
  "id": 301403602,
  "nodes": [
    3054512227,
    4333087682,
    4226015722,
    4226015723,
    3054512230,
    4333087679,
    4333087680,
    3054512229,
    3054512228,
    3054512226,
    3054512225,
    3054512227
  ],
  "tags": {
    "addr:city": "Merzenich",
    "addr:country": "DE",
    "addr:housenumber": "1",
    "addr:postcode": "52399",
    "addr:street": "Bergstraße",
    "building": "yes",
    "name": "Heimatmuseum",
    "tourism": "museum",
    "wikidata": "Q1595640"
  }
},
{
  "type": "way",
  "id": 320371721,
  "nodes": [
    3268806811,
    3268806805,
    3884699001,
    3884699002,
    3884699003,
    3884699004,
    3884699005,
    3884699006,
    3884699009,
    3884699011,
    3884699013,
    3884699012,
    3884699010,
    3268806826,
    3268806819,
    3268806820,
    3268806811
  ],
  "tags": {
    "building": "civic",
    "name": "Géologium du Broukay",
    "tourism": "museum",
    "website": "http://www.gmvloisirs.be/geologium.php"
  }
},
{
  "type": "way",
  "id": 384769716,
  "nodes": [
    3881235486,
    3881235482,
    3881235476,
    3881235478,
    3881235479,
    619435047,
    3881235488,
    3881235486
  ],
  "tags": {
    "building": "yes",
    "tourism": "museum"
  }
},
{
  "type": "way",
  "id": 385116820,
  "nodes": [
    3884700763,
    3884700770,
    3884700771,
    3884700772,
    3884700774,
    3884700777,
    3884700783,
    3884700786,
    3884700788,
    3884700790,
    3884700789,
    3884700787,
    3884700785,
    3884700780,
    3884700775,
    3884700778,
    3884700781,
    3884700784,
    3884700782,
    3884700779,
    3884700776,
    3884700773,
    3884700769,
    3884700768,
    3884700767,
    3884700765,
    3884700766,
    3884700759,
    3884700758,
    3884699055,
    3884699052,
    3884699045,
    3884699043,
    3884699041,
    3884699039,
    3884699037,
    3884699038,
    3884699040,
    3884699042,
    3884699044,
    3884699049,
    3884699056,
    3884699054,
    3884699051,
    3884699048,
    3884699046,
    3884699047,
    3884699050,
    3884699053,
    3884700757,
    3884700760,
    3884700761,
    3884700762,
    3884700764,
    3884700763
  ],
  "tags": {
    "addr:city": "Bassenge",
    "addr:country": "BE",
    "addr:postcode": "4690",
    "addr:street": "Haie de Wonck",
    "alt_name": "Musée du Silex",
    "building": "castle",
    "historic": "castle",
    "name": "Tour d'Eben-Ezer",
    "tourism": "museum",
    "website": "http://www.musee-du-silex.be",
    "wikidata": "Q3533248",
    "wikipedia": "fr:Tour d'Eben-Ezer"
  }
},
{
  "type": "way",
  "id": 395978467,
  "nodes": [
    3987828766,
    3987828775,
    3987828772,
    3987828782,
    3987828777,
    3987828769,
    3987828152,
    3987828764,
    3987828773,
    3987828156,
    3987828757,
    3987828766
  ],
  "tags": {
    "addr:city": "Herstal",
    "addr:housenumber": "25",
    "addr:postcode": "4040",
    "addr:street": "Place Licourt",
    "alt_name": "Maison de Lovinfosse",
    "building": "yes",
    "clt:inscription_date": "1934-09-14",
    "description": "Maison du 17e s., actuellement musée,",
    "heritage": "4",
    "heritage:operator": "clt",
    "heritage:website": "http://lampspw.wallonie.be/dgo4/site_thema/index.php/dossier/view/BC_PAT/62051-CLT-0002-01",
    "name": "Musée de la ville de Herstal",
    "ref:clt": "62051-CLT-0002-01",
    "start_date": "1664",
    "tourism": "museum",
    "wikipedia:nl": "Musée Communal (Herstal)"
  }
},
{
  "type": "way",
  "id": 413961109,
  "nodes": [
    5447608379,
    4151643804,
    4151642461,
    5447608378,
    5447608377,
    4289471658,
    975362751,
    975362745,
    975362730,
    977480910,
    975362777,
    4151643794,
    5447608384,
    5447608382,
    5447608380,
    5447608379
  ],
  "tags": {
    "addr:city": "Aachen",
    "addr:housenumber": "13",
    "addr:postcode": "52062",
    "addr:street": "Pontstraße",
    "name": "Internationales Zeitungsmuseum",
    "name:de": "Internationales Zeitungsmuseum",
    "name:en": "International Newspaper Museum",
    "name:fr": "Musée International du Journal",
    "name:nl": "Internationaal Krantenmuseum",
    "opening_hours": "Tu-Su 10:00-18:00",
    "phone": "+49 241 4324910",
    "toilets:wheelchair": "yes",
    "tourism": "museum",
    "website": "http://www.izm.de/",
    "wheelchair": "yes",
    "wikidata": "Q16739201",
    "wikipedia": "de:Internationales Zeitungsmuseum"
  }
},
{
  "type": "way",
  "id": 440475730,
  "nodes": [
    4382141644,
    4382141647,
    4382141897,
    4382141894,
    4382141895,
    4382141648,
    4382141896,
    4382141646,
    4382141645,
    4382141642,
    4382141640,
    4382141893,
    4382141639,
    4382141641,
    4382141644
  ],
  "tags": {
    "addr:housenumber": "3",
    "addr:street": "Am Klosterhof",
    "building": "yes",
    "name": "Klosterkapelle",
    "tourism": "museum",
    "wikipedia": "de:Zisterzienserinnenkloster St. Jöris"
  }
},
{
  "type": "way",
  "id": 547761190,
  "nodes": [
    5292438049,
    5292438050,
    5292438051,
    5292438052,
    5292438053,
    5292438054,
    5292438055,
    5292438056,
    5292438049
  ],
  "tags": {
    "addr:city": "Verviers",
    "addr:postcode": "4800",
    "addr:street": "Rue de la Chapelle",
    "building": "yes",
    "name": "Centre touristique de la Laine et de la Mode",
    "tourism": "museum"
  }
},
{
  "type": "way",
  "id": 551301021,
  "nodes": [
    5324153038,
    5324153039,
    5324353335,
    5324153040,
    5324153041,
    5324353337,
    5324353338,
    5324353336,
    5324153038
  ],
  "tags": {
    "addr:housenumber": "5",
    "addr:street": "Rue de la Saunerie",
    "building": "yes",
    "name": "Ensival historical museum",
    "tourism": "museum"
  }
},
{
  "type": "way",
  "id": 614360589,
  "nodes": [
    5811541200,
    5811541198,
    5811541197,
    5811541196,
    5811541195,
    5811541194,
    5811541199,
    5811541193,
    5811541192,
    5811541191,
    5811541190,
    5811541189,
    5811541188,
    5811541187,
    5811541186,
    5811541201,
    5811541185,
    5811541184,
    5811541183,
    5811541182,
    5811541200
  ],
  "tags": {
    "building:part": "yes",
    "layer": "1",
    "name": "Columbus Earth Theater",
    "opening_hours": "Tu-Su,PH 10:00-17:00",
    "tourism": "museum",
    "website": "https://www.columbusearththeater.nl/",
    "wheelchair": "yes"
  }
},
{
  "type": "relation",
  "id": 1383481,
  "members": [
    {
      "type": "way",
      "ref": 96698542,
      "role": "outer"
    },
    {
      "type": "way",
      "ref": 90616711,
      "role": "inner"
    }
  ],
  "tags": {
    "addr:city": "Monschau",
    "addr:country": "DE",
    "addr:housenumber": "5-7",
    "addr:postcode": "52156",
    "addr:street": "Austraße",
    "building": "yes",
    "name": "Aukloster",
    "tourism": "museum",
    "type": "multipolygon"
  }
},
{
  "type": "relation",
  "id": 7758830,
  "members": [
    {
      "type": "way",
      "ref": 99228210,
      "role": "outer"
    },
    {
      "type": "way",
      "ref": 99228214,
      "role": "outer"
    }
  ],
  "tags": {
    "addr:city": "Kelmis",
    "addr:city_1": "La Calamine",
    "addr:housenumber": "278 - 280",
    "addr:postcode": "4720",
    "addr:street": "Lütticher Straße",
    "addr:street_1": "Rue de Liège",
    "building": "yes",
    "building:levels": "2",
    "name": "Museum Vieille Montagne",
    "name:fr": "Musée Vielle Montagne",
    "note": "https://brf.be/regional/1194210/",
    "tourism": "museum",
    "type": "multipolygon",
    "website": "https://www.mvm-kelmis.be/",
    "wikidata": "Q60965271"
  }
},
{
  "type": "node",
  "id": 3987828152,
  "lat": 50.6707143,
  "lon": 5.6388935
},
{
  "type": "node",
  "id": 3987828156,
  "lat": 50.6706644,
  "lon": 5.6390192
},
{
  "type": "node",
  "id": 3987828757,
  "lat": 50.6706031,
  "lon": 5.6389881
},
{
  "type": "node",
  "id": 3987828764,
  "lat": 50.6707575,
  "lon": 5.6389197
},
{
  "type": "node",
  "id": 3987828766,
  "lat": 50.6706377,
  "lon": 5.6388269
},
{
  "type": "node",
  "id": 3987828769,
  "lat": 50.6707177,
  "lon": 5.6388837
},
{
  "type": "node",
  "id": 3987828772,
  "lat": 50.6706821,
  "lon": 5.6388087
},
{
  "type": "node",
  "id": 3987828773,
  "lat": 50.6707236,
  "lon": 5.6390470
},
{
  "type": "node",
  "id": 3987828775,
  "lat": 50.6706717,
  "lon": 5.6388431
},
{
  "type": "node",
  "id": 3987828777,
  "lat": 50.6706960,
  "lon": 5.6388737
},
{
  "type": "node",
  "id": 3987828782,
  "lat": 50.6707054,
  "lon": 5.6388268
},
{
  "type": "node",
  "id": 5324153038,
  "lat": 50.5800669,
  "lon": 5.8415645
},
{
  "type": "node",
  "id": 5324153039,
  "lat": 50.5800119,
  "lon": 5.8416304
},
{
  "type": "node",
  "id": 5324153040,
  "lat": 50.5801278,
  "lon": 5.8419206
},
{
  "type": "node",
  "id": 5324153041,
  "lat": 50.5801678,
  "lon": 5.8418743
},
{
  "type": "node",
  "id": 5324353335,
  "lat": 50.5800734,
  "lon": 5.8418055
},
{
  "type": "node",
  "id": 5324353336,
  "lat": 50.5801019,
  "lon": 5.8416206
},
{
  "type": "node",
  "id": 5324353337,
  "lat": 50.5801538,
  "lon": 5.8418145
},
{
  "type": "node",
  "id": 5324353338,
  "lat": 50.5801490,
  "lon": 5.8417418
},
{
  "type": "node",
  "id": 5292438049,
  "lat": 50.5956042,
  "lon": 5.8510920
},
{
  "type": "node",
  "id": 5292438050,
  "lat": 50.5956705,
  "lon": 5.8510780
},
{
  "type": "node",
  "id": 5292438051,
  "lat": 50.5956952,
  "lon": 5.8512588
},
{
  "type": "node",
  "id": 5292438052,
  "lat": 50.5958515,
  "lon": 5.8512276
},
{
  "type": "node",
  "id": 5292438053,
  "lat": 50.5958278,
  "lon": 5.8507553
},
{
  "type": "node",
  "id": 5292438054,
  "lat": 50.5959129,
  "lon": 5.8507366
},
{
  "type": "node",
  "id": 5292438055,
  "lat": 50.5959307,
  "lon": 5.8513133
},
{
  "type": "node",
  "id": 5292438056,
  "lat": 50.5956309,
  "lon": 5.8513819
},
{
  "type": "node",
  "id": 1756331504,
  "lat": 50.5953405,
  "lon": 5.8671039
},
{
  "type": "node",
  "id": 1756331510,
  "lat": 50.5953439,
  "lon": 5.8669493
},
{
  "type": "node",
  "id": 1756331512,
  "lat": 50.5953510,
  "lon": 5.8666257
},
{
  "type": "node",
  "id": 1756331524,
  "lat": 50.5954767,
  "lon": 5.8670950
},
{
  "type": "node",
  "id": 1756331525,
  "lat": 50.5954847,
  "lon": 5.8669618
},
{
  "type": "node",
  "id": 1756331527,
  "lat": 50.5954888,
  "lon": 5.8666277
},
{
  "type": "node",
  "id": 1757225827,
  "lat": 50.5946257,
  "lon": 5.8684603
},
{
  "type": "node",
  "id": 4758463325,
  "lat": 50.5947713,
  "lon": 5.8685696
},
{
  "type": "node",
  "id": 4758463326,
  "lat": 50.5946506,
  "lon": 5.8686145
},
{
  "type": "node",
  "id": 4758463328,
  "lat": 50.5947506,
  "lon": 5.8684154
},
{
  "type": "node",
  "id": 5995922028,
  "lat": 50.5947781,
  "lon": 5.8685641
},
{
  "type": "node",
  "id": 1853014725,
  "lat": 50.6863593,
  "lon": 5.7188567
},
{
  "type": "node",
  "id": 1853014726,
  "lat": 50.6864724,
  "lon": 5.7194470
},
{
  "type": "node",
  "id": 1853014727,
  "lat": 50.6866752,
  "lon": 5.7186840
},
{
  "type": "node",
  "id": 1853014728,
  "lat": 50.6866902,
  "lon": 5.7190938
},
{
  "type": "node",
  "id": 1853014729,
  "lat": 50.6867324,
  "lon": 5.7194350
},
{
  "type": "node",
  "id": 1853014730,
  "lat": 50.6867464,
  "lon": 5.7190607
},
{
  "type": "node",
  "id": 5043813891,
  "lat": 50.6866990,
  "lon": 5.7191362
},
{
  "type": "node",
  "id": 5043813892,
  "lat": 50.6866808,
  "lon": 5.7191489
},
{
  "type": "node",
  "id": 5043813893,
  "lat": 50.6865750,
  "lon": 5.7194674
},
{
  "type": "node",
  "id": 5043813894,
  "lat": 50.6865556,
  "lon": 5.7194414
},
{
  "type": "node",
  "id": 6695967263,
  "lat": 50.6866243,
  "lon": 5.7194565
},
{
  "type": "node",
  "id": 6695967264,
  "lat": 50.6866538,
  "lon": 5.7194511
},
{
  "type": "node",
  "id": 1445338596,
  "lat": 50.7433476,
  "lon": 5.6938457
},
{
  "type": "node",
  "id": 1445338597,
  "lat": 50.7433593,
  "lon": 5.6937245
},
{
  "type": "node",
  "id": 1445338598,
  "lat": 50.7438757,
  "lon": 5.6939737
},
{
  "type": "node",
  "id": 1445338599,
  "lat": 50.7438874,
  "lon": 5.6938526
},
{
  "type": "node",
  "id": 2577537574,
  "lat": 50.5528720,
  "lon": 6.2343435
},
{
  "type": "node",
  "id": 2577537601,
  "lat": 50.5528937,
  "lon": 6.2341838
},
{
  "type": "node",
  "id": 2577537623,
  "lat": 50.5529027,
  "lon": 6.2340939
},
{
  "type": "node",
  "id": 2577537629,
  "lat": 50.5529071,
  "lon": 6.2340931
},
{
  "type": "node",
  "id": 2577537651,
  "lat": 50.5529174,
  "lon": 6.2344200
},
{
  "type": "node",
  "id": 2577537654,
  "lat": 50.5529240,
  "lon": 6.2343593
},
{
  "type": "node",
  "id": 2577537657,
  "lat": 50.5529262,
  "lon": 6.2340097
},
{
  "type": "node",
  "id": 2577537673,
  "lat": 50.5529550,
  "lon": 6.2340249
},
{
  "type": "node",
  "id": 2577537679,
  "lat": 50.5529686,
  "lon": 6.2340290
},
{
  "type": "node",
  "id": 2577537692,
  "lat": 50.5530022,
  "lon": 6.2344825
},
{
  "type": "node",
  "id": 2577537703,
  "lat": 50.5530182,
  "lon": 6.2344238
},
{
  "type": "node",
  "id": 2577537709,
  "lat": 50.5530320,
  "lon": 6.2344512
},
{
  "type": "node",
  "id": 2577537712,
  "lat": 50.5530350,
  "lon": 6.2338661
},
{
  "type": "node",
  "id": 2577537713,
  "lat": 50.5530356,
  "lon": 6.2344341
},
{
  "type": "node",
  "id": 2577537719,
  "lat": 50.5530467,
  "lon": 6.2346474
},
{
  "type": "node",
  "id": 2577537760,
  "lat": 50.5531005,
  "lon": 6.2345230
},
{
  "type": "node",
  "id": 2577537761,
  "lat": 50.5531017,
  "lon": 6.2347027
},
{
  "type": "node",
  "id": 2577537766,
  "lat": 50.5531113,
  "lon": 6.2344422
},
{
  "type": "node",
  "id": 2577537772,
  "lat": 50.5531276,
  "lon": 6.2343544
},
{
  "type": "node",
  "id": 2577537782,
  "lat": 50.5531373,
  "lon": 6.2339689
},
{
  "type": "node",
  "id": 2577537783,
  "lat": 50.5531383,
  "lon": 6.2343637
},
{
  "type": "node",
  "id": 2577537784,
  "lat": 50.5531391,
  "lon": 6.2339647
},
{
  "type": "node",
  "id": 2577537785,
  "lat": 50.5531397,
  "lon": 6.2346095
},
{
  "type": "node",
  "id": 2577537786,
  "lat": 50.5531401,
  "lon": 6.2341649
},
{
  "type": "node",
  "id": 2577537792,
  "lat": 50.5531526,
  "lon": 6.2346224
},
{
  "type": "node",
  "id": 2577537794,
  "lat": 50.5531539,
  "lon": 6.2345800
},
{
  "type": "node",
  "id": 2577537801,
  "lat": 50.5531652,
  "lon": 6.2345913
},
{
  "type": "node",
  "id": 2577537802,
  "lat": 50.5531673,
  "lon": 6.2342420
},
{
  "type": "node",
  "id": 2577537809,
  "lat": 50.5531805,
  "lon": 6.2345144
},
{
  "type": "node",
  "id": 2577537823,
  "lat": 50.5531976,
  "lon": 6.2340236
},
{
  "type": "node",
  "id": 4663150752,
  "lat": 50.5301893,
  "lon": 6.2602157
},
{
  "type": "node",
  "id": 4663155534,
  "lat": 50.5300662,
  "lon": 6.2603714
},
{
  "type": "node",
  "id": 4663155538,
  "lat": 50.5300811,
  "lon": 6.2602592
},
{
  "type": "node",
  "id": 4663155542,
  "lat": 50.5300869,
  "lon": 6.2602622
},
{
  "type": "node",
  "id": 4663155621,
  "lat": 50.5300870,
  "lon": 6.2602272
},
{
  "type": "node",
  "id": 4663155624,
  "lat": 50.5300929,
  "lon": 6.2602302
},
{
  "type": "node",
  "id": 4663155627,
  "lat": 50.5301031,
  "lon": 6.2601758
},
{
  "type": "node",
  "id": 4663155631,
  "lat": 50.5301531,
  "lon": 6.2604109
},
{
  "type": "node",
  "id": 4663155632,
  "lat": 50.5301582,
  "lon": 6.2603842
},
{
  "type": "node",
  "id": 1051620823,
  "lat": 50.5549912,
  "lon": 6.2434968
},
{
  "type": "node",
  "id": 1051621171,
  "lat": 50.5549754,
  "lon": 6.2436184
},
{
  "type": "node",
  "id": 1051621227,
  "lat": 50.5550408,
  "lon": 6.2435128
},
{
  "type": "node",
  "id": 1051621278,
  "lat": 50.5550250,
  "lon": 6.2436344
},
{
  "type": "node",
  "id": 2577539357,
  "lat": 50.5548737,
  "lon": 6.2438044
},
{
  "type": "node",
  "id": 2577539494,
  "lat": 50.5549535,
  "lon": 6.2433162
},
{
  "type": "node",
  "id": 2577539703,
  "lat": 50.5550282,
  "lon": 6.2440382
},
{
  "type": "node",
  "id": 2577539847,
  "lat": 50.5550477,
  "lon": 6.2439063
},
{
  "type": "node",
  "id": 2577539884,
  "lat": 50.5550593,
  "lon": 6.2434403
},
{
  "type": "node",
  "id": 2577539945,
  "lat": 50.5550722,
  "lon": 6.2433699
},
{
  "type": "node",
  "id": 2577539998,
  "lat": 50.5550832,
  "lon": 6.2440557
},
{
  "type": "node",
  "id": 2577540096,
  "lat": 50.5551777,
  "lon": 6.2434935
},
{
  "type": "node",
  "id": 1679501063,
  "lat": 50.6124715,
  "lon": 5.9401755
},
{
  "type": "node",
  "id": 1679501064,
  "lat": 50.6124885,
  "lon": 5.9400059
},
{
  "type": "node",
  "id": 1679501065,
  "lat": 50.6125436,
  "lon": 5.9402061
},
{
  "type": "node",
  "id": 1679501067,
  "lat": 50.6125642,
  "lon": 5.9400601
},
{
  "type": "node",
  "id": 1679501069,
  "lat": 50.6125654,
  "lon": 5.9400206
},
{
  "type": "node",
  "id": 5863186417,
  "lat": 50.6125361,
  "lon": 5.9402033
},
{
  "type": "node",
  "id": 1195492988,
  "lat": 50.6322895,
  "lon": 6.0353016
},
{
  "type": "node",
  "id": 1195493016,
  "lat": 50.6323237,
  "lon": 6.0354080
},
{
  "type": "node",
  "id": 1195493049,
  "lat": 50.6322038,
  "lon": 6.0355134
},
{
  "type": "node",
  "id": 1195493050,
  "lat": 50.6321721,
  "lon": 6.0354157
},
{
  "type": "node",
  "id": 1213673508,
  "lat": 50.6322957,
  "lon": 6.0354337
},
{
  "type": "node",
  "id": 1213673589,
  "lat": 50.6322318,
  "lon": 6.0355960
},
{
  "type": "node",
  "id": 5520141177,
  "lat": 50.6323238,
  "lon": 6.0355177
},
{
  "type": "node",
  "id": 5881569776,
  "lat": 50.6323108,
  "lon": 6.0353679
},
{
  "type": "node",
  "id": 5881569784,
  "lat": 50.6323151,
  "lon": 6.0354142
},
{
  "type": "node",
  "id": 5881569893,
  "lat": 50.6322941,
  "lon": 6.0354292
},
{
  "type": "node",
  "id": 5881569894,
  "lat": 50.6323091,
  "lon": 6.0354746
},
{
  "type": "node",
  "id": 5881569899,
  "lat": 50.6323210,
  "lon": 6.0355105
},
{
  "type": "node",
  "id": 1147860261,
  "lat": 50.7114960,
  "lon": 6.0086636
},
{
  "type": "node",
  "id": 1147860288,
  "lat": 50.7114471,
  "lon": 6.0083432
},
{
  "type": "node",
  "id": 1147860292,
  "lat": 50.7114283,
  "lon": 6.0083062
},
{
  "type": "node",
  "id": 1147860317,
  "lat": 50.7115627,
  "lon": 6.0087866
},
{
  "type": "node",
  "id": 1147860318,
  "lat": 50.7116232,
  "lon": 6.0087022
},
{
  "type": "node",
  "id": 1147860319,
  "lat": 50.7115582,
  "lon": 6.0085766
},
{
  "type": "node",
  "id": 1147860327,
  "lat": 50.7113539,
  "lon": 6.0084281
},
{
  "type": "node",
  "id": 2352210349,
  "lat": 50.7114080,
  "lon": 6.0083357
},
{
  "type": "node",
  "id": 2352210353,
  "lat": 50.7116047,
  "lon": 6.0087272
},
{
  "type": "node",
  "id": 1064201384,
  "lat": 50.5665070,
  "lon": 6.2176985
},
{
  "type": "node",
  "id": 1064201876,
  "lat": 50.5665040,
  "lon": 6.2175468
},
{
  "type": "node",
  "id": 1064202822,
  "lat": 50.5663887,
  "lon": 6.2175524
},
{
  "type": "node",
  "id": 1064203238,
  "lat": 50.5663789,
  "lon": 6.2177047
},
{
  "type": "node",
  "id": 4595136248,
  "lat": 50.5663767,
  "lon": 6.2176051
},
{
  "type": "node",
  "id": 4595136251,
  "lat": 50.5663896,
  "lon": 6.2176042
},
{
  "type": "node",
  "id": 1158949380,
  "lat": 50.5813610,
  "lon": 6.2678455
},
{
  "type": "node",
  "id": 1158949425,
  "lat": 50.5815445,
  "lon": 6.2676880
},
{
  "type": "node",
  "id": 1158949433,
  "lat": 50.5815060,
  "lon": 6.2675959
},
{
  "type": "node",
  "id": 1158949455,
  "lat": 50.5813327,
  "lon": 6.2677447
},
{
  "type": "node",
  "id": 1158949509,
  "lat": 50.5814581,
  "lon": 6.2678975
},
{
  "type": "node",
  "id": 1158949563,
  "lat": 50.5815196,
  "lon": 6.2678448
},
{
  "type": "node",
  "id": 1158949607,
  "lat": 50.5813497,
  "lon": 6.2676377
},
{
  "type": "node",
  "id": 1158949668,
  "lat": 50.5814226,
  "lon": 6.2678977
},
{
  "type": "node",
  "id": 1158949698,
  "lat": 50.5813355,
  "lon": 6.2676890
},
{
  "type": "node",
  "id": 1158949716,
  "lat": 50.5814048,
  "lon": 6.2675698
},
{
  "type": "node",
  "id": 1158949785,
  "lat": 50.5814748,
  "lon": 6.2675695
},
{
  "type": "node",
  "id": 3526575089,
  "lat": 50.5813415,
  "lon": 6.2677988
},
{
  "type": "node",
  "id": 3526575091,
  "lat": 50.5813736,
  "lon": 6.2675965
},
{
  "type": "node",
  "id": 3526579494,
  "lat": 50.5813890,
  "lon": 6.2678797
},
{
  "type": "node",
  "id": 3526579497,
  "lat": 50.5814398,
  "lon": 6.2675604
},
{
  "type": "node",
  "id": 3526579499,
  "lat": 50.5814916,
  "lon": 6.2678792
},
{
  "type": "node",
  "id": 3526579500,
  "lat": 50.5815301,
  "lon": 6.2676369
},
{
  "type": "node",
  "id": 3526579501,
  "lat": 50.5815389,
  "lon": 6.2677979
},
{
  "type": "node",
  "id": 3526579502,
  "lat": 50.5815475,
  "lon": 6.2677437
},
{
  "type": "node",
  "id": 4619142573,
  "lat": 50.6330299,
  "lon": 6.2723933
},
{
  "type": "node",
  "id": 4619142578,
  "lat": 50.6330580,
  "lon": 6.2724972
},
{
  "type": "node",
  "id": 4619142595,
  "lat": 50.6331912,
  "lon": 6.2722918
},
{
  "type": "node",
  "id": 4619142597,
  "lat": 50.6332186,
  "lon": 6.2723949
},
{
  "type": "node",
  "id": 4665425814,
  "lat": 50.5763619,
  "lon": 6.3007703
},
{
  "type": "node",
  "id": 4665425826,
  "lat": 50.5763920,
  "lon": 6.3008179
},
{
  "type": "node",
  "id": 4665425835,
  "lat": 50.5764178,
  "lon": 6.3008589
},
{
  "type": "node",
  "id": 4665425838,
  "lat": 50.5764206,
  "lon": 6.3008633
},
{
  "type": "node",
  "id": 4665425858,
  "lat": 50.5764706,
  "lon": 6.3007854
},
{
  "type": "node",
  "id": 4665425859,
  "lat": 50.5764718,
  "lon": 6.3005995
},
{
  "type": "node",
  "id": 4665425888,
  "lat": 50.5765517,
  "lon": 6.3009129
},
{
  "type": "node",
  "id": 4665426204,
  "lat": 50.5766113,
  "lon": 6.3008195
},
{
  "type": "node",
  "id": 2092274549,
  "lat": 50.5789786,
  "lon": 6.4248082
},
{
  "type": "node",
  "id": 2092274551,
  "lat": 50.5790359,
  "lon": 6.4246979
},
{
  "type": "node",
  "id": 2092274553,
  "lat": 50.5791064,
  "lon": 6.4249729
},
{
  "type": "node",
  "id": 2092274555,
  "lat": 50.5791637,
  "lon": 6.4248626
},
{
  "type": "node",
  "id": 318863020,
  "lat": 50.5874461,
  "lon": 6.4480017
},
{
  "type": "node",
  "id": 318863021,
  "lat": 50.5875203,
  "lon": 6.4479726
},
{
  "type": "node",
  "id": 318863022,
  "lat": 50.5876269,
  "lon": 6.4486482
},
{
  "type": "node",
  "id": 318863023,
  "lat": 50.5875527,
  "lon": 6.4486772
},
{
  "type": "node",
  "id": 4618507418,
  "lat": 50.5875260,
  "lon": 6.4480086
},
{
  "type": "node",
  "id": 651915722,
  "lat": 50.6307457,
  "lon": 6.4790609
},
{
  "type": "node",
  "id": 651915725,
  "lat": 50.6307753,
  "lon": 6.4787407
},
{
  "type": "node",
  "id": 651931950,
  "lat": 50.6305909,
  "lon": 6.4790254
},
{
  "type": "node",
  "id": 651931962,
  "lat": 50.6307035,
  "lon": 6.4787242
},
{
  "type": "node",
  "id": 4266883405,
  "lat": 50.6305393,
  "lon": 6.4789474
},
{
  "type": "node",
  "id": 4266883407,
  "lat": 50.6305672,
  "lon": 6.4786458
},
{
  "type": "node",
  "id": 4266883408,
  "lat": 50.6305969,
  "lon": 6.4789606
},
{
  "type": "node",
  "id": 4266883409,
  "lat": 50.6306336,
  "lon": 6.4787347
},
{
  "type": "node",
  "id": 4266883410,
  "lat": 50.6306403,
  "lon": 6.4786625
},
{
  "type": "node",
  "id": 4266883412,
  "lat": 50.6307011,
  "lon": 6.4787501
},
{
  "type": "node",
  "id": 1254086264,
  "lat": 50.6671277,
  "lon": 6.3528591
},
{
  "type": "node",
  "id": 1254086306,
  "lat": 50.6672243,
  "lon": 6.3527280
},
{
  "type": "node",
  "id": 1254086360,
  "lat": 50.6670687,
  "lon": 6.3527367
},
{
  "type": "node",
  "id": 1254086388,
  "lat": 50.6670811,
  "lon": 6.3527209
},
{
  "type": "node",
  "id": 1254086406,
  "lat": 50.6671649,
  "lon": 6.3526191
},
{
  "type": "node",
  "id": 3974674702,
  "lat": 50.6670915,
  "lon": 6.3527151
},
{
  "type": "node",
  "id": 3974674706,
  "lat": 50.6671355,
  "lon": 6.3526576
},
{
  "type": "node",
  "id": 1325553080,
  "lat": 50.6864965,
  "lon": 6.3699747
},
{
  "type": "node",
  "id": 1325553109,
  "lat": 50.6868577,
  "lon": 6.3700254
},
{
  "type": "node",
  "id": 1325553077,
  "lat": 50.6864808,
  "lon": 6.3702531
},
{
  "type": "node",
  "id": 1325553086,
  "lat": 50.6867337,
  "lon": 6.3702886
},
{
  "type": "node",
  "id": 1325553088,
  "lat": 50.6867409,
  "lon": 6.3701612
},
{
  "type": "node",
  "id": 1325553106,
  "lat": 50.6868492,
  "lon": 6.3701764
},
{
  "type": "node",
  "id": 3268806805,
  "lat": 50.7746560,
  "lon": 5.6504685
},
{
  "type": "node",
  "id": 3268806811,
  "lat": 50.7746846,
  "lon": 5.6506269
},
{
  "type": "node",
  "id": 3268806819,
  "lat": 50.7747290,
  "lon": 5.6505548
},
{
  "type": "node",
  "id": 3268806820,
  "lat": 50.7747369,
  "lon": 5.6506025
},
{
  "type": "node",
  "id": 3268806826,
  "lat": 50.7748117,
  "lon": 5.6505141
},
{
  "type": "node",
  "id": 3884699001,
  "lat": 50.7747725,
  "lon": 5.6504173
},
{
  "type": "node",
  "id": 3884699002,
  "lat": 50.7747728,
  "lon": 5.6504135
},
{
  "type": "node",
  "id": 3884699003,
  "lat": 50.7747749,
  "lon": 5.6504064
},
{
  "type": "node",
  "id": 3884699004,
  "lat": 50.7747785,
  "lon": 5.6504010
},
{
  "type": "node",
  "id": 3884699005,
  "lat": 50.7747831,
  "lon": 5.6503980
},
{
  "type": "node",
  "id": 3884699006,
  "lat": 50.7747881,
  "lon": 5.6503977
},
{
  "type": "node",
  "id": 3884699009,
  "lat": 50.7747939,
  "lon": 5.6504013
},
{
  "type": "node",
  "id": 3884699010,
  "lat": 50.7747965,
  "lon": 5.6504329
},
{
  "type": "node",
  "id": 3884699011,
  "lat": 50.7747981,
  "lon": 5.6504085
},
{
  "type": "node",
  "id": 3884699012,
  "lat": 50.7747989,
  "lon": 5.6504276
},
{
  "type": "node",
  "id": 3884699013,
  "lat": 50.7747999,
  "lon": 5.6504179
},
{
  "type": "node",
  "id": 3884699037,
  "lat": 50.7761073,
  "lon": 5.6495576
},
{
  "type": "node",
  "id": 3884699038,
  "lat": 50.7761077,
  "lon": 5.6495498
},
{
  "type": "node",
  "id": 3884699039,
  "lat": 50.7761084,
  "lon": 5.6495645
},
{
  "type": "node",
  "id": 3884699040,
  "lat": 50.7761099,
  "lon": 5.6495427
},
{
  "type": "node",
  "id": 3884699041,
  "lat": 50.7761109,
  "lon": 5.6495704
},
{
  "type": "node",
  "id": 3884699042,
  "lat": 50.7761135,
  "lon": 5.6495373
},
{
  "type": "node",
  "id": 3884699043,
  "lat": 50.7761144,
  "lon": 5.6495748
},
{
  "type": "node",
  "id": 3884699044,
  "lat": 50.7761181,
  "lon": 5.6495342
},
{
  "type": "node",
  "id": 3884699045,
  "lat": 50.7761186,
  "lon": 5.6495771
},
{
  "type": "node",
  "id": 3884699046,
  "lat": 50.7761209,
  "lon": 5.6494271
},
{
  "type": "node",
  "id": 3884699047,
  "lat": 50.7761214,
  "lon": 5.6494186
},
{
  "type": "node",
  "id": 3884699048,
  "lat": 50.7761221,
  "lon": 5.6494344
},
{
  "type": "node",
  "id": 3884699049,
  "lat": 50.7761231,
  "lon": 5.6495340
},
{
  "type": "node",
  "id": 3884699050,
  "lat": 50.7761237,
  "lon": 5.6494110
},
{
  "type": "node",
  "id": 3884699051,
  "lat": 50.7761247,
  "lon": 5.6494407
},
{
  "type": "node",
  "id": 3884699052,
  "lat": 50.7761248,
  "lon": 5.6495766
},
{
  "type": "node",
  "id": 3884699053,
  "lat": 50.7761276,
  "lon": 5.6494052
},
{
  "type": "node",
  "id": 3884699054,
  "lat": 50.7761285,
  "lon": 5.6494454
},
{
  "type": "node",
  "id": 3884699055,
  "lat": 50.7761302,
  "lon": 5.6495719
},
{
  "type": "node",
  "id": 3884699056,
  "lat": 50.7761304,
  "lon": 5.6494465
},
{
  "type": "node",
  "id": 3884700757,
  "lat": 50.7761325,
  "lon": 5.6494020
},
{
  "type": "node",
  "id": 3884700758,
  "lat": 50.7761338,
  "lon": 5.6495639
},
{
  "type": "node",
  "id": 3884700759,
  "lat": 50.7761345,
  "lon": 5.6495573
},
{
  "type": "node",
  "id": 3884700760,
  "lat": 50.7761378,
  "lon": 5.6494017
},
{
  "type": "node",
  "id": 3884700761,
  "lat": 50.7761440,
  "lon": 5.6494055
},
{
  "type": "node",
  "id": 3884700762,
  "lat": 50.7761485,
  "lon": 5.6494133
},
{
  "type": "node",
  "id": 3884700763,
  "lat": 50.7761499,
  "lon": 5.6494289
},
{
  "type": "node",
  "id": 3884700764,
  "lat": 50.7761505,
  "lon": 5.6494234
},
{
  "type": "node",
  "id": 3884700765,
  "lat": 50.7761935,
  "lon": 5.6495763
},
{
  "type": "node",
  "id": 3884700766,
  "lat": 50.7761939,
  "lon": 5.6495698
},
{
  "type": "node",
  "id": 3884700767,
  "lat": 50.7761945,
  "lon": 5.6495822
},
{
  "type": "node",
  "id": 3884700768,
  "lat": 50.7761966,
  "lon": 5.6495873
},
{
  "type": "node",
  "id": 3884700769,
  "lat": 50.7761996,
  "lon": 5.6495911
},
{
  "type": "node",
  "id": 3884700770,
  "lat": 50.7762000,
  "lon": 5.6494394
},
{
  "type": "node",
  "id": 3884700771,
  "lat": 50.7762003,
  "lon": 5.6494348
},
{
  "type": "node",
  "id": 3884700772,
  "lat": 50.7762027,
  "lon": 5.6494269
},
{
  "type": "node",
  "id": 3884700773,
  "lat": 50.7762033,
  "lon": 5.6495932
},
{
  "type": "node",
  "id": 3884700774,
  "lat": 50.7762067,
  "lon": 5.6494209
},
{
  "type": "node",
  "id": 3884700775,
  "lat": 50.7762075,
  "lon": 5.6495561
},
{
  "type": "node",
  "id": 3884700776,
  "lat": 50.7762086,
  "lon": 5.6495927
},
{
  "type": "node",
  "id": 3884700777,
  "lat": 50.7762118,
  "lon": 5.6494176
},
{
  "type": "node",
  "id": 3884700778,
  "lat": 50.7762121,
  "lon": 5.6495590
},
{
  "type": "node",
  "id": 3884700779,
  "lat": 50.7762133,
  "lon": 5.6495886
},
{
  "type": "node",
  "id": 3884700780,
  "lat": 50.7762152,
  "lon": 5.6494648
},
{
  "type": "node",
  "id": 3884700781,
  "lat": 50.7762158,
  "lon": 5.6495652
},
{
  "type": "node",
  "id": 3884700782,
  "lat": 50.7762164,
  "lon": 5.6495817
},
{
  "type": "node",
  "id": 3884700783,
  "lat": 50.7762173,
  "lon": 5.6494173
},
{
  "type": "node",
  "id": 3884700784,
  "lat": 50.7762173,
  "lon": 5.6495733
},
{
  "type": "node",
  "id": 3884700785,
  "lat": 50.7762192,
  "lon": 5.6494645
},
{
  "type": "node",
  "id": 3884700786,
  "lat": 50.7762237,
  "lon": 5.6494212
},
{
  "type": "node",
  "id": 3884700787,
  "lat": 50.7762252,
  "lon": 5.6494592
},
{
  "type": "node",
  "id": 3884700788,
  "lat": 50.7762283,
  "lon": 5.6494292
},
{
  "type": "node",
  "id": 3884700789,
  "lat": 50.7762292,
  "lon": 5.6494504
},
{
  "type": "node",
  "id": 3884700790,
  "lat": 50.7762303,
  "lon": 5.6494396
},
{
  "type": "node",
  "id": 561924741,
  "lat": 50.7815220,
  "lon": 5.6939302
},
{
  "type": "node",
  "id": 561924751,
  "lat": 50.7815543,
  "lon": 5.6939440
},
{
  "type": "node",
  "id": 561924774,
  "lat": 50.7814960,
  "lon": 5.6940820
},
{
  "type": "node",
  "id": 561925399,
  "lat": 50.7816758,
  "lon": 5.6937802
},
{
  "type": "node",
  "id": 561925402,
  "lat": 50.7816868,
  "lon": 5.6939926
},
{
  "type": "node",
  "id": 561925409,
  "lat": 50.7816427,
  "lon": 5.6939737
},
{
  "type": "node",
  "id": 561925416,
  "lat": 50.7817547,
  "lon": 5.6937041
},
{
  "type": "node",
  "id": 561925424,
  "lat": 50.7817372,
  "lon": 5.6938065
},
{
  "type": "node",
  "id": 561925441,
  "lat": 50.7816063,
  "lon": 5.6936406
},
{
  "type": "node",
  "id": 561925443,
  "lat": 50.7816595,
  "lon": 5.6941520
},
{
  "type": "node",
  "id": 6786651264,
  "lat": 50.7815797,
  "lon": 5.6941179
},
{
  "type": "node",
  "id": 2799707990,
  "lat": 50.8225282,
  "lon": 5.6948141
},
{
  "type": "node",
  "id": 2799707992,
  "lat": 50.8225477,
  "lon": 5.6946733
},
{
  "type": "node",
  "id": 2799708000,
  "lat": 50.8226217,
  "lon": 5.6946957
},
{
  "type": "node",
  "id": 2799718659,
  "lat": 50.8220404,
  "lon": 5.6946463
},
{
  "type": "node",
  "id": 2799718660,
  "lat": 50.8220615,
  "lon": 5.6944936
},
{
  "type": "node",
  "id": 4555503112,
  "lat": 50.8226542,
  "lon": 5.6946329
},
{
  "type": "node",
  "id": 4555503113,
  "lat": 50.8224952,
  "lon": 5.6945714
},
{
  "type": "node",
  "id": 4555503114,
  "lat": 50.8224857,
  "lon": 5.6946396
},
{
  "type": "node",
  "id": 2809909162,
  "lat": 50.8421207,
  "lon": 5.7012953
},
{
  "type": "node",
  "id": 2809916450,
  "lat": 50.8423831,
  "lon": 5.7010797
},
{
  "type": "node",
  "id": 2809916455,
  "lat": 50.8423844,
  "lon": 5.7010589
},
{
  "type": "node",
  "id": 2809916457,
  "lat": 50.8423845,
  "lon": 5.7010999
},
{
  "type": "node",
  "id": 2809916463,
  "lat": 50.8423877,
  "lon": 5.7010411
},
{
  "type": "node",
  "id": 2809916464,
  "lat": 50.8423878,
  "lon": 5.7011174
},
{
  "type": "node",
  "id": 2809916478,
  "lat": 50.8423930,
  "lon": 5.7010245
},
{
  "type": "node",
  "id": 2809916479,
  "lat": 50.8423930,
  "lon": 5.7011337
},
{
  "type": "node",
  "id": 2809916480,
  "lat": 50.8423932,
  "lon": 5.7012899
},
{
  "type": "node",
  "id": 2809916481,
  "lat": 50.8423939,
  "lon": 5.7012983
},
{
  "type": "node",
  "id": 2809916488,
  "lat": 50.8423985,
  "lon": 5.7013467
},
{
  "type": "node",
  "id": 2809916490,
  "lat": 50.8423992,
  "lon": 5.7013545
},
{
  "type": "node",
  "id": 2809916493,
  "lat": 50.8424000,
  "lon": 5.7011483
},
{
  "type": "node",
  "id": 2809916494,
  "lat": 50.8424001,
  "lon": 5.7010096
},
{
  "type": "node",
  "id": 2809916498,
  "lat": 50.8424019,
  "lon": 5.7012964
},
{
  "type": "node",
  "id": 2809917359,
  "lat": 50.8422515,
  "lon": 5.7012652
},
{
  "type": "node",
  "id": 2809919501,
  "lat": 50.8424036,
  "lon": 5.7014029
},
{
  "type": "node",
  "id": 2809919506,
  "lat": 50.8424044,
  "lon": 5.7014107
},
{
  "type": "node",
  "id": 2809919508,
  "lat": 50.8424064,
  "lon": 5.7013449
},
{
  "type": "node",
  "id": 2809919510,
  "lat": 50.8424071,
  "lon": 5.7013526
},
{
  "type": "node",
  "id": 2809919512,
  "lat": 50.8424085,
  "lon": 5.7011608
},
{
  "type": "node",
  "id": 2809919514,
  "lat": 50.8424088,
  "lon": 5.7009970
},
{
  "type": "node",
  "id": 2809919515,
  "lat": 50.8424088,
  "lon": 5.7014591
},
{
  "type": "node",
  "id": 2809919517,
  "lat": 50.8424096,
  "lon": 5.7014669
},
{
  "type": "node",
  "id": 2809919520,
  "lat": 50.8424116,
  "lon": 5.7014011
},
{
  "type": "node",
  "id": 2809919521,
  "lat": 50.8424123,
  "lon": 5.7014088
},
{
  "type": "node",
  "id": 2809919523,
  "lat": 50.8424140,
  "lon": 5.7015153
},
{
  "type": "node",
  "id": 2809919524,
  "lat": 50.8424148,
  "lon": 5.7015230
},
{
  "type": "node",
  "id": 2809919527,
  "lat": 50.8424168,
  "lon": 5.7014573
},
{
  "type": "node",
  "id": 2809919529,
  "lat": 50.8424175,
  "lon": 5.7014650
},
{
  "type": "node",
  "id": 2809919532,
  "lat": 50.8424182,
  "lon": 5.7011706
},
{
  "type": "node",
  "id": 2809919533,
  "lat": 50.8424187,
  "lon": 5.7009871
},
{
  "type": "node",
  "id": 2809919534,
  "lat": 50.8424192,
  "lon": 5.7015715
},
{
  "type": "node",
  "id": 2809919536,
  "lat": 50.8424200,
  "lon": 5.7015792
},
{
  "type": "node",
  "id": 2809919545,
  "lat": 50.8424220,
  "lon": 5.7015135
},
{
  "type": "node",
  "id": 2809919546,
  "lat": 50.8424222,
  "lon": 5.7012326
},
{
  "type": "node",
  "id": 2809919547,
  "lat": 50.8424223,
  "lon": 5.7012369
},
{
  "type": "node",
  "id": 2809919549,
  "lat": 50.8424226,
  "lon": 5.7012284
},
{
  "type": "node",
  "id": 2809919550,
  "lat": 50.8424227,
  "lon": 5.7015212
},
{
  "type": "node",
  "id": 2809919551,
  "lat": 50.8424229,
  "lon": 5.7012410
},
{
  "type": "node",
  "id": 2809919552,
  "lat": 50.8424236,
  "lon": 5.7012244
},
{
  "type": "node",
  "id": 2809919553,
  "lat": 50.8424240,
  "lon": 5.7012449
},
{
  "type": "node",
  "id": 2809919554,
  "lat": 50.8424244,
  "lon": 5.7016277
},
{
  "type": "node",
  "id": 2809919555,
  "lat": 50.8424250,
  "lon": 5.7012207
},
{
  "type": "node",
  "id": 2809919557,
  "lat": 50.8424255,
  "lon": 5.7012484
},
{
  "type": "node",
  "id": 2809919558,
  "lat": 50.8424269,
  "lon": 5.7012176
},
{
  "type": "node",
  "id": 2809919559,
  "lat": 50.8424272,
  "lon": 5.7015696
},
{
  "type": "node",
  "id": 2809919560,
  "lat": 50.8424275,
  "lon": 5.7012514
},
{
  "type": "node",
  "id": 2809919561,
  "lat": 50.8424276,
  "lon": 5.7011770
},
{
  "type": "node",
  "id": 2809919564,
  "lat": 50.8424280,
  "lon": 5.7015774
},
{
  "type": "node",
  "id": 2809919566,
  "lat": 50.8424290,
  "lon": 5.7012150
},
{
  "type": "node",
  "id": 2809919569,
  "lat": 50.8424297,
  "lon": 5.7012538
},
{
  "type": "node",
  "id": 2809919570,
  "lat": 50.8424304,
  "lon": 5.7009798
},
{
  "type": "node",
  "id": 2809919573,
  "lat": 50.8424315,
  "lon": 5.7012132
},
{
  "type": "node",
  "id": 2809919576,
  "lat": 50.8424322,
  "lon": 5.7012553
},
{
  "type": "node",
  "id": 2809919578,
  "lat": 50.8424324,
  "lon": 5.7016258
},
{
  "type": "node",
  "id": 2809919583,
  "lat": 50.8424341,
  "lon": 5.7012122
},
{
  "type": "node",
  "id": 2809919586,
  "lat": 50.8424349,
  "lon": 5.7012561
},
{
  "type": "node",
  "id": 2809919592,
  "lat": 50.8424368,
  "lon": 5.7012120
},
{
  "type": "node",
  "id": 2809919593,
  "lat": 50.8424376,
  "lon": 5.7011809
},
{
  "type": "node",
  "id": 2809919594,
  "lat": 50.8424376,
  "lon": 5.7012561
},
{
  "type": "node",
  "id": 2809919599,
  "lat": 50.8424395,
  "lon": 5.7012126
},
{
  "type": "node",
  "id": 2809919600,
  "lat": 50.8424403,
  "lon": 5.7012553
},
{
  "type": "node",
  "id": 2809919853,
  "lat": 50.8424677,
  "lon": 5.7009803
},
{
  "type": "node",
  "id": 2809919855,
  "lat": 50.8424684,
  "lon": 5.7011775
},
{
  "type": "node",
  "id": 2809919862,
  "lat": 50.8424729,
  "lon": 5.7012131
},
{
  "type": "node",
  "id": 2809919871,
  "lat": 50.8424761,
  "lon": 5.7012386
},
{
  "type": "node",
  "id": 2809919872,
  "lat": 50.8424773,
  "lon": 5.7012114
},
{
  "type": "node",
  "id": 2809919874,
  "lat": 50.8424787,
  "lon": 5.7012078
},
{
  "type": "node",
  "id": 2809919876,
  "lat": 50.8424793,
  "lon": 5.7009879
},
{
  "type": "node",
  "id": 2809919878,
  "lat": 50.8424799,
  "lon": 5.7011698
},
{
  "type": "node",
  "id": 2809919879,
  "lat": 50.8424800,
  "lon": 5.7012373
},
{
  "type": "node",
  "id": 2809919880,
  "lat": 50.8424800,
  "lon": 5.7012694
},
{
  "type": "node",
  "id": 2809919882,
  "lat": 50.8424805,
  "lon": 5.7012047
},
{
  "type": "node",
  "id": 2809919884,
  "lat": 50.8424822,
  "lon": 5.7012400
},
{
  "type": "node",
  "id": 2809919886,
  "lat": 50.8424827,
  "lon": 5.7012022
},
{
  "type": "node",
  "id": 2809919887,
  "lat": 50.8424846,
  "lon": 5.7012419
},
{
  "type": "node",
  "id": 2809919888,
  "lat": 50.8424852,
  "lon": 5.7012005
},
{
  "type": "node",
  "id": 2809919893,
  "lat": 50.8424872,
  "lon": 5.7012431
},
{
  "type": "node",
  "id": 2809919895,
  "lat": 50.8424878,
  "lon": 5.7011995
},
{
  "type": "node",
  "id": 2809919897,
  "lat": 50.8424898,
  "lon": 5.7009988
},
{
  "type": "node",
  "id": 2809919898,
  "lat": 50.8424898,
  "lon": 5.7012435
},
{
  "type": "node",
  "id": 2809919900,
  "lat": 50.8424902,
  "lon": 5.7011587
},
{
  "type": "node",
  "id": 2809920607,
  "lat": 50.8424421,
  "lon": 5.7012140
},
{
  "type": "node",
  "id": 2809920609,
  "lat": 50.8424428,
  "lon": 5.7009762
},
{
  "type": "node",
  "id": 2809920610,
  "lat": 50.8424428,
  "lon": 5.7012537
},
{
  "type": "node",
  "id": 2809920616,
  "lat": 50.8424444,
  "lon": 5.7012162
},
{
  "type": "node",
  "id": 2809920617,
  "lat": 50.8424450,
  "lon": 5.7012513
},
{
  "type": "node",
  "id": 2809920620,
  "lat": 50.8424464,
  "lon": 5.7012190
},
{
  "type": "node",
  "id": 2809920621,
  "lat": 50.8424470,
  "lon": 5.7012483
},
{
  "type": "node",
  "id": 2809920623,
  "lat": 50.8424477,
  "lon": 5.7011824
},
{
  "type": "node",
  "id": 2809920627,
  "lat": 50.8424485,
  "lon": 5.7012448
},
{
  "type": "node",
  "id": 2809920631,
  "lat": 50.8424506,
  "lon": 5.7012188
},
{
  "type": "node",
  "id": 2809920633,
  "lat": 50.8424525,
  "lon": 5.7012440
},
{
  "type": "node",
  "id": 2809920637,
  "lat": 50.8424549,
  "lon": 5.7012752
},
{
  "type": "node",
  "id": 2809920640,
  "lat": 50.8424553,
  "lon": 5.7009763
},
{
  "type": "node",
  "id": 2809921301,
  "lat": 50.8424905,
  "lon": 5.7011993
},
{
  "type": "node",
  "id": 2809921303,
  "lat": 50.8424925,
  "lon": 5.7012431
},
{
  "type": "node",
  "id": 2809921304,
  "lat": 50.8424932,
  "lon": 5.7011999
},
{
  "type": "node",
  "id": 2809921308,
  "lat": 50.8424951,
  "lon": 5.7012419
},
{
  "type": "node",
  "id": 2809921310,
  "lat": 50.8424957,
  "lon": 5.7012013
},
{
  "type": "node",
  "id": 2809921313,
  "lat": 50.8424975,
  "lon": 5.7012399
},
{
  "type": "node",
  "id": 2809921314,
  "lat": 50.8424980,
  "lon": 5.7012035
},
{
  "type": "node",
  "id": 2809921316,
  "lat": 50.8424987,
  "lon": 5.7010128
},
{
  "type": "node",
  "id": 2809921317,
  "lat": 50.8424991,
  "lon": 5.7011447
},
{
  "type": "node",
  "id": 2809921318,
  "lat": 50.8424996,
  "lon": 5.7012372
},
{
  "type": "node",
  "id": 2809921320,
  "lat": 50.8425001,
  "lon": 5.7012063
},
{
  "type": "node",
  "id": 2809921322,
  "lat": 50.8425013,
  "lon": 5.7012339
},
{
  "type": "node",
  "id": 2809921324,
  "lat": 50.8425017,
  "lon": 5.7012097
},
{
  "type": "node",
  "id": 2809921326,
  "lat": 50.8425026,
  "lon": 5.7012302
},
{
  "type": "node",
  "id": 2809921327,
  "lat": 50.8425029,
  "lon": 5.7012135
},
{
  "type": "node",
  "id": 2809921329,
  "lat": 50.8425035,
  "lon": 5.7012261
},
{
  "type": "node",
  "id": 2809921330,
  "lat": 50.8425036,
  "lon": 5.7012177
},
{
  "type": "node",
  "id": 2809921331,
  "lat": 50.8425038,
  "lon": 5.7012219
},
{
  "type": "node",
  "id": 2809921334,
  "lat": 50.8425058,
  "lon": 5.7010292
},
{
  "type": "node",
  "id": 2809921335,
  "lat": 50.8425060,
  "lon": 5.7011283
},
{
  "type": "node",
  "id": 2809921398,
  "lat": 50.8426723,
  "lon": 5.7011673
},
{
  "type": "node",
  "id": 2809921939,
  "lat": 50.8425108,
  "lon": 5.7010474
},
{
  "type": "node",
  "id": 2809921940,
  "lat": 50.8425109,
  "lon": 5.7011102
},
{
  "type": "node",
  "id": 2809921942,
  "lat": 50.8425116,
  "lon": 5.7010517
},
{
  "type": "node",
  "id": 2809921944,
  "lat": 50.8425135,
  "lon": 5.7010909
},
{
  "type": "node",
  "id": 2809921945,
  "lat": 50.8425138,
  "lon": 5.7010712
},
{
  "type": "node",
  "id": 2809921986,
  "lat": 50.8425418,
  "lon": 5.7012639
},
{
  "type": "node",
  "id": 2809921991,
  "lat": 50.8425463,
  "lon": 5.7013123
},
{
  "type": "node",
  "id": 2809921993,
  "lat": 50.8425470,
  "lon": 5.7013201
},
{
  "type": "node",
  "id": 2809921997,
  "lat": 50.8425490,
  "lon": 5.7012536
},
{
  "type": "node",
  "id": 2809922000,
  "lat": 50.8425498,
  "lon": 5.7012621
},
{
  "type": "node",
  "id": 2809922201,
  "lat": 50.8425515,
  "lon": 5.7013685
},
{
  "type": "node",
  "id": 2809922202,
  "lat": 50.8425523,
  "lon": 5.7013762
},
{
  "type": "node",
  "id": 2809922205,
  "lat": 50.8425543,
  "lon": 5.7013105
},
{
  "type": "node",
  "id": 2809922206,
  "lat": 50.8425550,
  "lon": 5.7013182
},
{
  "type": "node",
  "id": 2809922211,
  "lat": 50.8425568,
  "lon": 5.7014247
},
{
  "type": "node",
  "id": 2809922212,
  "lat": 50.8425575,
  "lon": 5.7014324
},
{
  "type": "node",
  "id": 2809922216,
  "lat": 50.8425595,
  "lon": 5.7013667
},
{
  "type": "node",
  "id": 2809922218,
  "lat": 50.8425603,
  "lon": 5.7013744
},
{
  "type": "node",
  "id": 2809922222,
  "lat": 50.8425620,
  "lon": 5.7014809
},
{
  "type": "node",
  "id": 2809922224,
  "lat": 50.8425627,
  "lon": 5.7014886
},
{
  "type": "node",
  "id": 2809922230,
  "lat": 50.8425648,
  "lon": 5.7014229
},
{
  "type": "node",
  "id": 2809922232,
  "lat": 50.8425655,
  "lon": 5.7014306
},
{
  "type": "node",
  "id": 2809922234,
  "lat": 50.8425672,
  "lon": 5.7015371
},
{
  "type": "node",
  "id": 2809922728,
  "lat": 50.8425679,
  "lon": 5.7015448
},
{
  "type": "node",
  "id": 2809922732,
  "lat": 50.8425700,
  "lon": 5.7014791
},
{
  "type": "node",
  "id": 2809922733,
  "lat": 50.8425707,
  "lon": 5.7014868
},
{
  "type": "node",
  "id": 2809922736,
  "lat": 50.8425724,
  "lon": 5.7015932
},
{
  "type": "node",
  "id": 2809922738,
  "lat": 50.8425732,
  "lon": 5.7016010
},
{
  "type": "node",
  "id": 2809922744,
  "lat": 50.8425752,
  "lon": 5.7015352
},
{
  "type": "node",
  "id": 2809922746,
  "lat": 50.8425759,
  "lon": 5.7015430
},
{
  "type": "node",
  "id": 2809922752,
  "lat": 50.8425804,
  "lon": 5.7015914
},
{
  "type": "node",
  "id": 2809922754,
  "lat": 50.8425812,
  "lon": 5.7015992
},
{
  "type": "node",
  "id": 2809923288,
  "lat": 50.8428028,
  "lon": 5.7011372
},
{
  "type": "node",
  "id": 2809913760,
  "lat": 50.8421953,
  "lon": 5.7020962
},
{
  "type": "node",
  "id": 2809917928,
  "lat": 50.8423037,
  "lon": 5.7018270
},
{
  "type": "node",
  "id": 2809917956,
  "lat": 50.8423259,
  "lon": 5.7020656
},
{
  "type": "node",
  "id": 2809917957,
  "lat": 50.8423260,
  "lon": 5.7020610
},
{
  "type": "node",
  "id": 2809919556,
  "lat": 50.8424252,
  "lon": 5.7016354
},
{
  "type": "node",
  "id": 2809919568,
  "lat": 50.8424296,
  "lon": 5.7016839
},
{
  "type": "node",
  "id": 2809919571,
  "lat": 50.8424304,
  "lon": 5.7016916
},
{
  "type": "node",
  "id": 2809919579,
  "lat": 50.8424331,
  "lon": 5.7016335
},
{
  "type": "node",
  "id": 2809919585,
  "lat": 50.8424348,
  "lon": 5.7017401
},
{
  "type": "node",
  "id": 2809919587,
  "lat": 50.8424356,
  "lon": 5.7017478
},
{
  "type": "node",
  "id": 2809919595,
  "lat": 50.8424376,
  "lon": 5.7016820
},
{
  "type": "node",
  "id": 2809919597,
  "lat": 50.8424384,
  "lon": 5.7016897
},
{
  "type": "node",
  "id": 2809919844,
  "lat": 50.8424614,
  "lon": 5.7020302
},
{
  "type": "node",
  "id": 2809919851,
  "lat": 50.8424667,
  "lon": 5.7020834
},
{
  "type": "node",
  "id": 2809920611,
  "lat": 50.8424428,
  "lon": 5.7017382
},
{
  "type": "node",
  "id": 2809920613,
  "lat": 50.8424436,
  "lon": 5.7017459
},
{
  "type": "node",
  "id": 2809920625,
  "lat": 50.8424480,
  "lon": 5.7017938
},
{
  "type": "node",
  "id": 2809921959,
  "lat": 50.8425215,
  "lon": 5.7020583
},
{
  "type": "node",
  "id": 2809921961,
  "lat": 50.8425226,
  "lon": 5.7020706
},
{
  "type": "node",
  "id": 2809922213,
  "lat": 50.8425580,
  "lon": 5.7020501
},
{
  "type": "node",
  "id": 2809922215,
  "lat": 50.8425593,
  "lon": 5.7020619
},
{
  "type": "node",
  "id": 2809922750,
  "lat": 50.8425777,
  "lon": 5.7016494
},
{
  "type": "node",
  "id": 2809922751,
  "lat": 50.8425784,
  "lon": 5.7016572
},
{
  "type": "node",
  "id": 2809922758,
  "lat": 50.8425829,
  "lon": 5.7017056
},
{
  "type": "node",
  "id": 2809922759,
  "lat": 50.8425836,
  "lon": 5.7017133
},
{
  "type": "node",
  "id": 2809922763,
  "lat": 50.8425857,
  "lon": 5.7016476
},
{
  "type": "node",
  "id": 2809922765,
  "lat": 50.8425864,
  "lon": 5.7016553
},
{
  "type": "node",
  "id": 2809922767,
  "lat": 50.8425880,
  "lon": 5.7017612
},
{
  "type": "node",
  "id": 2809922770,
  "lat": 50.8425909,
  "lon": 5.7017038
},
{
  "type": "node",
  "id": 2809922771,
  "lat": 50.8425916,
  "lon": 5.7017115
},
{
  "type": "node",
  "id": 2809922802,
  "lat": 50.8426101,
  "lon": 5.7019957
},
{
  "type": "node",
  "id": 2809922809,
  "lat": 50.8426150,
  "lon": 5.7020489
},
{
  "type": "node",
  "id": 2809924208,
  "lat": 50.8427246,
  "lon": 5.7017298
},
{
  "type": "node",
  "id": 2809924235,
  "lat": 50.8427461,
  "lon": 5.7019640
},
{
  "type": "node",
  "id": 2809924236,
  "lat": 50.8427467,
  "lon": 5.7019682
},
{
  "type": "node",
  "id": 2809925407,
  "lat": 50.8428772,
  "lon": 5.7019379
},
{
  "type": "node",
  "id": 2804934181,
  "lat": 50.8493391,
  "lon": 5.6866929
},
{
  "type": "node",
  "id": 2804935492,
  "lat": 50.8493262,
  "lon": 5.6867721
},
{
  "type": "node",
  "id": 2804935809,
  "lat": 50.8493879,
  "lon": 5.6867973
},
{
  "type": "node",
  "id": 2804935839,
  "lat": 50.8494008,
  "lon": 5.6867177
},
{
  "type": "node",
  "id": 599279929,
  "lat": 50.8179482,
  "lon": 5.8035324
},
{
  "type": "node",
  "id": 937991582,
  "lat": 50.8179292,
  "lon": 5.8036848
},
{
  "type": "node",
  "id": 2792437028,
  "lat": 50.8178700,
  "lon": 5.8036662
},
{
  "type": "node",
  "id": 2792437056,
  "lat": 50.8178890,
  "lon": 5.8035139
},
{
  "type": "node",
  "id": 619435047,
  "lat": 50.8984757,
  "lon": 5.6662030
},
{
  "type": "node",
  "id": 3881235476,
  "lat": 50.8983216,
  "lon": 5.6661631
},
{
  "type": "node",
  "id": 3881235478,
  "lat": 50.8983284,
  "lon": 5.6661480
},
{
  "type": "node",
  "id": 3881235479,
  "lat": 50.8983629,
  "lon": 5.6660676
},
{
  "type": "node",
  "id": 3881235482,
  "lat": 50.8984318,
  "lon": 5.6662810
},
{
  "type": "node",
  "id": 3881235486,
  "lat": 50.8984607,
  "lon": 5.6663161
},
{
  "type": "node",
  "id": 3881235488,
  "lat": 50.8984647,
  "lon": 5.6662940
},
{
  "type": "node",
  "id": 2799909570,
  "lat": 50.9376085,
  "lon": 5.7901881
},
{
  "type": "node",
  "id": 2799909573,
  "lat": 50.9376200,
  "lon": 5.7901155
},
{
  "type": "node",
  "id": 2799909579,
  "lat": 50.9376375,
  "lon": 5.7901449
},
{
  "type": "node",
  "id": 2799909582,
  "lat": 50.9376395,
  "lon": 5.7902660
},
{
  "type": "node",
  "id": 2799909585,
  "lat": 50.9376408,
  "lon": 5.7900846
},
{
  "type": "node",
  "id": 2799909586,
  "lat": 50.9376412,
  "lon": 5.7902431
},
{
  "type": "node",
  "id": 2799909587,
  "lat": 50.9376414,
  "lon": 5.7900856
},
{
  "type": "node",
  "id": 2799909593,
  "lat": 50.9376524,
  "lon": 5.7902876
},
{
  "type": "node",
  "id": 2799909603,
  "lat": 50.9376669,
  "lon": 5.7902863
},
{
  "type": "node",
  "id": 2799909604,
  "lat": 50.9376685,
  "lon": 5.7900434
},
{
  "type": "node",
  "id": 2799909605,
  "lat": 50.9376697,
  "lon": 5.7900455
},
{
  "type": "node",
  "id": 2799909606,
  "lat": 50.9376704,
  "lon": 5.7902922
},
{
  "type": "node",
  "id": 2799909618,
  "lat": 50.9376949,
  "lon": 5.7900080
},
{
  "type": "node",
  "id": 2799909628,
  "lat": 50.9377190,
  "lon": 5.7900485
},
{
  "type": "node",
  "id": 2799909632,
  "lat": 50.9377249,
  "lon": 5.7900394
},
{
  "type": "node",
  "id": 2799909634,
  "lat": 50.9377305,
  "lon": 5.7901036
},
{
  "type": "node",
  "id": 2799909639,
  "lat": 50.9377439,
  "lon": 5.7901826
},
{
  "type": "node",
  "id": 2799909640,
  "lat": 50.9377478,
  "lon": 5.7900779
},
{
  "type": "node",
  "id": 2799909646,
  "lat": 50.9377614,
  "lon": 5.7901558
},
{
  "type": "node",
  "id": 2789478755,
  "lat": 50.7688559,
  "lon": 6.0232262
},
{
  "type": "node",
  "id": 2789478770,
  "lat": 50.7688626,
  "lon": 6.0231900
},
{
  "type": "node",
  "id": 2789478825,
  "lat": 50.7688777,
  "lon": 6.0232357
},
{
  "type": "node",
  "id": 2789478838,
  "lat": 50.7688840,
  "lon": 6.0232000
},
{
  "type": "node",
  "id": 5811541182,
  "lat": 50.8609097,
  "lon": 6.0580348
},
{
  "type": "node",
  "id": 5811541183,
  "lat": 50.8609371,
  "lon": 6.0580538
},
{
  "type": "node",
  "id": 5811541184,
  "lat": 50.8609596,
  "lon": 6.0580849
},
{
  "type": "node",
  "id": 5811541185,
  "lat": 50.8609752,
  "lon": 6.0581253
},
{
  "type": "node",
  "id": 5811541186,
  "lat": 50.8609799,
  "lon": 6.0582240
},
{
  "type": "node",
  "id": 5811541187,
  "lat": 50.8609663,
  "lon": 6.0582723
},
{
  "type": "node",
  "id": 5811541188,
  "lat": 50.8609433,
  "lon": 6.0583107
},
{
  "type": "node",
  "id": 5811541189,
  "lat": 50.8609135,
  "lon": 6.0583348
},
{
  "type": "node",
  "id": 5811541190,
  "lat": 50.8608804,
  "lon": 6.0583417
},
{
  "type": "node",
  "id": 5811541191,
  "lat": 50.8608477,
  "lon": 6.0583306
},
{
  "type": "node",
  "id": 5811541192,
  "lat": 50.8608192,
  "lon": 6.0583029
},
{
  "type": "node",
  "id": 5811541193,
  "lat": 50.8607983,
  "lon": 6.0582617
},
{
  "type": "node",
  "id": 5811541194,
  "lat": 50.8607864,
  "lon": 6.0581678
},
{
  "type": "node",
  "id": 5811541195,
  "lat": 50.8607935,
  "lon": 6.0581253
},
{
  "type": "node",
  "id": 5811541196,
  "lat": 50.8608077,
  "lon": 6.0580875
},
{
  "type": "node",
  "id": 5811541197,
  "lat": 50.8608280,
  "lon": 6.0580576
},
{
  "type": "node",
  "id": 5811541198,
  "lat": 50.8608528,
  "lon": 6.0580378
},
{
  "type": "node",
  "id": 5811541199,
  "lat": 50.8607872,
  "lon": 6.0582117
},
{
  "type": "node",
  "id": 5811541200,
  "lat": 50.8608800,
  "lon": 6.0580297
},
{
  "type": "node",
  "id": 5811541201,
  "lat": 50.8609825,
  "lon": 6.0581712
},
{
  "type": "node",
  "id": 2844592824,
  "lat": 50.8846949,
  "lon": 5.9764657
},
{
  "type": "node",
  "id": 2844592903,
  "lat": 50.8848160,
  "lon": 5.9768104
},
{
  "type": "node",
  "id": 2844593114,
  "lat": 50.8850547,
  "lon": 5.9761457
},
{
  "type": "node",
  "id": 2844593172,
  "lat": 50.8851586,
  "lon": 5.9764421
},
{
  "type": "node",
  "id": 2844593406,
  "lat": 50.8852581,
  "lon": 5.9763556
},
{
  "type": "node",
  "id": 2844593427,
  "lat": 50.8853222,
  "lon": 5.9765787
},
{
  "type": "node",
  "id": 2844593437,
  "lat": 50.8853324,
  "lon": 5.9765686
},
{
  "type": "node",
  "id": 2844593438,
  "lat": 50.8853325,
  "lon": 5.9766111
},
{
  "type": "node",
  "id": 2844593445,
  "lat": 50.8853425,
  "lon": 5.9766021
},
{
  "type": "node",
  "id": 2844593446,
  "lat": 50.8853436,
  "lon": 5.9766432
},
{
  "type": "node",
  "id": 2844593451,
  "lat": 50.8853507,
  "lon": 5.9766028
},
{
  "type": "node",
  "id": 2844593454,
  "lat": 50.8853549,
  "lon": 5.9766339
},
{
  "type": "node",
  "id": 2844593455,
  "lat": 50.8853556,
  "lon": 5.9766787
},
{
  "type": "node",
  "id": 2844593458,
  "lat": 50.8853584,
  "lon": 5.9766231
},
{
  "type": "node",
  "id": 2844593491,
  "lat": 50.8854135,
  "lon": 5.9766264
},
{
  "type": "node",
  "id": 2844592843,
  "lat": 50.8847164,
  "lon": 5.9769006
},
{
  "type": "node",
  "id": 2844592916,
  "lat": 50.8848435,
  "lon": 5.9772531
},
{
  "type": "node",
  "id": 2844592963,
  "lat": 50.8849426,
  "lon": 5.9771447
},
{
  "type": "node",
  "id": 2844592966,
  "lat": 50.8849480,
  "lon": 5.9771604
},
{
  "type": "node",
  "id": 2844593192,
  "lat": 50.8852329,
  "lon": 5.9768877
},
{
  "type": "node",
  "id": 2844593462,
  "lat": 50.8853661,
  "lon": 5.9772607
},
{
  "type": "node",
  "id": 2844593803,
  "lat": 50.8854990,
  "lon": 5.9771436
},
{
  "type": "node",
  "id": 2844593811,
  "lat": 50.8855153,
  "lon": 5.9771901
},
{
  "type": "node",
  "id": 2844593815,
  "lat": 50.8855274,
  "lon": 5.9771186
},
{
  "type": "node",
  "id": 2844593826,
  "lat": 50.8855430,
  "lon": 5.9771636
},
{
  "type": "node",
  "id": 2844593853,
  "lat": 50.8855742,
  "lon": 5.9770766
},
{
  "type": "node",
  "id": 914438449,
  "lat": 50.7733357,
  "lon": 6.0947190
},
{
  "type": "node",
  "id": 1013134219,
  "lat": 50.7734111,
  "lon": 6.0947598
},
{
  "type": "node",
  "id": 220999729,
  "lat": 50.7757878,
  "lon": 6.0848129
},
{
  "type": "node",
  "id": 316560768,
  "lat": 50.7756998,
  "lon": 6.0851204
},
{
  "type": "node",
  "id": 914307535,
  "lat": 50.7759990,
  "lon": 6.0853363
},
{
  "type": "node",
  "id": 914308061,
  "lat": 50.7760427,
  "lon": 6.0853849
},
{
  "type": "node",
  "id": 924649326,
  "lat": 50.7760906,
  "lon": 6.0852829
},
{
  "type": "node",
  "id": 924649338,
  "lat": 50.7758923,
  "lon": 6.0852285
},
{
  "type": "node",
  "id": 924649347,
  "lat": 50.7759623,
  "lon": 6.0852960
},
{
  "type": "node",
  "id": 924649359,
  "lat": 50.7758748,
  "lon": 6.0850877
},
{
  "type": "node",
  "id": 924649360,
  "lat": 50.7759355,
  "lon": 6.0852717
},
{
  "type": "node",
  "id": 924649372,
  "lat": 50.7759070,
  "lon": 6.0851943
},
{
  "type": "node",
  "id": 924660508,
  "lat": 50.7756595,
  "lon": 6.0850869
},
{
  "type": "node",
  "id": 924660509,
  "lat": 50.7756372,
  "lon": 6.0849034
},
{
  "type": "node",
  "id": 924660519,
  "lat": 50.7756186,
  "lon": 6.0849716
},
{
  "type": "node",
  "id": 924660521,
  "lat": 50.7756853,
  "lon": 6.0847383
},
{
  "type": "node",
  "id": 924660527,
  "lat": 50.7756815,
  "lon": 6.0850132
},
{
  "type": "node",
  "id": 924660530,
  "lat": 50.7757191,
  "lon": 6.0850392
},
{
  "type": "node",
  "id": 975268201,
  "lat": 50.7759333,
  "lon": 6.0830648
},
{
  "type": "node",
  "id": 975268214,
  "lat": 50.7759377,
  "lon": 6.0833535
},
{
  "type": "node",
  "id": 975268216,
  "lat": 50.7755130,
  "lon": 6.0832599
},
{
  "type": "node",
  "id": 975268225,
  "lat": 50.7758925,
  "lon": 6.0829726
},
{
  "type": "node",
  "id": 975268246,
  "lat": 50.7758227,
  "lon": 6.0828160
},
{
  "type": "node",
  "id": 975268251,
  "lat": 50.7755394,
  "lon": 6.0832597
},
{
  "type": "node",
  "id": 975268256,
  "lat": 50.7759068,
  "lon": 6.0834630
},
{
  "type": "node",
  "id": 975268260,
  "lat": 50.7756591,
  "lon": 6.0829633
},
{
  "type": "node",
  "id": 975268262,
  "lat": 50.7757779,
  "lon": 6.0827284
},
{
  "type": "node",
  "id": 975268266,
  "lat": 50.7756717,
  "lon": 6.0826892
},
{
  "type": "node",
  "id": 975268281,
  "lat": 50.7756398,
  "lon": 6.0826869
},
{
  "type": "node",
  "id": 975268286,
  "lat": 50.7755110,
  "lon": 6.0834506
},
{
  "type": "node",
  "id": 975268294,
  "lat": 50.7758499,
  "lon": 6.0828871
},
{
  "type": "node",
  "id": 975268305,
  "lat": 50.7756444,
  "lon": 6.0831727
},
{
  "type": "node",
  "id": 975268308,
  "lat": 50.7756451,
  "lon": 6.0832611
},
{
  "type": "node",
  "id": 975268310,
  "lat": 50.7759097,
  "lon": 6.0832124
},
{
  "type": "node",
  "id": 975362730,
  "lat": 50.7774350,
  "lon": 6.0827038
},
{
  "type": "node",
  "id": 975362745,
  "lat": 50.7773765,
  "lon": 6.0825430
},
{
  "type": "node",
  "id": 975362751,
  "lat": 50.7772740,
  "lon": 6.0826567
},
{
  "type": "node",
  "id": 975362777,
  "lat": 50.7772770,
  "lon": 6.0828524
},
{
  "type": "node",
  "id": 977480910,
  "lat": 50.7773612,
  "lon": 6.0827732
},
{
  "type": "node",
  "id": 981576492,
  "lat": 50.7757188,
  "lon": 6.0847636
},
{
  "type": "node",
  "id": 1002784928,
  "lat": 50.7760678,
  "lon": 6.0853285
},
{
  "type": "node",
  "id": 1512631996,
  "lat": 50.7758611,
  "lon": 6.0834618
},
{
  "type": "node",
  "id": 1544204551,
  "lat": 50.7759594,
  "lon": 6.0833248
},
{
  "type": "node",
  "id": 2202079346,
  "lat": 50.7756673,
  "lon": 6.0830351
},
{
  "type": "node",
  "id": 2202079351,
  "lat": 50.7756580,
  "lon": 6.0830354
},
{
  "type": "node",
  "id": 2202079360,
  "lat": 50.7756576,
  "lon": 6.0831711
},
{
  "type": "node",
  "id": 2202079364,
  "lat": 50.7756685,
  "lon": 6.0828990
},
{
  "type": "node",
  "id": 2202079366,
  "lat": 50.7756613,
  "lon": 6.0828998
},
{
  "type": "node",
  "id": 2202079368,
  "lat": 50.7756720,
  "lon": 6.0827614
},
{
  "type": "node",
  "id": 2202079370,
  "lat": 50.7756625,
  "lon": 6.0828319
},
{
  "type": "node",
  "id": 2202079372,
  "lat": 50.7756706,
  "lon": 6.0828304
},
{
  "type": "node",
  "id": 2202079378,
  "lat": 50.7756576,
  "lon": 6.0831010
},
{
  "type": "node",
  "id": 2202079381,
  "lat": 50.7756681,
  "lon": 6.0829640
},
{
  "type": "node",
  "id": 2202079382,
  "lat": 50.7756622,
  "lon": 6.0827620
},
{
  "type": "node",
  "id": 2202079383,
  "lat": 50.7756402,
  "lon": 6.0826339
},
{
  "type": "node",
  "id": 2202079384,
  "lat": 50.7756681,
  "lon": 6.0831005
},
{
  "type": "node",
  "id": 2297392410,
  "lat": 50.7758890,
  "lon": 6.0850514
},
{
  "type": "node",
  "id": 2297392445,
  "lat": 50.7759172,
  "lon": 6.0851697
},
{
  "type": "node",
  "id": 2311741578,
  "lat": 50.7759057,
  "lon": 6.0833521
},
{
  "type": "node",
  "id": 2311741662,
  "lat": 50.7759466,
  "lon": 6.0833417
},
{
  "type": "node",
  "id": 2311806239,
  "lat": 50.7756961,
  "lon": 6.0834481
},
{
  "type": "node",
  "id": 2311806242,
  "lat": 50.7759054,
  "lon": 6.0833952
},
{
  "type": "node",
  "id": 4151642461,
  "lat": 50.7771709,
  "lon": 6.0825399
},
{
  "type": "node",
  "id": 4151643794,
  "lat": 50.7772177,
  "lon": 6.0827239
},
{
  "type": "node",
  "id": 4151643804,
  "lat": 50.7771593,
  "lon": 6.0825206
},
{
  "type": "node",
  "id": 4288767274,
  "lat": 50.7758801,
  "lon": 6.0850742
},
{
  "type": "node",
  "id": 4288767275,
  "lat": 50.7759116,
  "lon": 6.0850774
},
{
  "type": "node",
  "id": 4289471658,
  "lat": 50.7772671,
  "lon": 6.0826423
},
{
  "type": "node",
  "id": 5447608377,
  "lat": 50.7772365,
  "lon": 6.0825780
},
{
  "type": "node",
  "id": 5447608378,
  "lat": 50.7772022,
  "lon": 6.0825062
},
{
  "type": "node",
  "id": 5447608379,
  "lat": 50.7771910,
  "lon": 6.0824794
},
{
  "type": "node",
  "id": 5447608380,
  "lat": 50.7771444,
  "lon": 6.0823762
},
{
  "type": "node",
  "id": 5447608382,
  "lat": 50.7770885,
  "lon": 6.0824432
},
{
  "type": "node",
  "id": 5447608384,
  "lat": 50.7771459,
  "lon": 6.0825734
},
{
  "type": "node",
  "id": 5447609387,
  "lat": 50.7758875,
  "lon": 6.0831065
},
{
  "type": "node",
  "id": 5447609394,
  "lat": 50.7757072,
  "lon": 6.0825679
},
{
  "type": "node",
  "id": 5447609395,
  "lat": 50.7757282,
  "lon": 6.0826088
},
{
  "type": "node",
  "id": 914438379,
  "lat": 50.7736251,
  "lon": 6.0950667
},
{
  "type": "node",
  "id": 914438403,
  "lat": 50.7732624,
  "lon": 6.0957370
},
{
  "type": "node",
  "id": 914438434,
  "lat": 50.7735653,
  "lon": 6.0950473
},
{
  "type": "node",
  "id": 914438499,
  "lat": 50.7735429,
  "lon": 6.0953791
},
{
  "type": "node",
  "id": 914438500,
  "lat": 50.7733260,
  "lon": 6.0948652
},
{
  "type": "node",
  "id": 914438512,
  "lat": 50.7735969,
  "lon": 6.0953878
},
{
  "type": "node",
  "id": 914438514,
  "lat": 50.7736388,
  "lon": 6.0948829
},
{
  "type": "node",
  "id": 914438521,
  "lat": 50.7733038,
  "lon": 6.0951697
},
{
  "type": "node",
  "id": 914438564,
  "lat": 50.7735713,
  "lon": 6.0957877
},
{
  "type": "node",
  "id": 2446449981,
  "lat": 50.7733546,
  "lon": 6.0957530
},
{
  "type": "node",
  "id": 380238665,
  "lat": 50.7676894,
  "lon": 6.1036726
},
{
  "type": "node",
  "id": 380238667,
  "lat": 50.7676954,
  "lon": 6.1039203
},
{
  "type": "node",
  "id": 380238669,
  "lat": 50.7679620,
  "lon": 6.1039100
},
{
  "type": "node",
  "id": 380238671,
  "lat": 50.7679642,
  "lon": 6.1038116
},
{
  "type": "node",
  "id": 380238673,
  "lat": 50.7679770,
  "lon": 6.1037693
},
{
  "type": "node",
  "id": 380238674,
  "lat": 50.7679725,
  "lon": 6.1037088
},
{
  "type": "node",
  "id": 380238676,
  "lat": 50.7679615,
  "lon": 6.1036806
},
{
  "type": "node",
  "id": 380238677,
  "lat": 50.7679454,
  "lon": 6.1036600
},
{
  "type": "node",
  "id": 380238678,
  "lat": 50.7679301,
  "lon": 6.1036570
},
{
  "type": "node",
  "id": 380238679,
  "lat": 50.7679161,
  "lon": 6.1036661
},
{
  "type": "node",
  "id": 380238681,
  "lat": 50.7679095,
  "lon": 6.1036607
},
{
  "type": "node",
  "id": 380238682,
  "lat": 50.7677500,
  "lon": 6.1034728
},
{
  "type": "node",
  "id": 380238684,
  "lat": 50.7677475,
  "lon": 6.1034409
},
{
  "type": "node",
  "id": 380238686,
  "lat": 50.7677342,
  "lon": 6.1034179
},
{
  "type": "node",
  "id": 380238687,
  "lat": 50.7677082,
  "lon": 6.1034088
},
{
  "type": "node",
  "id": 380238688,
  "lat": 50.7676872,
  "lon": 6.1034209
},
{
  "type": "node",
  "id": 380238690,
  "lat": 50.7676753,
  "lon": 6.1034447
},
{
  "type": "node",
  "id": 380238692,
  "lat": 50.7676752,
  "lon": 6.1034780
},
{
  "type": "node",
  "id": 380238694,
  "lat": 50.7676853,
  "lon": 6.1035021
},
{
  "type": "node",
  "id": 380238696,
  "lat": 50.7677018,
  "lon": 6.1035182
},
{
  "type": "node",
  "id": 380238697,
  "lat": 50.7677022,
  "lon": 6.1036729
},
{
  "type": "node",
  "id": 924402600,
  "lat": 50.7678090,
  "lon": 6.1034848
},
{
  "type": "node",
  "id": 914914837,
  "lat": 50.7807934,
  "lon": 6.1013815
},
{
  "type": "node",
  "id": 914914841,
  "lat": 50.7812720,
  "lon": 6.1009837
},
{
  "type": "node",
  "id": 1222029410,
  "lat": 50.7809604,
  "lon": 6.1013869
},
{
  "type": "node",
  "id": 914914843,
  "lat": 50.7808630,
  "lon": 6.1015146
},
{
  "type": "node",
  "id": 914914845,
  "lat": 50.7817760,
  "lon": 6.1019417
},
{
  "type": "node",
  "id": 914914848,
  "lat": 50.7807024,
  "lon": 6.1015062
},
{
  "type": "node",
  "id": 914914855,
  "lat": 50.7812771,
  "lon": 6.1025859
},
{
  "type": "node",
  "id": 1222029394,
  "lat": 50.7813071,
  "lon": 6.1026063
},
{
  "type": "node",
  "id": 1222029402,
  "lat": 50.7813325,
  "lon": 6.1025992
},
{
  "type": "node",
  "id": 1222029421,
  "lat": 50.7812884,
  "lon": 6.1026056
},
{
  "type": "node",
  "id": 1222029423,
  "lat": 50.7808344,
  "lon": 6.1014577
},
{
  "type": "node",
  "id": 1222029428,
  "lat": 50.7807380,
  "lon": 6.1015698
},
{
  "type": "node",
  "id": 1715129232,
  "lat": 50.7807658,
  "lon": 6.1014241
},
{
  "type": "node",
  "id": 443143562,
  "lat": 50.7754168,
  "lon": 6.2172672
},
{
  "type": "node",
  "id": 1857855408,
  "lat": 50.7741688,
  "lon": 6.2162067
},
{
  "type": "node",
  "id": 1857855418,
  "lat": 50.7746271,
  "lon": 6.2182461
},
{
  "type": "node",
  "id": 1857855428,
  "lat": 50.7751053,
  "lon": 6.2156105
},
{
  "type": "node",
  "id": 1857855434,
  "lat": 50.7752878,
  "lon": 6.2178037
},
{
  "type": "node",
  "id": 1857855435,
  "lat": 50.7754009,
  "lon": 6.2175464
},
{
  "type": "node",
  "id": 4382141639,
  "lat": 50.8352214,
  "lon": 6.2109943
},
{
  "type": "node",
  "id": 4382141640,
  "lat": 50.8352564,
  "lon": 6.2107251
},
{
  "type": "node",
  "id": 4382141641,
  "lat": 50.8352640,
  "lon": 6.2110129
},
{
  "type": "node",
  "id": 4382141642,
  "lat": 50.8352808,
  "lon": 6.2106066
},
{
  "type": "node",
  "id": 4382141644,
  "lat": 50.8352937,
  "lon": 6.2109700
},
{
  "type": "node",
  "id": 4382141645,
  "lat": 50.8352958,
  "lon": 6.2106145
},
{
  "type": "node",
  "id": 4382141646,
  "lat": 50.8352972,
  "lon": 6.2106068
},
{
  "type": "node",
  "id": 4382141647,
  "lat": 50.8353289,
  "lon": 6.2109842
},
{
  "type": "node",
  "id": 4382141648,
  "lat": 50.8353376,
  "lon": 6.2107063
},
{
  "type": "node",
  "id": 4382141893,
  "lat": 50.8352145,
  "lon": 6.2109289
},
{
  "type": "node",
  "id": 4382141894,
  "lat": 50.8353450,
  "lon": 6.2107147
},
{
  "type": "node",
  "id": 4382141895,
  "lat": 50.8353458,
  "lon": 6.2107103
},
{
  "type": "node",
  "id": 4382141896,
  "lat": 50.8353513,
  "lon": 6.2106345
},
{
  "type": "node",
  "id": 4382141897,
  "lat": 50.8353787,
  "lon": 6.2107311
},
{
  "type": "node",
  "id": 2670731552,
  "lat": 50.9206485,
  "lon": 6.0986680
},
{
  "type": "node",
  "id": 2670731553,
  "lat": 50.9206484,
  "lon": 6.0987771
},
{
  "type": "node",
  "id": 2670731554,
  "lat": 50.9207696,
  "lon": 6.0986685
},
{
  "type": "node",
  "id": 2670731555,
  "lat": 50.9207694,
  "lon": 6.0987780
},
{
  "type": "node",
  "id": 3370677576,
  "lat": 50.9206486,
  "lon": 6.0987070
},
{
  "type": "node",
  "id": 3370677577,
  "lat": 50.9206485,
  "lon": 6.0987581
},
{
  "type": "node",
  "id": 3370677585,
  "lat": 50.9207696,
  "lon": 6.0987076
},
{
  "type": "node",
  "id": 2671916503,
  "lat": 50.9642353,
  "lon": 6.1188567
},
{
  "type": "node",
  "id": 2671916504,
  "lat": 50.9642135,
  "lon": 6.1189377
},
{
  "type": "node",
  "id": 2671916505,
  "lat": 50.9642299,
  "lon": 6.1189499
},
{
  "type": "node",
  "id": 2671916506,
  "lat": 50.9642132,
  "lon": 6.1189391
},
{
  "type": "node",
  "id": 2671916512,
  "lat": 50.9642499,
  "lon": 6.1188635
},
{
  "type": "node",
  "id": 2671916513,
  "lat": 50.9642492,
  "lon": 6.1188661
},
{
  "type": "node",
  "id": 2671916523,
  "lat": 50.9643411,
  "lon": 6.1189255
},
{
  "type": "node",
  "id": 2671916524,
  "lat": 50.9643339,
  "lon": 6.1190170
},
{
  "type": "node",
  "id": 2671916530,
  "lat": 50.9643534,
  "lon": 6.1188803
},
{
  "type": "node",
  "id": 2671916536,
  "lat": 50.9643906,
  "lon": 6.1189057
},
{
  "type": "node",
  "id": 2671916537,
  "lat": 50.9643839,
  "lon": 6.1189301
},
{
  "type": "node",
  "id": 2671916538,
  "lat": 50.9643802,
  "lon": 6.1190236
},
{
  "type": "node",
  "id": 2671916539,
  "lat": 50.9643811,
  "lon": 6.1190202
},
{
  "type": "node",
  "id": 2671916573,
  "lat": 50.9645414,
  "lon": 6.1190386
},
{
  "type": "node",
  "id": 2671916574,
  "lat": 50.9645236,
  "lon": 6.1191183
},
{
  "type": "node",
  "id": 3495819908,
  "lat": 50.8941509,
  "lon": 6.2818845
},
{
  "type": "node",
  "id": 3495819926,
  "lat": 50.8942079,
  "lon": 6.2817189
},
{
  "type": "node",
  "id": 3495819940,
  "lat": 50.8942735,
  "lon": 6.2820209
},
{
  "type": "node",
  "id": 3495819962,
  "lat": 50.8943410,
  "lon": 6.2818668
},
{
  "type": "node",
  "id": 2577690791,
  "lat": 51.0135900,
  "lon": 5.8915675
},
{
  "type": "node",
  "id": 2577690852,
  "lat": 51.0136184,
  "lon": 5.8913414
},
{
  "type": "node",
  "id": 2577690946,
  "lat": 51.0136592,
  "lon": 5.8912386
},
{
  "type": "node",
  "id": 2577690956,
  "lat": 51.0136623,
  "lon": 5.8913855
},
{
  "type": "node",
  "id": 2577691874,
  "lat": 51.0139863,
  "lon": 5.8915670
},
{
  "type": "node",
  "id": 2577691636,
  "lat": 51.0138731,
  "lon": 5.8918518
},
{
  "type": "node",
  "id": 2690224641,
  "lat": 51.0324553,
  "lon": 5.9870879
},
{
  "type": "node",
  "id": 2690224644,
  "lat": 51.0324522,
  "lon": 5.9871128
},
{
  "type": "node",
  "id": 2690224648,
  "lat": 51.0324554,
  "lon": 5.9871377
},
{
  "type": "node",
  "id": 2690224651,
  "lat": 51.0324540,
  "lon": 5.9871341
},
{
  "type": "node",
  "id": 2690224663,
  "lat": 51.0324775,
  "lon": 5.9870525
},
{
  "type": "node",
  "id": 2690224666,
  "lat": 51.0324642,
  "lon": 5.9870667
},
{
  "type": "node",
  "id": 2690224675,
  "lat": 51.0324761,
  "lon": 5.9871720
},
{
  "type": "node",
  "id": 2690224678,
  "lat": 51.0324646,
  "lon": 5.9871597
},
{
  "type": "node",
  "id": 2690224681,
  "lat": 51.0324643,
  "lon": 5.9871589
},
{
  "type": "node",
  "id": 2690224684,
  "lat": 51.0324777,
  "lon": 5.9871730
},
{
  "type": "node",
  "id": 2690224687,
  "lat": 51.0325090,
  "lon": 5.9870525
},
{
  "type": "node",
  "id": 2690224690,
  "lat": 51.0324932,
  "lon": 5.9870476
},
{
  "type": "node",
  "id": 2690224693,
  "lat": 51.0325092,
  "lon": 5.9871729
},
{
  "type": "node",
  "id": 2690224697,
  "lat": 51.0324935,
  "lon": 5.9871779
},
{
  "type": "node",
  "id": 2690224703,
  "lat": 51.0325224,
  "lon": 5.9870666
},
{
  "type": "node",
  "id": 2690224706,
  "lat": 51.0325313,
  "lon": 5.9870877
},
{
  "type": "node",
  "id": 2690224709,
  "lat": 51.0325345,
  "lon": 5.9871127
},
{
  "type": "node",
  "id": 2690224712,
  "lat": 51.0325314,
  "lon": 5.9871376
},
{
  "type": "node",
  "id": 2690224715,
  "lat": 51.0325225,
  "lon": 5.9871588
},
{
  "type": "node",
  "id": 2647724691,
  "lat": 51.0539759,
  "lon": 5.9913129
},
{
  "type": "node",
  "id": 2647724701,
  "lat": 51.0539958,
  "lon": 5.9912474
},
{
  "type": "node",
  "id": 2647724702,
  "lat": 51.0540058,
  "lon": 5.9912684
},
{
  "type": "node",
  "id": 2647724703,
  "lat": 51.0540020,
  "lon": 5.9913667
},
{
  "type": "node",
  "id": 2647724713,
  "lat": 51.0540396,
  "lon": 5.9911874
},
{
  "type": "node",
  "id": 2647724719,
  "lat": 51.0540447,
  "lon": 5.9911875
},
{
  "type": "node",
  "id": 2647724720,
  "lat": 51.0540426,
  "lon": 5.9911834
},
{
  "type": "node",
  "id": 2647724728,
  "lat": 51.0540807,
  "lon": 5.9912640
},
{
  "type": "node",
  "id": 2648284472,
  "lat": 51.0644076,
  "lon": 5.9918156
},
{
  "type": "node",
  "id": 2648284481,
  "lat": 51.0644702,
  "lon": 5.9917059
},
{
  "type": "node",
  "id": 2648284489,
  "lat": 51.0645729,
  "lon": 5.9918536
},
{
  "type": "node",
  "id": 2648284496,
  "lat": 51.0646051,
  "lon": 5.9917971
},
{
  "type": "node",
  "id": 2648284498,
  "lat": 51.0645975,
  "lon": 5.9918889
},
{
  "type": "node",
  "id": 2648284501,
  "lat": 51.0645905,
  "lon": 5.9920786
},
{
  "type": "node",
  "id": 2648284502,
  "lat": 51.0646078,
  "lon": 5.9921033
},
{
  "type": "node",
  "id": 2648284504,
  "lat": 51.0646297,
  "lon": 5.9918324
},
{
  "type": "node",
  "id": 2648284529,
  "lat": 51.0646703,
  "lon": 5.9919936
},
{
  "type": "node",
  "id": 2649824782,
  "lat": 51.0601234,
  "lon": 6.0924673
},
{
  "type": "node",
  "id": 2649824784,
  "lat": 51.0601242,
  "lon": 6.0925317
},
{
  "type": "node",
  "id": 2649824802,
  "lat": 51.0601953,
  "lon": 6.0923988
},
{
  "type": "node",
  "id": 2649824804,
  "lat": 51.0601947,
  "lon": 6.0924647
},
{
  "type": "node",
  "id": 2649824805,
  "lat": 51.0601889,
  "lon": 6.0925043
},
{
  "type": "node",
  "id": 2649824806,
  "lat": 51.0601927,
  "lon": 6.0925086
},
{
  "type": "node",
  "id": 2649824807,
  "lat": 51.0601772,
  "lon": 6.0925296
},
{
  "type": "node",
  "id": 2649824808,
  "lat": 51.0601729,
  "lon": 6.0925298
},
{
  "type": "node",
  "id": 2649824822,
  "lat": 51.0602019,
  "lon": 6.0925102
},
{
  "type": "node",
  "id": 2649824824,
  "lat": 51.0602094,
  "lon": 6.0925021
},
{
  "type": "node",
  "id": 2649824827,
  "lat": 51.0601972,
  "lon": 6.0925107
},
{
  "type": "node",
  "id": 2649824829,
  "lat": 51.0602061,
  "lon": 6.0925072
},
{
  "type": "node",
  "id": 2649824832,
  "lat": 51.0602115,
  "lon": 6.0924955
},
{
  "type": "node",
  "id": 2649824835,
  "lat": 51.0602441,
  "lon": 6.0924062
},
{
  "type": "node",
  "id": 2649824837,
  "lat": 51.0602442,
  "lon": 6.0924036
},
{
  "type": "node",
  "id": 2649824839,
  "lat": 51.0602301,
  "lon": 6.0924964
},
{
  "type": "node",
  "id": 2649824841,
  "lat": 51.0602300,
  "lon": 6.0926747
},
{
  "type": "node",
  "id": 2649824848,
  "lat": 51.0602942,
  "lon": 6.0924152
},
{
  "type": "node",
  "id": 2649824850,
  "lat": 51.0602917,
  "lon": 6.0925216
},
{
  "type": "node",
  "id": 2649824853,
  "lat": 51.0602925,
  "lon": 6.0925908
},
{
  "type": "node",
  "id": 2649824855,
  "lat": 51.0602924,
  "lon": 6.0925925
},
{
  "type": "node",
  "id": 2649824857,
  "lat": 51.0602916,
  "lon": 6.0926753
},
{
  "type": "node",
  "id": 3468918472,
  "lat": 50.9798279,
  "lon": 6.2688994
},
{
  "type": "node",
  "id": 3468918473,
  "lat": 50.9798303,
  "lon": 6.2692270
},
{
  "type": "node",
  "id": 3468918488,
  "lat": 50.9798642,
  "lon": 6.2687892
},
{
  "type": "node",
  "id": 3468921996,
  "lat": 50.9796562,
  "lon": 6.2691355
},
{
  "type": "node",
  "id": 3468922001,
  "lat": 50.9796926,
  "lon": 6.2692024
},
{
  "type": "node",
  "id": 3468922017,
  "lat": 50.9797506,
  "lon": 6.2690069
},
{
  "type": "node",
  "id": 3468922018,
  "lat": 50.9797501,
  "lon": 6.2690062
},
{
  "type": "node",
  "id": 3468922019,
  "lat": 50.9797628,
  "lon": 6.2693261
},
{
  "type": "node",
  "id": 3468922025,
  "lat": 50.9797898,
  "lon": 6.2691578
},
{
  "type": "node",
  "id": 3468922034,
  "lat": 50.9798092,
  "lon": 6.2688667
},
{
  "type": "node",
  "id": 3468922035,
  "lat": 50.9798136,
  "lon": 6.2691235
},
{
  "type": "node",
  "id": 3468922036,
  "lat": 50.9798155,
  "lon": 6.2691271
},
{
  "type": "node",
  "id": 3468922130,
  "lat": 50.9799495,
  "lon": 6.2689414
},
{
  "type": "node",
  "id": 5276002937,
  "lat": 50.9799306,
  "lon": 6.2689073
},
{
  "type": "node",
  "id": 2739781380,
  "lat": 51.0368703,
  "lon": 6.2193056
},
{
  "type": "node",
  "id": 2739781394,
  "lat": 51.0369296,
  "lon": 6.2191914
},
{
  "type": "node",
  "id": 2739781395,
  "lat": 51.0369303,
  "lon": 6.2191921
},
{
  "type": "node",
  "id": 2739781398,
  "lat": 51.0369404,
  "lon": 6.2191727
},
{
  "type": "node",
  "id": 2739781400,
  "lat": 51.0369562,
  "lon": 6.2191857
},
{
  "type": "node",
  "id": 2739781406,
  "lat": 51.0369912,
  "lon": 6.2192369
},
{
  "type": "node",
  "id": 2739781391,
  "lat": 51.0369210,
  "lon": 6.2193714
},
{
  "type": "node",
  "id": 2665253493,
  "lat": 51.0575353,
  "lon": 6.2160712
},
{
  "type": "node",
  "id": 2665253495,
  "lat": 51.0575365,
  "lon": 6.2160743
},
{
  "type": "node",
  "id": 2665253521,
  "lat": 51.0575920,
  "lon": 6.2161948
},
{
  "type": "node",
  "id": 2665253523,
  "lat": 51.0575913,
  "lon": 6.2161938
},
{
  "type": "node",
  "id": 2665253529,
  "lat": 51.0576969,
  "lon": 6.2160740
},
{
  "type": "node",
  "id": 2665253538,
  "lat": 51.0577623,
  "lon": 6.2158096
},
{
  "type": "node",
  "id": 2665253544,
  "lat": 51.0577974,
  "lon": 6.2162923
},
{
  "type": "node",
  "id": 2665253549,
  "lat": 51.0578367,
  "lon": 6.2162484
},
{
  "type": "node",
  "id": 2665253558,
  "lat": 51.0578752,
  "lon": 6.2162020
},
{
  "type": "node",
  "id": 2665253562,
  "lat": 51.0579198,
  "lon": 6.2161521
},
{
  "type": "node",
  "id": 2665624280,
  "lat": 51.0601200,
  "lon": 6.2228048
},
{
  "type": "node",
  "id": 2665624296,
  "lat": 51.0601878,
  "lon": 6.2229070
},
{
  "type": "node",
  "id": 2665624321,
  "lat": 51.0602910,
  "lon": 6.2225189
},
{
  "type": "node",
  "id": 2665624334,
  "lat": 51.0603387,
  "lon": 6.2224395
},
{
  "type": "node",
  "id": 2665624335,
  "lat": 51.0603392,
  "lon": 6.2224388
},
{
  "type": "node",
  "id": 2665624347,
  "lat": 51.0603562,
  "lon": 6.2224066
},
{
  "type": "node",
  "id": 2665624372,
  "lat": 51.0604240,
  "lon": 6.2225080
},
{
  "type": "node",
  "id": 2665624373,
  "lat": 51.0604254,
  "lon": 6.2225104
},
{
  "type": "node",
  "id": 607997074,
  "lat": 50.8156568,
  "lon": 6.3542057
},
{
  "type": "node",
  "id": 607997082,
  "lat": 50.8154987,
  "lon": 6.3544626
},
{
  "type": "node",
  "id": 607997083,
  "lat": 50.8155934,
  "lon": 6.3544523
},
{
  "type": "node",
  "id": 607997084,
  "lat": 50.8157021,
  "lon": 6.3542756
},
{
  "type": "node",
  "id": 607997085,
  "lat": 50.8156215,
  "lon": 6.3546517
},
{
  "type": "node",
  "id": 607997086,
  "lat": 50.8157132,
  "lon": 6.3546304
},
{
  "type": "node",
  "id": 607997087,
  "lat": 50.8156934,
  "lon": 6.3546523
},
{
  "type": "node",
  "id": 607997088,
  "lat": 50.8156716,
  "lon": 6.3545729
},
{
  "type": "node",
  "id": 607997089,
  "lat": 50.8156584,
  "lon": 6.3545917
},
{
  "type": "node",
  "id": 607997090,
  "lat": 50.8156959,
  "lon": 6.3546495
},
{
  "type": "node",
  "id": 607997091,
  "lat": 50.8157107,
  "lon": 6.3546331
},
{
  "type": "node",
  "id": 607997092,
  "lat": 50.8156211,
  "lon": 6.3548455
},
{
  "type": "node",
  "id": 607997093,
  "lat": 50.8155875,
  "lon": 6.3547692
},
{
  "type": "node",
  "id": 607997094,
  "lat": 50.8156045,
  "lon": 6.3548564
},
{
  "type": "node",
  "id": 607997095,
  "lat": 50.8157092,
  "lon": 6.3547481
},
{
  "type": "node",
  "id": 607997096,
  "lat": 50.8157613,
  "lon": 6.3546752
},
{
  "type": "node",
  "id": 607997097,
  "lat": 50.8157422,
  "lon": 6.3546963
},
{
  "type": "node",
  "id": 607997098,
  "lat": 50.8158554,
  "lon": 6.3548888
},
{
  "type": "node",
  "id": 607997099,
  "lat": 50.8157507,
  "lon": 6.3550043
},
{
  "type": "node",
  "id": 607997100,
  "lat": 50.8157817,
  "lon": 6.3549126
},
{
  "type": "node",
  "id": 607997101,
  "lat": 50.8157337,
  "lon": 6.3549656
},
{
  "type": "node",
  "id": 607997102,
  "lat": 50.8157228,
  "lon": 6.3550270
},
{
  "type": "node",
  "id": 607997103,
  "lat": 50.8155445,
  "lon": 6.3549170
},
{
  "type": "node",
  "id": 607997104,
  "lat": 50.8156741,
  "lon": 6.3550288
},
{
  "type": "node",
  "id": 607997105,
  "lat": 50.8157092,
  "lon": 6.3549933
},
{
  "type": "node",
  "id": 607997106,
  "lat": 50.8156278,
  "lon": 6.3551232
},
{
  "type": "node",
  "id": 2630595518,
  "lat": 50.8012935,
  "lon": 6.4791032
},
{
  "type": "node",
  "id": 2630595519,
  "lat": 50.8012953,
  "lon": 6.4793618
},
{
  "type": "node",
  "id": 2630595520,
  "lat": 50.8013225,
  "lon": 6.4791879
},
{
  "type": "node",
  "id": 2630595521,
  "lat": 50.8013260,
  "lon": 6.4790504
},
{
  "type": "node",
  "id": 2630595522,
  "lat": 50.8013275,
  "lon": 6.4790341
},
{
  "type": "node",
  "id": 2630595523,
  "lat": 50.8013294,
  "lon": 6.4790250
},
{
  "type": "node",
  "id": 2630595524,
  "lat": 50.8013298,
  "lon": 6.4790721
},
{
  "type": "node",
  "id": 2630595525,
  "lat": 50.8013322,
  "lon": 6.4790165
},
{
  "type": "node",
  "id": 2630595527,
  "lat": 50.8013352,
  "lon": 6.4794788
},
{
  "type": "node",
  "id": 2630595528,
  "lat": 50.8013360,
  "lon": 6.4790086
},
{
  "type": "node",
  "id": 2630595529,
  "lat": 50.8013405,
  "lon": 6.4790021
},
{
  "type": "node",
  "id": 2630595531,
  "lat": 50.8013458,
  "lon": 6.4789966
},
{
  "type": "node",
  "id": 2630595532,
  "lat": 50.8013513,
  "lon": 6.4789927
},
{
  "type": "node",
  "id": 2630595533,
  "lat": 50.8013549,
  "lon": 6.4792532
},
{
  "type": "node",
  "id": 2630595534,
  "lat": 50.8013572,
  "lon": 6.4789904
},
{
  "type": "node",
  "id": 2630595535,
  "lat": 50.8013589,
  "lon": 6.4791569
},
{
  "type": "node",
  "id": 2630595536,
  "lat": 50.8013598,
  "lon": 6.4792560
},
{
  "type": "node",
  "id": 2630595537,
  "lat": 50.8013612,
  "lon": 6.4792208
},
{
  "type": "node",
  "id": 2630595538,
  "lat": 50.8013635,
  "lon": 6.4789896
},
{
  "type": "node",
  "id": 2630595539,
  "lat": 50.8013660,
  "lon": 6.4792229
},
{
  "type": "node",
  "id": 2630595540,
  "lat": 50.8013697,
  "lon": 6.4789906
},
{
  "type": "node",
  "id": 2630595541,
  "lat": 50.8013730,
  "lon": 6.4792169
},
{
  "type": "node",
  "id": 2630595542,
  "lat": 50.8013734,
  "lon": 6.4792955
},
{
  "type": "node",
  "id": 2630595543,
  "lat": 50.8013755,
  "lon": 6.4789930
},
{
  "type": "node",
  "id": 2630595544,
  "lat": 50.8013806,
  "lon": 6.4792206
},
{
  "type": "node",
  "id": 2630595545,
  "lat": 50.8013812,
  "lon": 6.4789972
},
{
  "type": "node",
  "id": 2630595546,
  "lat": 50.8013863,
  "lon": 6.4790028
},
{
  "type": "node",
  "id": 2630595547,
  "lat": 50.8013906,
  "lon": 6.4790094
},
{
  "type": "node",
  "id": 2630595549,
  "lat": 50.8013943,
  "lon": 6.4790174
},
{
  "type": "node",
  "id": 2630595550,
  "lat": 50.8014025,
  "lon": 6.4794186
},
{
  "type": "node",
  "id": 2630595555,
  "lat": 50.8014295,
  "lon": 6.4794607
},
{
  "type": "node",
  "id": 2630595557,
  "lat": 50.8014309,
  "lon": 6.4789863
},
{
  "type": "node",
  "id": 2630595560,
  "lat": 50.8014416,
  "lon": 6.4795376
},
{
  "type": "node",
  "id": 2630595561,
  "lat": 50.8014425,
  "lon": 6.4794668
},
{
  "type": "node",
  "id": 2630595565,
  "lat": 50.8014545,
  "lon": 6.4794565
},
{
  "type": "node",
  "id": 2630595569,
  "lat": 50.8014567,
  "lon": 6.4794445
},
{
  "type": "node",
  "id": 2630595570,
  "lat": 50.8014715,
  "lon": 6.4796245
},
{
  "type": "node",
  "id": 2630595571,
  "lat": 50.8014787,
  "lon": 6.4795082
},
{
  "type": "node",
  "id": 2630595573,
  "lat": 50.8014868,
  "lon": 6.4791522
},
{
  "type": "node",
  "id": 2630595574,
  "lat": 50.8014907,
  "lon": 6.4791571
},
{
  "type": "node",
  "id": 2630595576,
  "lat": 50.8014939,
  "lon": 6.4791593
},
{
  "type": "node",
  "id": 2630595578,
  "lat": 50.8014975,
  "lon": 6.4791603
},
{
  "type": "node",
  "id": 2630595579,
  "lat": 50.8015016,
  "lon": 6.4791596
},
{
  "type": "node",
  "id": 2630595580,
  "lat": 50.8015076,
  "lon": 6.4791555
},
{
  "type": "node",
  "id": 2630595582,
  "lat": 50.8015087,
  "lon": 6.4791589
},
{
  "type": "node",
  "id": 2630595583,
  "lat": 50.8015087,
  "lon": 6.4795920
},
{
  "type": "node",
  "id": 2630595584,
  "lat": 50.8015154,
  "lon": 6.4791533
},
{
  "type": "node",
  "id": 2630595585,
  "lat": 50.8015159,
  "lon": 6.4796057
},
{
  "type": "node",
  "id": 2630595587,
  "lat": 50.8015219,
  "lon": 6.4796124
},
{
  "type": "node",
  "id": 2630595589,
  "lat": 50.8015275,
  "lon": 6.4796166
},
{
  "type": "node",
  "id": 2630595590,
  "lat": 50.8015333,
  "lon": 6.4796193
},
{
  "type": "node",
  "id": 2630595591,
  "lat": 50.8015397,
  "lon": 6.4796203
},
{
  "type": "node",
  "id": 2630595592,
  "lat": 50.8015458,
  "lon": 6.4796196
},
{
  "type": "node",
  "id": 2630595593,
  "lat": 50.8015507,
  "lon": 6.4793402
},
{
  "type": "node",
  "id": 2630595594,
  "lat": 50.8015509,
  "lon": 6.4793290
},
{
  "type": "node",
  "id": 2630595595,
  "lat": 50.8015512,
  "lon": 6.4796175
},
{
  "type": "node",
  "id": 2630595596,
  "lat": 50.8015527,
  "lon": 6.4793229
},
{
  "type": "node",
  "id": 2630595597,
  "lat": 50.8015550,
  "lon": 6.4793185
},
{
  "type": "node",
  "id": 2630595598,
  "lat": 50.8015570,
  "lon": 6.4796137
},
{
  "type": "node",
  "id": 2630595599,
  "lat": 50.8015577,
  "lon": 6.4793154
},
{
  "type": "node",
  "id": 2630595600,
  "lat": 50.8015598,
  "lon": 6.4793091
},
{
  "type": "node",
  "id": 2630595602,
  "lat": 50.8015609,
  "lon": 6.4793127
},
{
  "type": "node",
  "id": 2630595604,
  "lat": 50.8015626,
  "lon": 6.4796080
},
{
  "type": "node",
  "id": 2630595605,
  "lat": 50.8015663,
  "lon": 6.4793035
},
{
  "type": "node",
  "id": 2630595606,
  "lat": 50.8015671,
  "lon": 6.4796013
},
{
  "type": "node",
  "id": 2630595607,
  "lat": 50.8015708,
  "lon": 6.4795935
},
{
  "type": "node",
  "id": 2630595608,
  "lat": 50.8015726,
  "lon": 6.4795372
},
{
  "type": "node",
  "id": 2630595609,
  "lat": 50.8015735,
  "lon": 6.4795849
},
{
  "type": "node",
  "id": 2630595610,
  "lat": 50.8015754,
  "lon": 6.4795752
},
{
  "type": "node",
  "id": 2630595611,
  "lat": 50.8015765,
  "lon": 6.4795610
},
{
  "type": "node",
  "id": 2630595617,
  "lat": 50.8016085,
  "lon": 6.4795066
},
{
  "type": "node",
  "id": 2631483930,
  "lat": 50.8007066,
  "lon": 6.4793748
},
{
  "type": "node",
  "id": 2631483983,
  "lat": 50.8007193,
  "lon": 6.4794514
},
{
  "type": "node",
  "id": 2631484246,
  "lat": 50.8007723,
  "lon": 6.4797508
},
{
  "type": "node",
  "id": 2631484286,
  "lat": 50.8007882,
  "lon": 6.4793479
},
{
  "type": "node",
  "id": 2631484661,
  "lat": 50.8008954,
  "lon": 6.4793147
},
{
  "type": "node",
  "id": 2631484999,
  "lat": 50.8009497,
  "lon": 6.4796837
},
{
  "type": "node",
  "id": 3224540273,
  "lat": 50.8014111,
  "lon": 6.4794094
},
{
  "type": "node",
  "id": 1020870032,
  "lat": 50.9249813,
  "lon": 6.3597105
},
{
  "type": "node",
  "id": 1020870066,
  "lat": 50.9249447,
  "lon": 6.3597004
},
{
  "type": "node",
  "id": 1020870138,
  "lat": 50.9249236,
  "lon": 6.3598930
},
{
  "type": "node",
  "id": 1020870206,
  "lat": 50.9249602,
  "lon": 6.3599031
},
{
  "type": "node",
  "id": 3054512225,
  "lat": 50.8290561,
  "lon": 6.5246487
},
{
  "type": "node",
  "id": 3054512226,
  "lat": 50.8291367,
  "lon": 6.5250155
},
{
  "type": "node",
  "id": 3054512227,
  "lat": 50.8292051,
  "lon": 6.5245855
},
{
  "type": "node",
  "id": 3054512228,
  "lat": 50.8292264,
  "lon": 6.5250605
},
{
  "type": "node",
  "id": 3054512229,
  "lat": 50.8292417,
  "lon": 6.5249810
},
{
  "type": "node",
  "id": 3054512230,
  "lat": 50.8291445,
  "lon": 6.5248507
},
{
  "type": "node",
  "id": 4226015722,
  "lat": 50.8292288,
  "lon": 6.5247126
},
{
  "type": "node",
  "id": 4226015723,
  "lat": 50.8291311,
  "lon": 6.5247667
},
{
  "type": "node",
  "id": 4333087679,
  "lat": 50.8291218,
  "lon": 6.5248630
},
{
  "type": "node",
  "id": 4333087680,
  "lat": 50.8291322,
  "lon": 6.5249147
},
{
  "type": "node",
  "id": 4333087682,
  "lat": 50.8292087,
  "lon": 6.5246045
},
{
  "type": "node",
  "id": 2747678020,
  "lat": 51.0320674,
  "lon": 6.3229180
},
{
  "type": "node",
  "id": 2747678031,
  "lat": 51.0320800,
  "lon": 6.3229113
},
{
  "type": "node",
  "id": 2747678041,
  "lat": 51.0320958,
  "lon": 6.3230398
},
{
  "type": "node",
  "id": 2747678076,
  "lat": 51.0321197,
  "lon": 6.3231410
},
{
  "type": "node",
  "id": 2747678086,
  "lat": 51.0321352,
  "lon": 6.3231302
},
{
  "type": "node",
  "id": 2747678097,
  "lat": 51.0321507,
  "lon": 6.3228752
},
{
  "type": "node",
  "id": 2747678105,
  "lat": 51.0321603,
  "lon": 6.3229287
},
{
  "type": "node",
  "id": 2747678145,
  "lat": 51.0321965,
  "lon": 6.3230862
},
{
  "type": "node",
  "id": 6886065262,
  "lat": 51.0320735,
  "lon": 6.3229442
},
{
  "type": "node",
  "id": 6886065263,
  "lat": 51.0321564,
  "lon": 6.3229067
},
{
  "type": "way",
  "id": 90616711,
  "nodes": [
    1051621227,
    1051621278,
    1051621171,
    1051620823,
    1051621227
  ]
},
{
  "type": "way",
  "id": 96698542,
  "nodes": [
    2577540096,
    2577539884,
    2577539945,
    2577539494,
    2577539357,
    2577539847,
    2577539703,
    2577539998,
    2577540096
  ]
},
{
  "type": "way",
  "id": 99228210,
  "nodes": [
    1147860318,
    1147860319,
    1147860261,
    1147860317,
    2352210353,
    1147860318
  ]
},
{
  "type": "way",
  "id": 99228214,
  "nodes": [
    1147860261,
    1147860327,
    2352210349,
    1147860292,
    1147860288,
    1147860319,
    1147860261
  ]
}

  ]
}
