{
  "version": 0.6,
  "generator": "Overpass API 0.7.55.1011 6c2efc30",
  "osm3s": {
    "timestamp_osm_base": "2020-02-14T12:20:03Z",
    "copyright": "The data included in this document is from www.openstreetmap.org. The data is made available under ODbL."
  },
  "elements": [

{
  "type": "node",
  "id": 747156949,
  "lat": 54.3548344,
  "lon": 18.6596937,
  "tags": {
    "addr:city": "Gdańsk",
    "addr:housenumber": "8",
    "addr:street": "Rycerska",
    "name": "Muzeum Archeologiczne",
    "tourism": "museum",
    "wikidata": "Q11786904",
    "wikipedia": "pl:Muzeum Archeologiczne w Gdańsku"
  }
},
{
  "type": "node",
  "id": 1192374695,
  "lat": 54.7192421,
  "lon": 18.4114446,
  "tags": {
    "addr:city": "Puck",
    "addr:housenumber": "11",
    "addr:street": "Wałowa",
    "name": "Muzeum Ziemi Puckiej (Szpitalik)",
    "tourism": "museum",
    "website": "http://muzeumpuck.kaszubia.com/"
  }
},
{
  "type": "node",
  "id": 1366784621,
  "lat": 54.7966305,
  "lon": 18.4002894,
  "tags": {
    "addr:city": "Władysławowo",
    "addr:housenumber": "6",
    "addr:street": "Morska",
    "name": "Hallerówka",
    "tourism": "museum"
  }
},
{
  "type": "node",
  "id": 1599381625,
  "lat": 54.3444598,
  "lon": 18.8289651,
  "tags": {
    "addr:housenumber": "3",
    "addr:street": "Turystyczna",
    "name": "Izba Pamięci Wincentego Pola",
    "phone": "+48 58 323 91 15",
    "source": "Im working there",
    "tourism": "museum",
    "website": "http://wyspaskarbow.gak.gda.pl"
  }
},
{
  "type": "node",
  "id": 1772239335,
  "lat": 54.4814556,
  "lon": 18.5640668,
  "tags": {
    "addr:city": "Gdynia",
    "addr:country": "PL",
    "addr:housename": "Domek Żeromskiego",
    "addr:housenumber": "6",
    "addr:postcode": "81-510",
    "addr:street": "Orłowska",
    "name": "Dom Żeromskiego",
    "tourism": "museum",
    "wikidata": "Q24943819",
    "wikipedia": "pl:Domek Stefana Żeromskiego w Gdyni-Orłowie"
  }
},
{
  "type": "node",
  "id": 1777255594,
  "lat": 54.3478678,
  "lon": 18.6557171,
  "tags": {
    "addr:city": "Gdańsk",
    "addr:country": "PL",
    "addr:housename": "Zielona Brama",
    "addr:housenumber": "24",
    "addr:postcode": "80-828",
    "addr:street": "Długi Targ",
    "alt_name": "Muzeum Narodowe w Gdańsku - Oddział Zielona Brama",
    "name": "Muzeum Narodowe w Gdańsku o/Zielona Brama",
    "name:be": "Нацыянальны музей у Гданьску",
    "tourism": "museum",
    "wikidata": "Q1968661",
    "wikipedia": "pl:Muzeum Narodowe w Gdańsku"
  }
},
{
  "type": "node",
  "id": 1907432876,
  "lat": 54.5987522,
  "lon": 18.2389295,
  "tags": {
    "addr:city": "Wejherowo",
    "addr:country": "PL",
    "addr:housenumber": "2A",
    "addr:street": "Zamkowa",
    "contact:email": "sekretariat@muzeum.wejherowo.pl",
    "contact:phone": "+48 58 672 29 56",
    "fee": "yes",
    "name": "Muzeum Piśmiennictwa i Muzyki Kaszubsko-Pomorskiej",
    "opening_hours": "Mo-Fr 10:00-17:00; Sa-Su 11:00-17:00",
    "operator": "Starostwo Powiatowe w Wejherowie",
    "start_date": "1968",
    "tourism": "museum",
    "website": "https://www.muzeum.wejherowo.pl/",
    "wikidata": "Q10975625",
    "wikipedia": "pl:Muzeum Piśmiennictwa i Muzyki Kaszubsko-Pomorskiej w Wejherowie"
  }
},
{
  "type": "node",
  "id": 2471714870,
  "lat": 54.6026459,
  "lon": 18.2385315,
  "tags": {
    "addr:city": "Wejherowo",
    "addr:housenumber": "14A",
    "addr:postcode": "84-200",
    "addr:street": "Wałowa",
    "name": "Muzeum Piśmiennictwa i Muzyki Kaszubsko-Pomorskiej w Wejherowie",
    "operator": "Starostwo Powiatowe w Wejherowie",
    "source:addr": "mwejherowo.punktyadresowe.pl",
    "tourism": "museum"
  }
},
{
  "type": "node",
  "id": 2807703832,
  "lat": 54.3493414,
  "lon": 18.6565215,
  "tags": {
    "contact:website": "http://www.archeologia.pl/",
    "name": "Muzeum Archeologiczne",
    "name:be": "Археалагічны музей",
    "name:de": "Archäologisches Museum",
    "name:en": "Archeological Museum",
    "tourism": "museum",
    "wikidata": "Q9209437",
    "wikipedia": "pl:Dom Towarzystwa Przyrodniczego"
  }
},
{
  "type": "node",
  "id": 2812229599,
  "lat": 54.3497940,
  "lon": 18.6474880,
  "tags": {
    "name": "Muzeum Bursztynu",
    "name:be": "Музей бурштыну",
    "name:de": "Bernsteinmuseum",
    "name:en": "Amber Museum",
    "name:es": "Museo del Ámbar",
    "name:ja": "琥珀博物館",
    "name:pl": "Muzeum Bursztynu",
    "tourism": "museum",
    "wikidata": "Q11786937"
  }
},
{
  "type": "node",
  "id": 2891628951,
  "lat": 54.7601610,
  "lon": 18.3958898,
  "tags": {
    "name": "Muzeum kocham Bałtyk",
    "phone": "+48 58 350 61 41",
    "tourism": "museum",
    "website": "http://www.kochambaltyk.com.pl"
  }
},
{
  "type": "node",
  "id": 2942684633,
  "lat": 54.3448232,
  "lon": 18.6551556,
  "tags": {
    "name": "Centrum Edukacji Archeologicznej \"BŁĘKITNY LEW\"",
    "name:de": "Zentrum fur archäologiosche Bildung \"Hellblauer Löwe\"",
    "name:en": "Archaeological Education Centre \"Blue Lion\"",
    "name:pl": "Centrum Edukacji Archeologicznej \"BŁĘKITNY LEW\"",
    "phone": "583203188",
    "tourism": "museum",
    "website": "http://www.blekitnylew.pl/"
  }
},
{
  "type": "node",
  "id": 3037787086,
  "lat": 54.7944202,
  "lon": 18.4095373,
  "tags": {
    "name": "Muzeum Motyli",
    "tourism": "museum",
    "website": "http://www.muzeummotyli.pl/"
  }
},
{
  "type": "node",
  "id": 3057240833,
  "lat": 54.7203490,
  "lon": 18.4022899,
  "tags": {
    "name": "Muzeum MDLot",
    "tourism": "museum",
    "website": "www.mdlot.pl"
  }
},
{
  "type": "node",
  "id": 3329652425,
  "lat": 54.7209688,
  "lon": 18.4112806,
  "tags": {
    "tourism": "museum",
    "website": "http://muzeumpuck.pl/"
  }
},
{
  "type": "node",
  "id": 4166264453,
  "lat": 54.5330528,
  "lon": 18.5483911,
  "tags": {
    "contact:email": "biuro@muzeumemigracji.pl",
    "contact:phone": "+48 586704161",
    "contact:website": "http://www.polska1.pl",
    "museum": "history",
    "name": "Muzeum Emigracji",
    "official_name": "Muzeum Emigracji w Gdyni",
    "opening_hours": "Tu 12:00-20:00; We-Th 10:00-18:00; Fr 12:00-20:00; Sa-Su 10:00-18:00",
    "start_date": "2012-02",
    "tourism": "museum",
    "wheelchair": "yes",
    "wikidata": "Q15966273",
    "wikipedia": "pl:Muzeum Emigracji w Gdyni"
  }
},
{
  "type": "node",
  "id": 4321332993,
  "lat": 54.5516389,
  "lon": 18.1713152,
  "tags": {
    "addr:housenumber": "2",
    "addr:postcode": "84-242",
    "addr:street": "Podpułkownika Ryszarda Lubowiedzkiego",
    "email": "muzeum@explosive.pl",
    "name": "Muzeum Saperskie Explosive",
    "phone": "606257067",
    "tourism": "museum",
    "website": "http://www.muzeumsaperskie.pl"
  }
},
{
  "type": "node",
  "id": 4373274800,
  "lat": 54.3539453,
  "lon": 18.6509319,
  "tags": {
    "description": "Oddział czynny sezonowo",
    "fee": "yes",
    "name": "Pracownia Zegarów Wieżowych",
    "official_name": "Muzeum Nauki Gdańskiej Pracownia Zegarów Wieżowych",
    "old_name": "Muzeum Zegarów Wieżowych",
    "opening_hours": "Mo-Su 11:00-19:00",
    "operator": "Muzeum Historyczne Miasta Gdańska",
    "start_date": "1996",
    "tourism": "museum",
    "website": "http://www.mhmg.pl/oddzial/3/muzeum-nauki-gdanskiej",
    "wheelchair": "no",
    "wikidata": "Q11787268",
    "wikipedia": "pl:Muzeum Zegarów Wieżowych"
  }
},
{
  "type": "node",
  "id": 4394419589,
  "lat": 54.3564109,
  "lon": 18.6388477,
  "tags": {
    "contact:phone": "+48 587423352",
    "contact:website": "http://www.hevelianum.pl",
    "name": "Hevelianum",
    "name:pl": "Hevelianum",
    "old_name": "Centrum Hewelianum",
    "opening_hours": "Tu-Fr 08:00-16:00; Sa-Su 10:00-18:00",
    "tourism": "museum",
    "wheelchair": "yes"
  }
},
{
  "type": "node",
  "id": 4463516872,
  "lat": 54.3828521,
  "lon": 18.6053891,
  "tags": {
    "level": "0",
    "name": "Wystawa samochodów klasycznych",
    "source": "survey",
    "tourism": "museum"
  }
},
{
  "type": "node",
  "id": 4464329755,
  "lat": 54.3293599,
  "lon": 18.2041181,
  "tags": {
    "addr:city": "Kartuzy",
    "addr:housenumber": "1",
    "addr:postcode": "83-300",
    "addr:street": "Kościerska",
    "contact:email": "muzeum@muzeum-kaszubskie.com.pl",
    "contact:fax": "+48 58 681 03 78",
    "contact:phone": "+48 58 681 03 78",
    "contact:website": "https://www.muzeum-kaszubskie.pl",
    "name": "Muzeum Kaszubskie",
    "opening_hours": "Mo off; Tu-Fr 08:00-16:00; Sa 08:00-15:00; Su off; May, Jun, Sep: Su 10:00-14:00; Jul, Aug: Tu-Fr 09:00-18:00; Jul, Aug: Sa, Su 09:00-17:00",
    "source": "Bing",
    "source:addr": "emuia.gugik.gov.pl",
    "tourism": "museum",
    "wikipedia": "pl:Muzeum Kaszubskie im. Franciszka Tredera w Kartuzach"
  }
},
{
  "type": "node",
  "id": 4563414052,
  "lat": 54.3766223,
  "lon": 18.2875896,
  "tags": {
    "addr:city": "Przodkowo",
    "addr:country": "PL",
    "addr:housenumber": "23",
    "addr:postcode": "83-304",
    "addr:street": "Kartuska",
    "image": "https://upload.wikimedia.org/wikipedia/commons/thumb/0/0c/Przodkowo_%28OSP%29.JPG/1280px-Przodkowo_%28OSP%29.JPG",
    "name": "Muzeum Pożarnictwa",
    "official_name": "Muzeum Pożarnictwa im. Leona Deyka",
    "operator": "OSP Przodkowo",
    "short_name": "Muzeum",
    "tourism": "museum",
    "wheelchair": "no",
    "wikidata": "Q17619161",
    "wikipedia": "pl:Muzeum Pożarnictwa w Przodkowie"
  }
},
{
  "type": "node",
  "id": 4947145524,
  "lat": 54.5513301,
  "lon": 18.1703133,
  "tags": {
    "name": "Muzeum Techniki Wojskowej",
    "name:en": "Army Museum",
    "tourism": "museum"
  }
},
{
  "type": "node",
  "id": 5108811093,
  "lat": 54.4948431,
  "lon": 18.5384205,
  "tags": {
    "contact:email": "experyment@gci.gdynia.pl",
    "contact:phone": "+48 58 72 73 950",
    "level": "0",
    "name": "Centrum Nauki Experyment",
    "name:en": "Experyment Science Centre",
    "name:pl": "Centrum Nauki Experyment",
    "name:ru": "Центр Науки Эксперимент",
    "opening_hours": "Tu-Fr 09:00-18:00; Sa,Su 10:00-19:00",
    "start_date": "2006",
    "tourism": "museum",
    "website": "https://www.experyment.gdynia.pl/",
    "wheelchair": "yes"
  }
},
{
  "type": "node",
  "id": 5127090489,
  "lat": 54.3524863,
  "lon": 18.6517587,
  "tags": {
    "addr:city": "Gdańsk",
    "addr:housenumber": "1",
    "addr:street": "Plac Dominikański",
    "level": "-1",
    "name": "Piwnica Romańska",
    "name:de": "Romanischer Keller",
    "name:en": "The Romanesque Cellar",
    "name:pl": "Piwnica Romańska",
    "operator": "Muzeum Archeologiczne",
    "tourism": "museum",
    "website": "https://archeologia.pl/oddzialy/piwnica-romanska",
    "wikidata": "Q9305195",
    "wikipedia": "pl:Refektarz klasztoru Dominikanów w Gdańsku"
  }
},
{
  "type": "node",
  "id": 5525564842,
  "lat": 54.6002240,
  "lon": 18.2373564,
  "tags": {
    "addr:city": "Wejherowo",
    "addr:housenumber": "11/2",
    "addr:postcode": "84-200",
    "addr:street": "Świętego Jacka",
    "email": "muzeum@muzeumpiasnickie.pl",
    "facebook": "https://www.facebook.com/muzeumpiasnickie/",
    "fax": "+48 58 736 11 12",
    "name": "Muzeum Piaśnickie w Wejherowie",
    "operator": "Muzeum Stutthof w Sztutowie",
    "phone": "+48 58 736 11 11",
    "tourism": "museum",
    "website": "www.muzeumpiasnickie.pl"
  }
},
{
  "type": "node",
  "id": 5892882186,
  "lat": 54.3498843,
  "lon": 18.6513037,
  "tags": {
    "name": "Galeria starych zabawek",
    "opening_hours": "Tu-Fr 11:00-18:00; Sa-Su 11:00-19:00",
    "tourism": "museum"
  }
},
{
  "type": "node",
  "id": 5912027690,
  "lat": 54.7026683,
  "lon": 18.6707704,
  "tags": {
    "addr:city": "Jastarnia",
    "addr:city:simc": "0934518",
    "addr:country": "PL",
    "addr:housenumber": "10",
    "addr:postcode": "84-140",
    "addr:street": "Rynkowa",
    "name": "Chata rybacka",
    "tourism": "museum",
    "wikidata": "Q16535919",
    "wikipedia": "pl:Chata Rybacka w Jastarni"
  }
},
{
  "type": "node",
  "id": 6005748106,
  "lat": 54.3894510,
  "lon": 18.6419249,
  "tags": {
    "name": "Muzeum Lechii Gdańsk",
    "tourism": "museum"
  }
},
{
  "type": "node",
  "id": 6568303969,
  "lat": 54.3547799,
  "lon": 18.6371627,
  "tags": {
    "contact:website": "http://www.hewelianum.pl",
    "name": "Z energią!",
    "tourism": "museum",
    "wheelchair": "yes"
  }
},
{
  "type": "node",
  "id": 6568303970,
  "lat": 54.3547529,
  "lon": 18.6381966,
  "tags": {
    "contact:website": "http://www.hewelianum.pl",
    "name": "Galeria ruchu",
    "tourism": "museum",
    "wheelchair": "yes"
  }
},
{
  "type": "node",
  "id": 6615011076,
  "lat": 54.3689492,
  "lon": 18.6170193,
  "tags": {
    "name": "Zbiornik Wody \"Stary Sobieski\"",
    "tourism": "museum"
  }
},
{
  "type": "way",
  "id": 60064063,
  "nodes": [
    2963906942,
    2963907013,
    2963907027,
    2963907063,
    2963906936,
    2963906932,
    2963906930,
    2963906931,
    2963906921,
    2963906933,
    2963906942
  ],
  "tags": {
    "addr:city": "Gdańsk",
    "addr:housenumber": "1",
    "addr:postcode": "80-822",
    "addr:street": "Toruńska",
    "building": "yes",
    "heritage": "2",
    "heritage:operator": "nid",
    "historic": "building",
    "name": "Muzeum Narodowe w Gdańsku",
    "name:de": "Nationalmuseum in Danzig",
    "name:en": "National Museum in Gdańsk",
    "name:pl": "Muzeum Narodowe w Gdańsku",
    "ref:nid": "367 z 21.04.1971",
    "source:addr": "Urząd Miasta Gdańsk",
    "tourism": "museum",
    "website": "https://culture.pl/pl/culture/artykuly/in_mu_narodowe_gdansk",
    "wikidata": "Q1968661",
    "wikipedia": "pl:Muzeum Narodowe w Gdańsku"
  }
},
{
  "type": "way",
  "id": 60064065,
  "nodes": [
    746496076,
    746495988,
    746496015,
    5399032302,
    746495969,
    746496118,
    6982876744,
    6982876738,
    6982876740,
    5399032301,
    1568383516,
    1568383510,
    1568383504,
    746496076
  ],
  "tags": {
    "addr:city": "Gdańsk",
    "addr:country": "PL",
    "addr:housename": "Ratusz Głównego Miasta",
    "addr:housenumber": "46/47",
    "addr:postcode": "80-831",
    "addr:street": "Długa",
    "building": "yes",
    "building:levels": "5",
    "building:material": "brick",
    "heritage": "2",
    "heritage:operator": "nid",
    "historic": "building",
    "name": "Ratusz Głównego Miasta",
    "name:ko": "메인 시청",
    "name:ru": "Ратуша",
    "tourism": "museum"
  }
},
{
  "type": "way",
  "id": 60064071,
  "nodes": [
    1120259418,
    746495976,
    2478862555,
    746496123,
    1568383481,
    1568383483,
    1568383484,
    1568383488,
    1568383490,
    1568383485,
    1568383482,
    746496087,
    5401338235,
    1120259418
  ],
  "tags": {
    "addr:city": "Gdańsk",
    "addr:country": "PL",
    "addr:housenumber": "44",
    "addr:postcode": "80-830",
    "addr:street": "Długi Targ",
    "building": "yes",
    "heritage": "2",
    "heritage:operator": "nid",
    "historic": "manor",
    "name": "Dwór Artusa",
    "name:be": "Падворак Артуса",
    "name:de": "Artushof",
    "name:en": "Artus Court",
    "name:es": "Casa de Artús",
    "name:ko": "아르투스 코트",
    "name:pl": "Dwór Artusa",
    "name:ru": "Двор Артуса",
    "ref:nid": "296",
    "source:addr": "Urząd Miasta Gdańsk",
    "source:geometry": "gis.gdansk.pl",
    "tourism": "museum",
    "wikidata": "Q715753",
    "wikipedia": "pl:Dwór Artusa w Gdańsku"
  }
},
{
  "type": "way",
  "id": 60135824,
  "nodes": [
    747075183,
    747075200,
    6035273460,
    6035273621,
    6035273622,
    747075174,
    6035273623,
    6035273624,
    747075208,
    6035273625,
    747075182,
    6035273626,
    6035273627,
    747075152,
    6035273628,
    747075187,
    6035273630,
    747075158,
    6035273629,
    747075191,
    747075163,
    6035273620,
    6035273583,
    6035273619,
    6035273584,
    6035273618,
    6035273585,
    6035273617,
    6035273586,
    6035273616,
    6035273582,
    6035273615,
    6035273581,
    6035273614,
    6035273580,
    6035273613,
    6035273579,
    6035273612,
    6035273578,
    6035273611,
    747075183
  ],
  "tags": {
    "addr:city": "Gdańsk",
    "addr:housenumber": "3",
    "addr:postcode": "80-551",
    "addr:street": "Stara Twierdza",
    "building": "yes",
    "name": "Twierdza Wisłoujście",
    "name:de": "Festung Weichselmünde",
    "name:pl": "Twierdza Wisłoujście",
    "source:addr": "Urząd Miasta Gdańsk",
    "tourism": "museum",
    "wheelchair": "no",
    "wikidata": "Q1409002",
    "wikipedia": "pl:Twierdza Wisłoujście"
  }
},
{
  "type": "way",
  "id": 61051818,
  "nodes": [
    1119881739,
    2963886162,
    1119535959,
    1119881738,
    5414611360,
    5414611358,
    1119535929,
    1119535930,
    2617194364,
    2617194362,
    5414611359,
    1119881739
  ],
  "tags": {
    "addr:city": "Gdańsk",
    "addr:housenumber": "21/25",
    "addr:postcode": "80-888",
    "addr:street": "Tokarska",
    "building": "yes",
    "building:levels": "4",
    "name": "Ośrodek Kultury Morskiej",
    "opening_hours": "Mo-Su 10:00-18:00",
    "source:addr": "Urząd Miasta Gdańsk",
    "tourism": "museum",
    "website": "http://www.cmm.pl/osrodek-kultury-morskiej"
  }
},
{
  "type": "way",
  "id": 73203019,
  "nodes": [
    5916369438,
    5916369437,
    5916369436,
    5916369435,
    5916369434,
    5916369433,
    5916369438
  ],
  "tags": {
    "addr:city": "Jastarnia",
    "addr:city:simc": "0934518",
    "addr:housenumber": "31",
    "addr:postcode": "84-140",
    "addr:street": "Adama Mickiewicza",
    "building": "yes",
    "name": "Muzeum Rybackie Pod Strzechą",
    "roof:material": "thatch",
    "roof:orientation": "along",
    "roof:shape": "gabled",
    "tourism": "museum"
  }
},
{
  "type": "way",
  "id": 96661082,
  "nodes": [
    747156928,
    1119534967,
    1119534968,
    1561699413,
    1386542947,
    1561699400,
    1561699340,
    1561699251,
    747156928
  ],
  "tags": {
    "addr:city": "Gdańsk",
    "addr:country": "PL",
    "addr:housenumber": "1/2",
    "addr:postcode": "80-321",
    "addr:street": "Plac Obrońców Poczty Polskiej",
    "amenity": "post_office",
    "building": "yes",
    "heritage": "2",
    "heritage:operator": "nid",
    "historic": "post_office",
    "name": "Muzeum Poczty Polskiej",
    "name:de": "Polnische Post",
    "name:pl": "Muzeum Poczty Polskiej",
    "old_name": "Poczta Polska",
    "ref:nid": "297 z 24.02.1967",
    "source:addr": "Urząd Miasta Gdańsk",
    "source:geometry": "gis.gdansk.pl",
    "tourism": "museum",
    "wheelchair": "no"
  }
},
{
  "type": "way",
  "id": 96755207,
  "nodes": [
    1120413780,
    1120413824,
    1120413826,
    2478794134,
    1120413781,
    1120413757,
    1120413758,
    1120413780
  ],
  "tags": {
    "addr:city": "Gdańsk",
    "addr:country": "PL",
    "addr:housenumber": "12",
    "addr:postcode": "80-827",
    "addr:street": "Długa",
    "building": "yes",
    "heritage": "2",
    "heritage:operator": "nid",
    "historic": "building",
    "name": "Dom Uphagena",
    "name:de": "Uphagenhaus",
    "name:pl": "Dom Uphagena",
    "note": "przesunięte względem ortofotomapy gis.gdansk.pl",
    "opening_hours": "Tu 10:00-13:00; We, Fr-Su 10:00-16:00; Th 10:00-18:00",
    "ref:nid": "298 z 24.02.1967",
    "source": "Bing",
    "source:addr": "Urząd Miasta Gdańsk",
    "source:geometry": "gis.gdansk.pl",
    "tourism": "museum",
    "wikidata": "Q2499641",
    "wikipedia": "pl:Dom Uphagena"
  }
},
{
  "type": "way",
  "id": 103801306,
  "nodes": [
    6712687425,
    6712687426,
    1198322792,
    1198322788,
    6712687425
  ],
  "tags": {
    "addr:city": "Gdańsk",
    "addr:country": "PL",
    "addr:housenumber": "19",
    "addr:postcode": "80-330",
    "addr:street": "Cystersów",
    "building": "warehouse",
    "building:levels": "3",
    "name": "Muzeum Etnograficzne",
    "old_name": "Spichlerz Opacki",
    "roof:levels": "1",
    "roof:material": "roof_tiles",
    "roof:shape": "half-hipped",
    "source:addr": "Urząd Miasta Gdańsk",
    "tourism": "museum"
  }
},
{
  "type": "way",
  "id": 107256392,
  "nodes": [
    1233110248,
    1233110249,
    1233110251,
    1233110252,
    1233110254,
    1233110255,
    1233110256,
    1233110259,
    1233110260,
    1233110262,
    1233110248
  ],
  "tags": {
    "addr:city": "Gdańsk",
    "addr:country": "PL",
    "addr:postcode": "80-328",
    "addr:street": "Bytowska",
    "building": "yes",
    "name": "Kuźnia Wodna",
    "source:addr": "Urząd Miasta Gdańsk",
    "tourism": "museum"
  }
},
{
  "type": "way",
  "id": 123890836,
  "nodes": [
    4303208500,
    4303208502,
    4303208503,
    4303208505,
    4303208501,
    4303208495,
    4303208493,
    4303208492,
    4303208489,
    4303208486,
    4303208485,
    4303208481,
    4303208482,
    4303208474,
    4303208472,
    4303208469,
    4303208468,
    4303208467,
    4303208466,
    4303208465,
    4303208464,
    4303208470,
    4303208471,
    4303208473,
    4303208475,
    4303208476,
    4303208477,
    4303208480,
    4303208478,
    4303208479,
    4303208483,
    4303208484,
    4303208487,
    4303208488,
    4303208490,
    4303208491,
    4303208494,
    4303208496,
    4303208497,
    4303208498,
    4303208499,
    4303208504,
    4303208500
  ],
  "tags": {
    "addr:city": "Sopot",
    "addr:country": "PL",
    "addr:housenumber": "8",
    "addr:postcode": "81-724",
    "addr:street": "Księcia Józefa Poniatowskiego",
    "alt_name": "Willa Ernsta Augusta Claaszena",
    "building": "yes",
    "email": "muzeum@sopot.pl",
    "name": "Muzeum Sopotu",
    "phone": "+48 58 551 22 66",
    "tourism": "museum",
    "website": "http://www.muzeumsopotu.pl/",
    "wikidata": "Q19401638",
    "wikipedia": "pl:Willa Claaszena w Sopocie"
  }
},
{
  "type": "way",
  "id": 124812372,
  "nodes": [
    2670087918,
    2670087919,
    2670087921,
    2670087920,
    2670087941,
    2670087916,
    2670087904,
    2670087903,
    2670087898,
    2670087902,
    2670087894,
    2670087892,
    2670087889,
    2670087891,
    2670087890,
    2670087897,
    2670087900,
    2670087907,
    2670087917,
    2670087906,
    6744533322,
    2670087918
  ],
  "tags": {
    "addr:city": "Gdańsk",
    "addr:housenumber": "6",
    "addr:postcode": "80-864",
    "addr:street": "Księdza Jerzego Popiełuszki",
    "building": "yes",
    "name": "Sala BHP",
    "name:de": "Arbeits- und Gesundheitsschutzhalle",
    "name:pl": "Sala BHP",
    "old_name:de": "Torpedohalle",
    "opening_hours": "10:00-18:00",
    "tourism": "museum"
  }
},
{
  "type": "way",
  "id": 125199669,
  "nodes": [
    1391177296,
    1854233926,
    1391177258,
    1391177259,
    6106977268,
    1391177301,
    1391177291,
    1854233929,
    1854233928,
    1854233927,
    1854233930,
    1391177308,
    1391177283,
    1391177243,
    1391177296
  ],
  "tags": {
    "historic": "ship",
    "name": "SS Sołdek",
    "opening_hours": "Mo-Su 10:00-18:00",
    "ship:type": "cargo_ship",
    "start_date": "1949",
    "tourism": "museum",
    "wheelchair": "no",
    "wikidata": "Q455096",
    "wikipedia": "pl:SS Sołdek"
  }
},
{
  "type": "way",
  "id": 135185576,
  "nodes": [
    4308525369,
    4308525302,
    4308525204,
    4308525280,
    4308525369
  ],
  "tags": {
    "addr:housenumber": "2C",
    "addr:street": "Żwirowa",
    "building": "hangar",
    "contact:email": "muzeum@gdynskie-muzeum-motoryzacji.pl",
    "contact:phone": "+48 58 663 87 40",
    "fee": "yes",
    "name": "Gdyńskie Muzeum Motoryzacji",
    "opening_hours": "Mo-Su 09:00-17:00",
    "tourism": "museum",
    "website": "http://www.gdynskie-muzeum-motoryzacji.pl/"
  }
},
{
  "type": "way",
  "id": 148898338,
  "nodes": [
    3986871867,
    3986871708,
    3986871691,
    3986871748,
    3986871752,
    3986871867
  ],
  "tags": {
    "addr:city": "Wejherowo",
    "addr:country": "PL",
    "addr:housenumber": "4",
    "addr:street": "Adama Mickiewicza",
    "building": "yes",
    "name": "Muzeum Solidarności",
    "operator": "Wejherowska Wspólnota Pokoleń",
    "tourism": "museum"
  }
},
{
  "type": "way",
  "id": 149399381,
  "nodes": [
    1623836760,
    1623836758,
    1623836762,
    1623836779,
    1623836780,
    1623836782,
    1623836804,
    1623836806,
    1623836784,
    1623836786,
    1623836778,
    1623836775,
    1623836757,
    1623836754,
    1623836760
  ],
  "tags": {
    "addr:city": "Hel",
    "addr:city:simc": "0934501",
    "addr:country": "PL",
    "addr:housenumber": "2",
    "addr:postcode": "84-150",
    "addr:street": "Bulwar Nadmorski",
    "building": "yes",
    "name": "Muzeum Rybołówstwa",
    "source": "hel.punktyadresowe.pl",
    "tourism": "museum"
  }
},
{
  "type": "way",
  "id": 149399398,
  "nodes": [
    1623836516,
    1623836495,
    5840484546,
    5840484547,
    1623836516
  ],
  "tags": {
    "addr:city": "Hel",
    "addr:city:simc": "0934501",
    "addr:housenumber": "78",
    "addr:postcode": "84-150",
    "addr:street": "Wiejska",
    "addr:street:sym_ul": "24048",
    "alt_name": "Zrzeszenie Kaszubsko-Pomorskie Oddział w Helu",
    "building": "yes",
    "building:levels": "2",
    "name": "Checz Kaszubska - ZKP",
    "source": "Bing",
    "source:addr": "hel.e-mapa.net",
    "tourism": "museum",
    "wheelchair": "yes"
  }
},
{
  "type": "way",
  "id": 161336120,
  "nodes": [
    1733287958,
    1733287987,
    1733288024,
    1733288014,
    1733287961,
    1733287970,
    1733287940,
    1733288082,
    1733288042,
    1733287973,
    1733287965,
    1733287958
  ],
  "tags": {
    "tourism": "museum"
  }
},
{
  "type": "way",
  "id": 166167690,
  "nodes": [
    1776480481,
    1776480460,
    4805827237,
    4805827238,
    4805827248,
    1776480448,
    4805827249,
    4805827239,
    4805827253,
    4805827240,
    4805827241,
    1776480462,
    4805827242,
    4805827243,
    4805827244,
    4805827245,
    4805827246,
    1776480464,
    4805827250,
    4805827251,
    4805827247,
    4805827252,
    1776480476,
    1776480469,
    1776480444,
    4805827236,
    4805827234,
    4805827235,
    1776480452,
    4805827233,
    4805827232,
    1776480478,
    4805827231,
    2302133938,
    4805827230,
    1776480485,
    4805827228,
    4805827227,
    4805827226,
    2302133937,
    4805827225,
    1776480445,
    4805827224,
    2302133936,
    4805827223,
    2302133935,
    4805827229,
    1776480472,
    4805827222,
    2302133934,
    4805827221,
    4805825920,
    1776480447,
    1776480481
  ],
  "tags": {
    "building": "yes",
    "height": "4",
    "historic": "ship",
    "name": "Dar Pomorza",
    "ship:type": "frigate",
    "start_date": "1909",
    "tourism": "museum",
    "wikidata": "Q936582",
    "wikipedia": "pl:Dar Pomorza"
  }
},
{
  "type": "way",
  "id": 166167691,
  "nodes": [
    1776480474,
    1776480450,
    4044886687,
    1776480451,
    2854801008,
    1776480471,
    2854801015,
    1776480443,
    2854801009,
    1776480483,
    2854801014,
    1776480466,
    4044886688,
    1776480449,
    1776480486,
    2854801013,
    4044895610,
    2854801012,
    4044895611,
    4044895607,
    4044895609,
    1776480488,
    4044895608,
    4044895606,
    4044895612,
    2854801011,
    4044895613,
    2854801016,
    1776480474
  ],
  "tags": {
    "building": "ship",
    "height": "3",
    "historic": "ship",
    "layer": "0",
    "name": "ORP Błyskawica",
    "ship:type": "destroyer",
    "start_date": "1936",
    "tourism": "museum",
    "wheelchair": "no",
    "wikidata": "Q349091",
    "wikipedia": "pl:ORP Błyskawica"
  }
},
{
  "type": "way",
  "id": 179780270,
  "nodes": [
    1902190878,
    4027554322,
    4027554320,
    4027554321,
    4027554323,
    1902190898,
    2618788737,
    2618788738,
    2618788722,
    2618788721,
    1902190850,
    4027554311,
    4027554312,
    3065383827,
    1902190800,
    6754358821,
    6754358820,
    4027554305,
    4027554304,
    4027554306,
    4027554307,
    4027554308,
    6754358815,
    1902190808,
    6754352711,
    2618788717,
    2618788719,
    4027554309,
    4027554310,
    2618788720,
    4114619026,
    4870422133,
    4027554317,
    4027554313,
    4027554314,
    4027554315,
    4027554316,
    4027554318,
    4027554319,
    2618788730,
    2618788728,
    2618788729,
    2618788732,
    1902190878
  ],
  "tags": {
    "addr:city": "Gdańsk",
    "addr:housenumber": "1",
    "addr:postcode": "80-863",
    "addr:street": "Plac Solidarności",
    "building": "yes",
    "name": "Europejskie Centrum Solidarności",
    "name:en": "Solidarity Museum (European Solidarity Centre)",
    "name:fr": "Musée Solidarnosc (Centre Européen de la Solidarité)",
    "opening_hours": "May-Sep Mo-Su 10:00-20:00; Oct-Apr Mo-Su 10:00-18:00",
    "phone": "+48 58 772 41 12",
    "tourism": "museum",
    "website": "http://www.ecs.gda.pl",
    "wikidata": "Q534403",
    "wikipedia": "pl:Europejskie Centrum Solidarności"
  }
},
{
  "type": "way",
  "id": 199389186,
  "nodes": [
    2093910876,
    2093910877,
    2093910872,
    2093910864,
    2093910876
  ],
  "tags": {
    "building": "bunker",
    "historic": "building",
    "man_made": "tower",
    "military": "bunker",
    "name": "Wieża kierowania ogniem baterii Schleswig-Holstein",
    "tourism": "museum",
    "website": "http://helmuzeum.pl/muzeum/obiekty/wieza-kierowania-ogniem#mow"
  }
},
{
  "type": "way",
  "id": 230205417,
  "nodes": [
    2663587702,
    2663587681,
    2663587673,
    2663587660,
    2663587630,
    2663587627,
    2663587615,
    2663587621,
    2663587594,
    2663587591,
    2663587587,
    2663587589,
    2663587544,
    2663587541,
    2663587533,
    2663587537,
    2663587512,
    2663587508,
    2663587497,
    2663587504,
    2663587514,
    2663587436,
    2663587313,
    2663587333,
    2663587387,
    2663587475,
    2663587467,
    2663587491,
    2663587493,
    2663587692,
    2663587696,
    2663587819,
    2663587823,
    2663587829,
    2663587793,
    2663587750,
    2663587727,
    2663587702
  ],
  "tags": {
    "addr:housenumber": "1A",
    "addr:postcode": "81-374",
    "addr:street": "Zawiszy Czarnego",
    "building": "civic",
    "fee": "yes",
    "name": "Muzeum Miasta Gdyni",
    "opening_hours": "Tu-Su 10:00-17:00",
    "tourism": "museum",
    "website": "http://www.muzeumgdynia.pl/",
    "wikidata": "Q11787068",
    "wikipedia": "pl:Muzeum Miasta Gdyni"
  }
},
{
  "type": "way",
  "id": 261941676,
  "nodes": [
    2675694012,
    2675693848,
    2675693899,
    2675693863,
    2675693860,
    2675693887,
    2675693890,
    2675693915,
    2675693993,
    2675694015,
    2675694018,
    3017042033,
    2675694180,
    2675694178,
    2675694165,
    2675694164,
    2675694146,
    2675694148,
    2675694047,
    2675694028,
    2675694030,
    2675694022,
    2675694020,
    2675694012
  ],
  "tags": {
    "addr:city": "Gdańsk",
    "addr:country": "PL",
    "addr:housenumber": "18",
    "addr:postcode": "80-330",
    "addr:street": "Cystersów",
    "alt_name": "Muzeum Narodowe - Oddział Sztuki Współczesnej",
    "building": "yes",
    "heritage": "2",
    "heritage:operator": "nid",
    "name": "Pałac Opatów",
    "ref:nid": "362",
    "source:addr": "Urząd Miasta Gdańsk",
    "tourism": "museum"
  }
},
{
  "type": "way",
  "id": 267229471,
  "nodes": [
    2727004496,
    2727004500,
    2727004504,
    3775708157,
    2727004508,
    2727004496
  ],
  "tags": {
    "building": "yes",
    "bunker_type": "artillery",
    "historic": "yes",
    "military": "bunker",
    "name": "Stanowisko Ogniowe nr 2 31 BAN im. H. Laskowskiego",
    "tourism": "museum"
  }
},
{
  "type": "way",
  "id": 267232746,
  "nodes": [
    2727022149,
    2727022150,
    2727022151,
    2727022152,
    2727022149
  ],
  "tags": {
    "building": "yes",
    "bunker_type": "artillery",
    "historic": "yes",
    "military": "bunker",
    "name": "Stanowisko Ogniowe nr 3 31 BAN im. H. Laskowskiego",
    "name_1": "Morskie Tajemnice",
    "opening_hours": "Jun-Aug",
    "tourism": "museum",
    "website": "https://www.facebook.com/MorskieTajemnice"
  }
},
{
  "type": "way",
  "id": 270190046,
  "nodes": [
    2752447523,
    2840813775,
    2752447524,
    2752447525,
    2752447526,
    2752447523
  ],
  "tags": {
    "building": "yes",
    "bunker_type": "artillery",
    "historic": "cannon",
    "military": "cannon",
    "museum": "yes",
    "name": "Stanowisko Ogniowe nr 4 31 BAN im. H. Laskowskiego",
    "tourism": "museum"
  }
},
{
  "type": "way",
  "id": 274786378,
  "nodes": [
    2794543471,
    6662106852,
    6662106850,
    6662106851,
    6662106849,
    2794543470,
    2794543468,
    2794543469,
    2794543471
  ],
  "tags": {
    "building": "yes",
    "military": "buiding",
    "name": "Wartownia nr 1",
    "tourism": "museum"
  }
},
{
  "type": "way",
  "id": 278717579,
  "nodes": [
    2830338533,
    2830348682,
    2830338534,
    2830338535,
    2830338536,
    2830338533
  ],
  "tags": {
    "addr:city": "Hel",
    "addr:city:simc": "0934501",
    "addr:postcode": "84-150",
    "addr:street": "Portowa",
    "building": "yes",
    "building:levels": "2",
    "fee": "yes",
    "name": "Dom Morświna",
    "opening_hours": "11:00-15:00",
    "tourism": "museum",
    "website": "http://hel.ug.edu.pl/aktu/2013/otwarcie_DM.htm"
  }
},
{
  "type": "way",
  "id": 280882067,
  "nodes": [
    2849167633,
    2858172306,
    2849167634,
    2849167635,
    2849167636,
    2849167633
  ],
  "tags": {
    "area": "yes",
    "description": "Ciekawe eksponaty kolejnictwa na terenie Helu i historii kolejnictwa w ogóle. W tym wojskowych wąskotorówek na tym terenie zarówno w rękach Polskiej jak i Niemieckiej armii.",
    "name": "Muzeum Kolei Helskich",
    "tourism": "museum",
    "website": "https://facebook.com/MuzeumHistoriiHelskichDrogZelaznych"
  }
},
{
  "type": "way",
  "id": 283982805,
  "nodes": [
    2877750066,
    2877750071,
    2877750070,
    2877750067,
    2877750068,
    2877750069,
    2877750066
  ],
  "tags": {
    "access": "yes",
    "building": "yes",
    "description": "Muzeum w masywnym schronie przeciw lotnicznym.",
    "historic": "bunker",
    "location": "underground",
    "military": "bunker",
    "name": "Makabra XX w.",
    "operator": "Alternatywny Cypel",
    "tourism": "museum"
  }
},
{
  "type": "way",
  "id": 284287185,
  "nodes": [
    2880293313,
    2880293314,
    2880293315,
    2880293316,
    2880293317,
    1988536712,
    2880293318,
    2880293319,
    2880293320,
    2884366029,
    2880293321,
    2880293322,
    2880293323,
    2884366031,
    2880293324,
    2884366030,
    2880293313
  ],
  "tags": {
    "area": "yes",
    "barrier": "fence",
    "name": "Muzeum Obrony Wybrzeża",
    "name:en": "The Museum of Coastal Defence",
    "opening_hours": "Mo-Su 10:00-17:00",
    "operator": "Muzeum Obrony Wybrzeża",
    "tourism": "museum",
    "website": "http://helmuzeum.pl/"
  }
},
{
  "type": "way",
  "id": 333585173,
  "nodes": [
    3407143935,
    3407143936,
    3407143937,
    3407143938,
    3407143939,
    3407143940,
    3407143941,
    3407143942,
    3407143943,
    3407143944,
    3407143945,
    3407143946,
    3407143947,
    3407143948,
    3407143935
  ],
  "tags": {
    "building": "bunker",
    "historic": "yes",
    "military": "bunker",
    "name": "Muzeum Helu - Stanowisko nr 1 baterii Schleswig-Holstein \"Anton\"",
    "name:en": "Gun Battery Schleswig-Holstein",
    "operator": "Muzeum Obrony Wybrzeża",
    "tourism": "museum",
    "website": "http://helmuzeum.pl/muzeum/obiekty/muzeum-helu-b1#mow"
  }
},
{
  "type": "way",
  "id": 333585174,
  "nodes": [
    3407143949,
    3407143950,
    3407143951,
    3407143952,
    3407143953,
    3407143954,
    3415959594,
    3407143955,
    3407143956,
    3407143957,
    3407143958,
    3407143959,
    3407143960,
    3407143961,
    3407143962,
    3407143949
  ],
  "tags": {
    "building": "bunker",
    "historic": "yes",
    "military": "bunker",
    "name": "Stanowisko nr 3 baterii Schleswig-Holstein CAESAR",
    "name:en": "Gun Battery Schleswig-Holstein",
    "operator": "Muzeum Obrony Wybrzeża",
    "tourism": "museum",
    "website": "http://www.helmuzeum.pl/muzeum/obiekty/b3-obiekt-imprez-czasowych#mow"
  }
},
{
  "type": "way",
  "id": 342129026,
  "nodes": [
    1369935068,
    3491576134,
    3491576135,
    3491576133,
    3491576138,
    3491576136,
    3491576137,
    3491576141,
    3491576142,
    3491576144,
    3491576145,
    3491576146,
    3491576143,
    3491576140,
    3491576139,
    3491576132,
    1369935068
  ],
  "tags": {
    "building": "bunker",
    "historic": "bunker",
    "name": "Muzeum. Ciężki schron bojowy SABAŁA",
    "ruins": "bunker",
    "tourism": "museum",
    "wikidata": "Q11801636",
    "wikipedia": "pl:Ośrodek Oporu Jastarnia"
  }
},
{
  "type": "way",
  "id": 345634319,
  "nodes": [
    2663587729,
    2663587722,
    2663587724,
    2663587712,
    2663587704,
    2663587694,
    2663587671,
    2663587650,
    2663587648,
    2663587642,
    2663587644,
    2663587524,
    2663587522,
    2663587381,
    2663587383,
    2663587327,
    2663587364,
    3522742404,
    3522742400,
    3522742401,
    3522742395,
    3522742394,
    3522742393,
    3522742396,
    3522742397,
    5053210134,
    5053210133,
    3522742399,
    5053210132,
    3522742402,
    3522742403,
    2663587313,
    2663587333,
    2663587387,
    2663587475,
    2663587467,
    2663587491,
    2663587493,
    2663587692,
    2663587679,
    2663587720,
    2663587718,
    2663587729
  ],
  "tags": {
    "name": "Muzeum Marynarki Wojennej",
    "opening_hours": "Tu-Su 10:00-17:00",
    "tourism": "museum",
    "website": "http://www.muzeummw.pl/",
    "wikidata": "Q11787061",
    "wikipedia": "pl:Muzeum Marynarki Wojennej w Gdyni"
  }
},
{
  "type": "way",
  "id": 355152824,
  "nodes": [
    3607612922,
    3607612923,
    3607612924,
    3607612925,
    3607612926,
    3607612927,
    3607612928,
    3607612929,
    3607612922
  ],
  "tags": {
    "addr:city": "Hel",
    "addr:postcode": "84-150",
    "addr:street": "Helska",
    "area": "yes",
    "barrier": "fence",
    "name": "Muzeum Przyrodniczo-Etnograficzne",
    "operator": "Muzeum Obrony Wybrzeża",
    "tourism": "museum",
    "website": "http://helmuzeum.pl/muzeum/obiekty/muzeum-przyrodniczo-etnograficzne-b1#mow"
  }
},
{
  "type": "way",
  "id": 373530777,
  "nodes": [
    1868665110,
    1868665104,
    764323550,
    3769734076,
    3769734077,
    3769734075,
    3769734074,
    3769734073,
    3769734072,
    819158879,
    3769734069,
    3769734068,
    1868665037,
    3769734065,
    819158883,
    3769734064,
    3769734066,
    3769734067,
    3769734071,
    3769734070,
    4347826839,
    4347826840,
    4347826848,
    4347826847,
    4347826849,
    4347826850,
    4347826852,
    819158723,
    1868665092,
    1868665094,
    1868665149,
    1868665147,
    1868665135,
    1868665122,
    1868665110
  ],
  "tags": {
    "addr:city": "Gdańsk",
    "addr:country": "PL",
    "addr:housenumber": "9/13",
    "addr:postcode": "80-751",
    "addr:street": "Ołowianka",
    "name": "Narodowe Muzeum Morskie",
    "tourism": "museum",
    "website": "http://www.nmm.pl",
    "wikidata": "Q4845346",
    "wikipedia": "pl:Narodowe Muzeum Morskie w Gdańsku"
  }
},
{
  "type": "way",
  "id": 615261764,
  "nodes": [
    5818153660,
    5818153661,
    5818165798,
    5818153662,
    5818153663,
    5818153660
  ],
  "tags": {
    "access": "customers",
    "attraction": "historic",
    "capacity": "5300",
    "content": "water",
    "disused": "yes",
    "layer": "-1",
    "man_made": "reservoir_covered",
    "museum": "technology",
    "name": "Zbiornik Wody \"Stara Orunia\"",
    "operator": "Gdańska Infrastruktura Wodociągowo-Kanalizacyjna Sp z o.o.",
    "source": "https://www.gedanopedia.pl/gdansk/?title=ZBIORNIK_WODY_STARA_ORUNIA",
    "start_date": "1869"
  }
},
{
  "type": "relation",
  "id": 6640337,
  "members": [
    {
      "type": "way",
      "ref": 224478773,
      "role": "outer"
    },
    {
      "type": "way",
      "ref": 306181521,
      "role": "inner"
    }
  ],
  "tags": {
    "building": "public",
    "description": "Bunker w skrócie B2",
    "historic": "yes",
    "military": "bunker",
    "name": "Muzeum Obrony Wybrzeża - Stanowisko nr 2 baterii Schleswig-Holstein \" Bruno\"",
    "name:en": "Gun Battery Schleswig-Holstein",
    "tourism": "museum",
    "type": "multipolygon",
    "website": "http://helmuzeum.pl/muzeum/obiekty/muzeum-obrony-wybrzeza-b2#mow"
  }
},
{
  "type": "relation",
  "id": 6808053,
  "members": [
    {
      "type": "way",
      "ref": 460826213,
      "role": "outer"
    },
    {
      "type": "way",
      "ref": 705097155,
      "role": "outer"
    },
    {
      "type": "way",
      "ref": 556089550,
      "role": "inner"
    }
  ],
  "tags": {
    "addr:city": "Gdańsk",
    "addr:housenumber": "1",
    "addr:postcode": "80-862",
    "addr:street": "Plac im. Władysława Bartoszewskiego",
    "building": "civic",
    "contact:email": "info@muzeum1939.pl",
    "contact:phone": "+48 587600960",
    "contact:website": "http://muzeum1939.pl",
    "name": "Muzeum II Wojny Światowej",
    "name:de": "Museum des Zweiten Weltkrieges",
    "name:en": "Museum of the Second World War",
    "opening_hours": "Tu-Su 10:00-18:00",
    "start_date": "2017-03-23",
    "tourism": "museum",
    "type": "multipolygon",
    "wheelchair": "yes",
    "wikidata": "Q11129717",
    "wikipedia": "pl:Muzeum II Wojny Światowej w Gdańsku"
  }
},
{
  "type": "node",
  "id": 3986871691,
  "lat": 54.6010082,
  "lon": 18.2389588
},
{
  "type": "node",
  "id": 3986871708,
  "lat": 54.6010261,
  "lon": 18.2388489
},
{
  "type": "node",
  "id": 3986871748,
  "lat": 54.6010744,
  "lon": 18.2389903
},
{
  "type": "node",
  "id": 3986871752,
  "lat": 54.6010797,
  "lon": 18.2389565
},
{
  "type": "node",
  "id": 3986871867,
  "lat": 54.6010917,
  "lon": 18.2388801
},
{
  "type": "node",
  "id": 5818153660,
  "lat": 54.3189023,
  "lon": 18.6239740
},
{
  "type": "node",
  "id": 5818153661,
  "lat": 54.3189291,
  "lon": 18.6246903
},
{
  "type": "node",
  "id": 5818153662,
  "lat": 54.3193528,
  "lon": 18.6246438
},
{
  "type": "node",
  "id": 5818153663,
  "lat": 54.3193260,
  "lon": 18.6239275
},
{
  "type": "node",
  "id": 5818165798,
  "lat": 54.3190091,
  "lon": 18.6246815
},
{
  "type": "node",
  "id": 1733287940,
  "lat": 54.3412657,
  "lon": 18.4569810
},
{
  "type": "node",
  "id": 1733287958,
  "lat": 54.3413257,
  "lon": 18.4569612
},
{
  "type": "node",
  "id": 1733287961,
  "lat": 54.3412456,
  "lon": 18.4568444
},
{
  "type": "node",
  "id": 1733287965,
  "lat": 54.3412892,
  "lon": 18.4569628
},
{
  "type": "node",
  "id": 1733287970,
  "lat": 54.3412637,
  "lon": 18.4568436
},
{
  "type": "node",
  "id": 1733287973,
  "lat": 54.3412911,
  "lon": 18.4570890
},
{
  "type": "node",
  "id": 1733287987,
  "lat": 54.3413237,
  "lon": 18.4568272
},
{
  "type": "node",
  "id": 1733288014,
  "lat": 54.3412434,
  "lon": 18.4566967
},
{
  "type": "node",
  "id": 1733288024,
  "lat": 54.3413217,
  "lon": 18.4566933
},
{
  "type": "node",
  "id": 1733288042,
  "lat": 54.3412339,
  "lon": 18.4570915
},
{
  "type": "node",
  "id": 1733288082,
  "lat": 54.3412323,
  "lon": 18.4569824
},
{
  "type": "node",
  "id": 1233110248,
  "lat": 54.4066861,
  "lon": 18.5388727
},
{
  "type": "node",
  "id": 1233110249,
  "lat": 54.4066371,
  "lon": 18.5390213
},
{
  "type": "node",
  "id": 1233110251,
  "lat": 54.4066937,
  "lon": 18.5390764
},
{
  "type": "node",
  "id": 1233110252,
  "lat": 54.4066632,
  "lon": 18.5391688
},
{
  "type": "node",
  "id": 1233110254,
  "lat": 54.4066162,
  "lon": 18.5391231
},
{
  "type": "node",
  "id": 1233110255,
  "lat": 54.4065693,
  "lon": 18.5392654
},
{
  "type": "node",
  "id": 1233110256,
  "lat": 54.4066857,
  "lon": 18.5393787
},
{
  "type": "node",
  "id": 1233110259,
  "lat": 54.4067940,
  "lon": 18.5390504
},
{
  "type": "node",
  "id": 1233110260,
  "lat": 54.4067202,
  "lon": 18.5389786
},
{
  "type": "node",
  "id": 1233110262,
  "lat": 54.4067383,
  "lon": 18.5389235
},
{
  "type": "node",
  "id": 2675693848,
  "lat": 54.4108217,
  "lon": 18.5597024
},
{
  "type": "node",
  "id": 2675694012,
  "lat": 54.4109585,
  "lon": 18.5596467
},
{
  "type": "node",
  "id": 1198322788,
  "lat": 54.4116600,
  "lon": 18.5593349
},
{
  "type": "node",
  "id": 1198322792,
  "lat": 54.4114783,
  "lon": 18.5594172
},
{
  "type": "node",
  "id": 6712687425,
  "lat": 54.4116362,
  "lon": 18.5591803
},
{
  "type": "node",
  "id": 6712687426,
  "lat": 54.4114555,
  "lon": 18.5592616
},
{
  "type": "node",
  "id": 2963906921,
  "lat": 54.3452294,
  "lon": 18.6472507
},
{
  "type": "node",
  "id": 2963906930,
  "lat": 54.3453481,
  "lon": 18.6466458
},
{
  "type": "node",
  "id": 2963906931,
  "lat": 54.3453532,
  "lon": 18.6466764
},
{
  "type": "node",
  "id": 2963906932,
  "lat": 54.3453591,
  "lon": 18.6466372
},
{
  "type": "node",
  "id": 2963906933,
  "lat": 54.3453613,
  "lon": 18.6473348
},
{
  "type": "node",
  "id": 2963906936,
  "lat": 54.3453651,
  "lon": 18.6466665
},
{
  "type": "node",
  "id": 2963906942,
  "lat": 54.3454386,
  "lon": 18.6469756
},
{
  "type": "node",
  "id": 2963907013,
  "lat": 54.3456657,
  "lon": 18.6470984
},
{
  "type": "node",
  "id": 2963907027,
  "lat": 54.3457156,
  "lon": 18.6471260
},
{
  "type": "node",
  "id": 1120413757,
  "lat": 54.3492984,
  "lon": 18.6494018
},
{
  "type": "node",
  "id": 1120413758,
  "lat": 54.3493318,
  "lon": 18.6492776
},
{
  "type": "node",
  "id": 1120413780,
  "lat": 54.3492341,
  "lon": 18.6492000
},
{
  "type": "node",
  "id": 1120413781,
  "lat": 54.3492015,
  "lon": 18.6493250
},
{
  "type": "node",
  "id": 1120413824,
  "lat": 54.3491702,
  "lon": 18.6491493
},
{
  "type": "node",
  "id": 1120413826,
  "lat": 54.3491609,
  "lon": 18.6491839
},
{
  "type": "node",
  "id": 2478794134,
  "lat": 54.3491367,
  "lon": 18.6492735
},
{
  "type": "node",
  "id": 2963907063,
  "lat": 54.3457787,
  "lon": 18.6469004
},
{
  "type": "node",
  "id": 746495969,
  "lat": 54.3488497,
  "lon": 18.6528097
},
{
  "type": "node",
  "id": 746495976,
  "lat": 54.3486644,
  "lon": 18.6534427
},
{
  "type": "node",
  "id": 746495988,
  "lat": 54.3486815,
  "lon": 18.6528774
},
{
  "type": "node",
  "id": 746496015,
  "lat": 54.3487929,
  "lon": 18.6529820
},
{
  "type": "node",
  "id": 746496076,
  "lat": 54.3488505,
  "lon": 18.6523951
},
{
  "type": "node",
  "id": 746496087,
  "lat": 54.3489363,
  "lon": 18.6533410
},
{
  "type": "node",
  "id": 746496118,
  "lat": 54.3490015,
  "lon": 18.6529452
},
{
  "type": "node",
  "id": 746496123,
  "lat": 54.3488814,
  "lon": 18.6535831
},
{
  "type": "node",
  "id": 1119535929,
  "lat": 54.3510382,
  "lon": 18.6572550
},
{
  "type": "node",
  "id": 1119535930,
  "lat": 54.3509767,
  "lon": 18.6575627
},
{
  "type": "node",
  "id": 1119535959,
  "lat": 54.3506813,
  "lon": 18.6574464
},
{
  "type": "node",
  "id": 1119881738,
  "lat": 54.3507309,
  "lon": 18.6571310
},
{
  "type": "node",
  "id": 1119881739,
  "lat": 54.3506918,
  "lon": 18.6574929
},
{
  "type": "node",
  "id": 1120259418,
  "lat": 54.3487177,
  "lon": 18.6531997
},
{
  "type": "node",
  "id": 1568383481,
  "lat": 54.3488938,
  "lon": 18.6535266
},
{
  "type": "node",
  "id": 1568383482,
  "lat": 54.3489036,
  "lon": 18.6534901
},
{
  "type": "node",
  "id": 1568383483,
  "lat": 54.3489073,
  "lon": 18.6535353
},
{
  "type": "node",
  "id": 1568383484,
  "lat": 54.3489123,
  "lon": 18.6535326
},
{
  "type": "node",
  "id": 1568383485,
  "lat": 54.3489154,
  "lon": 18.6534977
},
{
  "type": "node",
  "id": 1568383488,
  "lat": 54.3489172,
  "lon": 18.6535228
},
{
  "type": "node",
  "id": 1568383490,
  "lat": 54.3489186,
  "lon": 18.6535129
},
{
  "type": "node",
  "id": 1568383504,
  "lat": 54.3490222,
  "lon": 18.6525519
},
{
  "type": "node",
  "id": 1568383510,
  "lat": 54.3490376,
  "lon": 18.6525008
},
{
  "type": "node",
  "id": 1568383516,
  "lat": 54.3491156,
  "lon": 18.6525727
},
{
  "type": "node",
  "id": 2478862555,
  "lat": 54.3488168,
  "lon": 18.6535413
},
{
  "type": "node",
  "id": 2617194362,
  "lat": 54.3508822,
  "lon": 18.6575655
},
{
  "type": "node",
  "id": 2617194364,
  "lat": 54.3508857,
  "lon": 18.6575366
},
{
  "type": "node",
  "id": 2963886162,
  "lat": 54.3506965,
  "lon": 18.6574565
},
{
  "type": "node",
  "id": 5399032301,
  "lat": 54.3490996,
  "lon": 18.6526238
},
{
  "type": "node",
  "id": 5399032302,
  "lat": 54.3487966,
  "lon": 18.6529705
},
{
  "type": "node",
  "id": 5401338235,
  "lat": 54.3488974,
  "lon": 18.6533158
},
{
  "type": "node",
  "id": 5414611358,
  "lat": 54.3509377,
  "lon": 18.6572145
},
{
  "type": "node",
  "id": 5414611359,
  "lat": 54.3508235,
  "lon": 18.6575431
},
{
  "type": "node",
  "id": 5414611360,
  "lat": 54.3508803,
  "lon": 18.6571913
},
{
  "type": "node",
  "id": 6982876738,
  "lat": 54.3490988,
  "lon": 18.6526878
},
{
  "type": "node",
  "id": 6982876740,
  "lat": 54.3491146,
  "lon": 18.6526377
},
{
  "type": "node",
  "id": 6982876744,
  "lat": 54.3490835,
  "lon": 18.6526737
},
{
  "type": "node",
  "id": 764323550,
  "lat": 54.3514452,
  "lon": 18.6593360
},
{
  "type": "node",
  "id": 819158723,
  "lat": 54.3514880,
  "lon": 18.6588979
},
{
  "type": "node",
  "id": 819158879,
  "lat": 54.3511049,
  "lon": 18.6592128
},
{
  "type": "node",
  "id": 819158883,
  "lat": 54.3506613,
  "lon": 18.6591506
},
{
  "type": "node",
  "id": 1391177243,
  "lat": 54.3511922,
  "lon": 18.6585218
},
{
  "type": "node",
  "id": 1391177258,
  "lat": 54.3511184,
  "lon": 18.6586305
},
{
  "type": "node",
  "id": 1391177259,
  "lat": 54.3511807,
  "lon": 18.6586716
},
{
  "type": "node",
  "id": 1391177283,
  "lat": 54.3513106,
  "lon": 18.6585427
},
{
  "type": "node",
  "id": 1391177291,
  "lat": 54.3517458,
  "lon": 18.6588357
},
{
  "type": "node",
  "id": 1391177296,
  "lat": 54.3511258,
  "lon": 18.6585270
},
{
  "type": "node",
  "id": 1391177301,
  "lat": 54.3512975,
  "lon": 18.6587151
},
{
  "type": "node",
  "id": 1391177308,
  "lat": 54.3517626,
  "lon": 18.6586645
},
{
  "type": "node",
  "id": 1854233926,
  "lat": 54.3510557,
  "lon": 18.6585601
},
{
  "type": "node",
  "id": 1854233927,
  "lat": 54.3518338,
  "lon": 18.6587578
},
{
  "type": "node",
  "id": 1854233928,
  "lat": 54.3518295,
  "lon": 18.6587929
},
{
  "type": "node",
  "id": 1854233929,
  "lat": 54.3518087,
  "lon": 18.6588193
},
{
  "type": "node",
  "id": 1854233930,
  "lat": 54.3518186,
  "lon": 18.6587094
},
{
  "type": "node",
  "id": 1868665037,
  "lat": 54.3509266,
  "lon": 18.6591904
},
{
  "type": "node",
  "id": 1868665092,
  "lat": 54.3515593,
  "lon": 18.6589148
},
{
  "type": "node",
  "id": 1868665094,
  "lat": 54.3515617,
  "lon": 18.6588854
},
{
  "type": "node",
  "id": 1868665104,
  "lat": 54.3515698,
  "lon": 18.6594551
},
{
  "type": "node",
  "id": 1868665110,
  "lat": 54.3516457,
  "lon": 18.6595215
},
{
  "type": "node",
  "id": 1868665122,
  "lat": 54.3516735,
  "lon": 18.6592886
},
{
  "type": "node",
  "id": 1868665135,
  "lat": 54.3517799,
  "lon": 18.6593768
},
{
  "type": "node",
  "id": 1868665147,
  "lat": 54.3518100,
  "lon": 18.6592817
},
{
  "type": "node",
  "id": 1868665149,
  "lat": 54.3518388,
  "lon": 18.6589557
},
{
  "type": "node",
  "id": 3769734064,
  "lat": 54.3506971,
  "lon": 18.6586748
},
{
  "type": "node",
  "id": 3769734065,
  "lat": 54.3507771,
  "lon": 18.6591733
},
{
  "type": "node",
  "id": 3769734066,
  "lat": 54.3508135,
  "lon": 18.6586996
},
{
  "type": "node",
  "id": 3769734067,
  "lat": 54.3509666,
  "lon": 18.6587415
},
{
  "type": "node",
  "id": 3769734068,
  "lat": 54.3510348,
  "lon": 18.6592203
},
{
  "type": "node",
  "id": 3769734069,
  "lat": 54.3510374,
  "lon": 18.6591940
},
{
  "type": "node",
  "id": 3769734070,
  "lat": 54.3510715,
  "lon": 18.6588087
},
{
  "type": "node",
  "id": 3769734071,
  "lat": 54.3510738,
  "lon": 18.6587734
},
{
  "type": "node",
  "id": 3769734072,
  "lat": 54.3511498,
  "lon": 18.6592245
},
{
  "type": "node",
  "id": 3769734073,
  "lat": 54.3511753,
  "lon": 18.6592548
},
{
  "type": "node",
  "id": 3769734074,
  "lat": 54.3512937,
  "lon": 18.6592730
},
{
  "type": "node",
  "id": 3769734075,
  "lat": 54.3512952,
  "lon": 18.6592551
},
{
  "type": "node",
  "id": 3769734076,
  "lat": 54.3513216,
  "lon": 18.6593058
},
{
  "type": "node",
  "id": 3769734077,
  "lat": 54.3513256,
  "lon": 18.6592626
},
{
  "type": "node",
  "id": 4347826839,
  "lat": 54.3511353,
  "lon": 18.6588237
},
{
  "type": "node",
  "id": 4347826840,
  "lat": 54.3511384,
  "lon": 18.6587872
},
{
  "type": "node",
  "id": 4347826847,
  "lat": 54.3513538,
  "lon": 18.6588701
},
{
  "type": "node",
  "id": 4347826848,
  "lat": 54.3513557,
  "lon": 18.6588430
},
{
  "type": "node",
  "id": 4347826849,
  "lat": 54.3513755,
  "lon": 18.6588758
},
{
  "type": "node",
  "id": 4347826850,
  "lat": 54.3513785,
  "lon": 18.6588488
},
{
  "type": "node",
  "id": 4347826852,
  "lat": 54.3514899,
  "lon": 18.6588774
},
{
  "type": "node",
  "id": 6106977268,
  "lat": 54.3512633,
  "lon": 18.6587024
},
{
  "type": "node",
  "id": 747156928,
  "lat": 54.3549776,
  "lon": 18.6567647
},
{
  "type": "node",
  "id": 1119534967,
  "lat": 54.3551403,
  "lon": 18.6573389
},
{
  "type": "node",
  "id": 1119534968,
  "lat": 54.3553082,
  "lon": 18.6571996
},
{
  "type": "node",
  "id": 1386542947,
  "lat": 54.3552077,
  "lon": 18.6568455
},
{
  "type": "node",
  "id": 1561699251,
  "lat": 54.3549180,
  "lon": 18.6565560
},
{
  "type": "node",
  "id": 1561699340,
  "lat": 54.3550860,
  "lon": 18.6564169
},
{
  "type": "node",
  "id": 1561699400,
  "lat": 54.3551852,
  "lon": 18.6567663
},
{
  "type": "node",
  "id": 1561699413,
  "lat": 54.3552153,
  "lon": 18.6568725
},
{
  "type": "node",
  "id": 4564273046,
  "lat": 54.3566864,
  "lon": 18.6606971
},
{
  "type": "node",
  "id": 4564273047,
  "lat": 54.3553758,
  "lon": 18.6612231
},
{
  "type": "node",
  "id": 4564273050,
  "lat": 54.3565520,
  "lon": 18.6606469
},
{
  "type": "node",
  "id": 4564273051,
  "lat": 54.3560565,
  "lon": 18.6604501
},
{
  "type": "node",
  "id": 4564273053,
  "lat": 54.3560905,
  "lon": 18.6606669
},
{
  "type": "node",
  "id": 4564273055,
  "lat": 54.3565132,
  "lon": 18.6604635
},
{
  "type": "node",
  "id": 4564273056,
  "lat": 54.3562472,
  "lon": 18.6601718
},
{
  "type": "node",
  "id": 4870443728,
  "lat": 54.3560284,
  "lon": 18.6602790
},
{
  "type": "node",
  "id": 4870443734,
  "lat": 54.3566497,
  "lon": 18.6607781
},
{
  "type": "node",
  "id": 4870443739,
  "lat": 54.3553625,
  "lon": 18.6615747
},
{
  "type": "node",
  "id": 4925042790,
  "lat": 54.3561425,
  "lon": 18.6602223
},
{
  "type": "node",
  "id": 5364378260,
  "lat": 54.3561865,
  "lon": 18.6606199
},
{
  "type": "node",
  "id": 5364378262,
  "lat": 54.3562177,
  "lon": 18.6608088
},
{
  "type": "node",
  "id": 5364378263,
  "lat": 54.3553104,
  "lon": 18.6612550
},
{
  "type": "node",
  "id": 5364378265,
  "lat": 54.3558302,
  "lon": 18.6611172
},
{
  "type": "node",
  "id": 5364378266,
  "lat": 54.3556083,
  "lon": 18.6612278
},
{
  "type": "node",
  "id": 5364378267,
  "lat": 54.3556325,
  "lon": 18.6613706
},
{
  "type": "node",
  "id": 5364378268,
  "lat": 54.3558545,
  "lon": 18.6612620
},
{
  "type": "node",
  "id": 5364378269,
  "lat": 54.3562139,
  "lon": 18.6606056
},
{
  "type": "node",
  "id": 5364378273,
  "lat": 54.3566139,
  "lon": 18.6606181
},
{
  "type": "node",
  "id": 5364378274,
  "lat": 54.3560632,
  "lon": 18.6604507
},
{
  "type": "node",
  "id": 5364378275,
  "lat": 54.3560721,
  "lon": 18.6605077
},
{
  "type": "node",
  "id": 5364378276,
  "lat": 54.3560663,
  "lon": 18.6605105
},
{
  "type": "node",
  "id": 5364378277,
  "lat": 54.3562462,
  "lon": 18.6607953
},
{
  "type": "node",
  "id": 5364407951,
  "lat": 54.3563784,
  "lon": 18.6605239
},
{
  "type": "node",
  "id": 5364407953,
  "lat": 54.3562305,
  "lon": 18.6606970
},
{
  "type": "node",
  "id": 6622438521,
  "lat": 54.3562024,
  "lon": 18.6607118
},
{
  "type": "node",
  "id": 7147377456,
  "lat": 54.3556505,
  "lon": 18.6615118
},
{
  "type": "node",
  "id": 1902190800,
  "lat": 54.3608997,
  "lon": 18.6496938
},
{
  "type": "node",
  "id": 1902190808,
  "lat": 54.3610541,
  "lon": 18.6490426
},
{
  "type": "node",
  "id": 1902190850,
  "lat": 54.3613414,
  "lon": 18.6503537
},
{
  "type": "node",
  "id": 1902190878,
  "lat": 54.3616109,
  "lon": 18.6484517
},
{
  "type": "node",
  "id": 1902190898,
  "lat": 54.3617708,
  "lon": 18.6489045
},
{
  "type": "node",
  "id": 2618788717,
  "lat": 54.3611749,
  "lon": 18.6486392
},
{
  "type": "node",
  "id": 2618788719,
  "lat": 54.3612064,
  "lon": 18.6486665
},
{
  "type": "node",
  "id": 2618788720,
  "lat": 54.3612303,
  "lon": 18.6485972
},
{
  "type": "node",
  "id": 2618788721,
  "lat": 54.3613839,
  "lon": 18.6502142
},
{
  "type": "node",
  "id": 2618788722,
  "lat": 54.3614142,
  "lon": 18.6502389
},
{
  "type": "node",
  "id": 2618788728,
  "lat": 54.3615587,
  "lon": 18.6485229
},
{
  "type": "node",
  "id": 2618788729,
  "lat": 54.3615700,
  "lon": 18.6485301
},
{
  "type": "node",
  "id": 2618788730,
  "lat": 54.3615755,
  "lon": 18.6484658
},
{
  "type": "node",
  "id": 2618788732,
  "lat": 54.3615892,
  "lon": 18.6484583
},
{
  "type": "node",
  "id": 2618788737,
  "lat": 54.3617608,
  "lon": 18.6489386
},
{
  "type": "node",
  "id": 2618788738,
  "lat": 54.3617922,
  "lon": 18.6489646
},
{
  "type": "node",
  "id": 2670087916,
  "lat": 54.3615548,
  "lon": 18.6515307
},
{
  "type": "node",
  "id": 3065383827,
  "lat": 54.3611897,
  "lon": 18.6501039
},
{
  "type": "node",
  "id": 4027554304,
  "lat": 54.3610213,
  "lon": 18.6492288
},
{
  "type": "node",
  "id": 4027554305,
  "lat": 54.3610345,
  "lon": 18.6492399
},
{
  "type": "node",
  "id": 4027554306,
  "lat": 54.3610497,
  "lon": 18.6491301
},
{
  "type": "node",
  "id": 4027554307,
  "lat": 54.3610664,
  "lon": 18.6491370
},
{
  "type": "node",
  "id": 4027554308,
  "lat": 54.3610861,
  "lon": 18.6490689
},
{
  "type": "node",
  "id": 4027554309,
  "lat": 54.3612165,
  "lon": 18.6486314
},
{
  "type": "node",
  "id": 4027554310,
  "lat": 54.3612203,
  "lon": 18.6486339
},
{
  "type": "node",
  "id": 4027554311,
  "lat": 54.3612413,
  "lon": 18.6502167
},
{
  "type": "node",
  "id": 4027554312,
  "lat": 54.3612519,
  "lon": 18.6501792
},
{
  "type": "node",
  "id": 4027554313,
  "lat": 54.3613804,
  "lon": 18.6485917
},
{
  "type": "node",
  "id": 4027554314,
  "lat": 54.3613850,
  "lon": 18.6485950
},
{
  "type": "node",
  "id": 4027554315,
  "lat": 54.3613893,
  "lon": 18.6485804
},
{
  "type": "node",
  "id": 4027554316,
  "lat": 54.3613928,
  "lon": 18.6485793
},
{
  "type": "node",
  "id": 4027554317,
  "lat": 54.3613986,
  "lon": 18.6485339
},
{
  "type": "node",
  "id": 4027554318,
  "lat": 54.3614054,
  "lon": 18.6485411
},
{
  "type": "node",
  "id": 4027554319,
  "lat": 54.3614091,
  "lon": 18.6485300
},
{
  "type": "node",
  "id": 4027554320,
  "lat": 54.3616552,
  "lon": 18.6486967
},
{
  "type": "node",
  "id": 4027554321,
  "lat": 54.3616687,
  "lon": 18.6487089
},
{
  "type": "node",
  "id": 4027554322,
  "lat": 54.3616745,
  "lon": 18.6486342
},
{
  "type": "node",
  "id": 4027554323,
  "lat": 54.3616838,
  "lon": 18.6486579
},
{
  "type": "node",
  "id": 4114619026,
  "lat": 54.3612591,
  "lon": 18.6485864
},
{
  "type": "node",
  "id": 4870422133,
  "lat": 54.3613123,
  "lon": 18.6485664
},
{
  "type": "node",
  "id": 6754352711,
  "lat": 54.3611062,
  "lon": 18.6488687
},
{
  "type": "node",
  "id": 6754358815,
  "lat": 54.3610643,
  "lon": 18.6490510
},
{
  "type": "node",
  "id": 6754358820,
  "lat": 54.3609742,
  "lon": 18.6494430
},
{
  "type": "node",
  "id": 6754358821,
  "lat": 54.3609141,
  "lon": 18.6496454
},
{
  "type": "node",
  "id": 2670087889,
  "lat": 54.3612553,
  "lon": 18.6520754
},
{
  "type": "node",
  "id": 2670087890,
  "lat": 54.3612565,
  "lon": 18.6521594
},
{
  "type": "node",
  "id": 2670087891,
  "lat": 54.3612799,
  "lon": 18.6521098
},
{
  "type": "node",
  "id": 2670087892,
  "lat": 54.3613326,
  "lon": 18.6519126
},
{
  "type": "node",
  "id": 2670087894,
  "lat": 54.3613572,
  "lon": 18.6519469
},
{
  "type": "node",
  "id": 2670087897,
  "lat": 54.3614206,
  "lon": 18.6523881
},
{
  "type": "node",
  "id": 2670087898,
  "lat": 54.3614439,
  "lon": 18.6517527
},
{
  "type": "node",
  "id": 2670087900,
  "lat": 54.3614448,
  "lon": 18.6523374
},
{
  "type": "node",
  "id": 2670087902,
  "lat": 54.3614470,
  "lon": 18.6517575
},
{
  "type": "node",
  "id": 2670087903,
  "lat": 54.3614505,
  "lon": 18.6517385
},
{
  "type": "node",
  "id": 2670087904,
  "lat": 54.3614541,
  "lon": 18.6517430
},
{
  "type": "node",
  "id": 2670087906,
  "lat": 54.3614760,
  "lon": 18.6521039
},
{
  "type": "node",
  "id": 2670087907,
  "lat": 54.3614804,
  "lon": 18.6523870
},
{
  "type": "node",
  "id": 2670087917,
  "lat": 54.3615596,
  "lon": 18.6522203
},
{
  "type": "node",
  "id": 2670087918,
  "lat": 54.3615616,
  "lon": 18.6519241
},
{
  "type": "node",
  "id": 2670087919,
  "lat": 54.3615643,
  "lon": 18.6519275
},
{
  "type": "node",
  "id": 2670087920,
  "lat": 54.3615678,
  "lon": 18.6519113
},
{
  "type": "node",
  "id": 2670087921,
  "lat": 54.3615705,
  "lon": 18.6519152
},
{
  "type": "node",
  "id": 2670087941,
  "lat": 54.3616712,
  "lon": 18.6516927
},
{
  "type": "node",
  "id": 6744533322,
  "lat": 54.3614923,
  "lon": 18.6520696
},
{
  "type": "node",
  "id": 2675693860,
  "lat": 54.4108342,
  "lon": 18.5600097
},
{
  "type": "node",
  "id": 2675693863,
  "lat": 54.4108362,
  "lon": 18.5600037
},
{
  "type": "node",
  "id": 2675693887,
  "lat": 54.4108537,
  "lon": 18.5601382
},
{
  "type": "node",
  "id": 2675693890,
  "lat": 54.4108567,
  "lon": 18.5601418
},
{
  "type": "node",
  "id": 2675693899,
  "lat": 54.4108658,
  "lon": 18.5599896
},
{
  "type": "node",
  "id": 2675693915,
  "lat": 54.4108862,
  "lon": 18.5601270
},
{
  "type": "node",
  "id": 2675693993,
  "lat": 54.4109311,
  "lon": 18.5604306
},
{
  "type": "node",
  "id": 2675694015,
  "lat": 54.4109647,
  "lon": 18.5604204
},
{
  "type": "node",
  "id": 2675694018,
  "lat": 54.4109811,
  "lon": 18.5605696
},
{
  "type": "node",
  "id": 2675694020,
  "lat": 54.4110002,
  "lon": 18.5599318
},
{
  "type": "node",
  "id": 2675694022,
  "lat": 54.4110013,
  "lon": 18.5599311
},
{
  "type": "node",
  "id": 2675694028,
  "lat": 54.4110211,
  "lon": 18.5600698
},
{
  "type": "node",
  "id": 2675694030,
  "lat": 54.4110224,
  "lon": 18.5600696
},
{
  "type": "node",
  "id": 2675694047,
  "lat": 54.4110633,
  "lon": 18.5603498
},
{
  "type": "node",
  "id": 2675694146,
  "lat": 54.4112470,
  "lon": 18.5602892
},
{
  "type": "node",
  "id": 2675694148,
  "lat": 54.4112475,
  "lon": 18.5602931
},
{
  "type": "node",
  "id": 3017042033,
  "lat": 54.4110310,
  "lon": 18.5605538
},
{
  "type": "node",
  "id": 2675694164,
  "lat": 54.4113093,
  "lon": 18.5602691
},
{
  "type": "node",
  "id": 2675694165,
  "lat": 54.4113100,
  "lon": 18.5602721
},
{
  "type": "node",
  "id": 2675694178,
  "lat": 54.4115044,
  "lon": 18.5602100
},
{
  "type": "node",
  "id": 2675694180,
  "lat": 54.4115256,
  "lon": 18.5603975
},
{
  "type": "node",
  "id": 2663587313,
  "lat": 54.5157003,
  "lon": 18.5472479
},
{
  "type": "node",
  "id": 2663587327,
  "lat": 54.5157093,
  "lon": 18.5481681
},
{
  "type": "node",
  "id": 2663587333,
  "lat": 54.5157177,
  "lon": 18.5473888
},
{
  "type": "node",
  "id": 2663587364,
  "lat": 54.5157383,
  "lon": 18.5483255
},
{
  "type": "node",
  "id": 2663587381,
  "lat": 54.5157523,
  "lon": 18.5481834
},
{
  "type": "node",
  "id": 2663587383,
  "lat": 54.5157529,
  "lon": 18.5481538
},
{
  "type": "node",
  "id": 2663587387,
  "lat": 54.5157546,
  "lon": 18.5473316
},
{
  "type": "node",
  "id": 2663587436,
  "lat": 54.5157739,
  "lon": 18.5472892
},
{
  "type": "node",
  "id": 2663587467,
  "lat": 54.5157984,
  "lon": 18.5474511
},
{
  "type": "node",
  "id": 2663587475,
  "lat": 54.5158053,
  "lon": 18.5473412
},
{
  "type": "node",
  "id": 2663587491,
  "lat": 54.5158078,
  "lon": 18.5474534
},
{
  "type": "node",
  "id": 2663587493,
  "lat": 54.5158081,
  "lon": 18.5474505
},
{
  "type": "node",
  "id": 2663587497,
  "lat": 54.5158136,
  "lon": 18.5471554
},
{
  "type": "node",
  "id": 2663587504,
  "lat": 54.5158161,
  "lon": 18.5471693
},
{
  "type": "node",
  "id": 2663587508,
  "lat": 54.5158176,
  "lon": 18.5471532
},
{
  "type": "node",
  "id": 2663587512,
  "lat": 54.5158186,
  "lon": 18.5471584
},
{
  "type": "node",
  "id": 2663587514,
  "lat": 54.5158195,
  "lon": 18.5472324
},
{
  "type": "node",
  "id": 2663587522,
  "lat": 54.5158343,
  "lon": 18.5481599
},
{
  "type": "node",
  "id": 2663587524,
  "lat": 54.5158352,
  "lon": 18.5481441
},
{
  "type": "node",
  "id": 2663587533,
  "lat": 54.5158477,
  "lon": 18.5471368
},
{
  "type": "node",
  "id": 2663587537,
  "lat": 54.5158483,
  "lon": 18.5471421
},
{
  "type": "node",
  "id": 2663587541,
  "lat": 54.5158514,
  "lon": 18.5471347
},
{
  "type": "node",
  "id": 2663587544,
  "lat": 54.5158524,
  "lon": 18.5471399
},
{
  "type": "node",
  "id": 2663587587,
  "lat": 54.5158811,
  "lon": 18.5471185
},
{
  "type": "node",
  "id": 2663587589,
  "lat": 54.5158822,
  "lon": 18.5471235
},
{
  "type": "node",
  "id": 2663587591,
  "lat": 54.5158852,
  "lon": 18.5471161
},
{
  "type": "node",
  "id": 2663587594,
  "lat": 54.5158862,
  "lon": 18.5471212
},
{
  "type": "node",
  "id": 2663587615,
  "lat": 54.5159150,
  "lon": 18.5470998
},
{
  "type": "node",
  "id": 2663587621,
  "lat": 54.5159159,
  "lon": 18.5471049
},
{
  "type": "node",
  "id": 2663587627,
  "lat": 54.5159190,
  "lon": 18.5470976
},
{
  "type": "node",
  "id": 2663587630,
  "lat": 54.5159206,
  "lon": 18.5471030
},
{
  "type": "node",
  "id": 2663587642,
  "lat": 54.5159360,
  "lon": 18.5481791
},
{
  "type": "node",
  "id": 2663587644,
  "lat": 54.5159398,
  "lon": 18.5481109
},
{
  "type": "node",
  "id": 2663587648,
  "lat": 54.5159416,
  "lon": 18.5481774
},
{
  "type": "node",
  "id": 2663587650,
  "lat": 54.5159429,
  "lon": 18.5481593
},
{
  "type": "node",
  "id": 2663587660,
  "lat": 54.5159526,
  "lon": 18.5470857
},
{
  "type": "node",
  "id": 2663587671,
  "lat": 54.5159645,
  "lon": 18.5478247
},
{
  "type": "node",
  "id": 2663587673,
  "lat": 54.5159685,
  "lon": 18.5471727
},
{
  "type": "node",
  "id": 2663587679,
  "lat": 54.5159795,
  "lon": 18.5475886
},
{
  "type": "node",
  "id": 2663587681,
  "lat": 54.5159827,
  "lon": 18.5472502
},
{
  "type": "node",
  "id": 2663587692,
  "lat": 54.5159855,
  "lon": 18.5474807
},
{
  "type": "node",
  "id": 2663587694,
  "lat": 54.5159921,
  "lon": 18.5478308
},
{
  "type": "node",
  "id": 2663587696,
  "lat": 54.5159928,
  "lon": 18.5473752
},
{
  "type": "node",
  "id": 2663587702,
  "lat": 54.5160024,
  "lon": 18.5472391
},
{
  "type": "node",
  "id": 2663587704,
  "lat": 54.5160026,
  "lon": 18.5478481
},
{
  "type": "node",
  "id": 2663587712,
  "lat": 54.5160102,
  "lon": 18.5479067
},
{
  "type": "node",
  "id": 2663587718,
  "lat": 54.5160549,
  "lon": 18.5476244
},
{
  "type": "node",
  "id": 2663587720,
  "lat": 54.5160566,
  "lon": 18.5476027
},
{
  "type": "node",
  "id": 2663587722,
  "lat": 54.5160586,
  "lon": 18.5478381
},
{
  "type": "node",
  "id": 2663587724,
  "lat": 54.5160646,
  "lon": 18.5478870
},
{
  "type": "node",
  "id": 2663587727,
  "lat": 54.5160667,
  "lon": 18.5472296
},
{
  "type": "node",
  "id": 2663587729,
  "lat": 54.5160710,
  "lon": 18.5476275
},
{
  "type": "node",
  "id": 2663587750,
  "lat": 54.5161300,
  "lon": 18.5472604
},
{
  "type": "node",
  "id": 3522742393,
  "lat": 54.5149038,
  "lon": 18.5479361
},
{
  "type": "node",
  "id": 3522742394,
  "lat": 54.5149377,
  "lon": 18.5482352
},
{
  "type": "node",
  "id": 3522742395,
  "lat": 54.5150465,
  "lon": 18.5488285
},
{
  "type": "node",
  "id": 3522742396,
  "lat": 54.5150727,
  "lon": 18.5477690
},
{
  "type": "node",
  "id": 3522742397,
  "lat": 54.5150949,
  "lon": 18.5476091
},
{
  "type": "node",
  "id": 3522742399,
  "lat": 54.5154126,
  "lon": 18.5473620
},
{
  "type": "node",
  "id": 3522742400,
  "lat": 54.5155395,
  "lon": 18.5485723
},
{
  "type": "node",
  "id": 3522742401,
  "lat": 54.5155451,
  "lon": 18.5486157
},
{
  "type": "node",
  "id": 3522742402,
  "lat": 54.5155720,
  "lon": 18.5472581
},
{
  "type": "node",
  "id": 3522742403,
  "lat": 54.5156513,
  "lon": 18.5472234
},
{
  "type": "node",
  "id": 3522742404,
  "lat": 54.5157597,
  "lon": 18.5484788
},
{
  "type": "node",
  "id": 5053210132,
  "lat": 54.5154100,
  "lon": 18.5473332
},
{
  "type": "node",
  "id": 5053210133,
  "lat": 54.5152458,
  "lon": 18.5474578
},
{
  "type": "node",
  "id": 5053210134,
  "lat": 54.5152443,
  "lon": 18.5474993
},
{
  "type": "node",
  "id": 1776480443,
  "lat": 54.5195981,
  "lon": 18.5502474
},
{
  "type": "node",
  "id": 1776480444,
  "lat": 54.5195403,
  "lon": 18.5524663
},
{
  "type": "node",
  "id": 1776480445,
  "lat": 54.5194843,
  "lon": 18.5521485
},
{
  "type": "node",
  "id": 1776480447,
  "lat": 54.5194341,
  "lon": 18.5524600
},
{
  "type": "node",
  "id": 1776480448,
  "lat": 54.5194105,
  "lon": 18.5531965
},
{
  "type": "node",
  "id": 1776480449,
  "lat": 54.5195051,
  "lon": 18.5513303
},
{
  "type": "node",
  "id": 1776480450,
  "lat": 54.5196004,
  "lon": 18.5513338
},
{
  "type": "node",
  "id": 1776480451,
  "lat": 54.5196280,
  "lon": 18.5505670
},
{
  "type": "node",
  "id": 1776480452,
  "lat": 54.5195398,
  "lon": 18.5522451
},
{
  "type": "node",
  "id": 1776480460,
  "lat": 54.5194043,
  "lon": 18.5529930
},
{
  "type": "node",
  "id": 1776480464,
  "lat": 54.5194969,
  "lon": 18.5531856
},
{
  "type": "node",
  "id": 1776480466,
  "lat": 54.5195418,
  "lon": 18.5505519
},
{
  "type": "node",
  "id": 1776480469,
  "lat": 54.5195330,
  "lon": 18.5527224
},
{
  "type": "node",
  "id": 1776480471,
  "lat": 54.5196251,
  "lon": 18.5503941
},
{
  "type": "node",
  "id": 1776480472,
  "lat": 54.5194587,
  "lon": 18.5522164
},
{
  "type": "node",
  "id": 1776480474,
  "lat": 54.5195865,
  "lon": 18.5516283
},
{
  "type": "node",
  "id": 1776480476,
  "lat": 54.5195179,
  "lon": 18.5530042
},
{
  "type": "node",
  "id": 1776480478,
  "lat": 54.5195348,
  "lon": 18.5521865
},
{
  "type": "node",
  "id": 1776480481,
  "lat": 54.5194171,
  "lon": 18.5527151
},
{
  "type": "node",
  "id": 1776480483,
  "lat": 54.5195591,
  "lon": 18.5503829
},
{
  "type": "node",
  "id": 1776480485,
  "lat": 54.5195181,
  "lon": 18.5521503
},
{
  "type": "node",
  "id": 1776480486,
  "lat": 54.5194931,
  "lon": 18.5516162
},
{
  "type": "node",
  "id": 1776480488,
  "lat": 54.5195236,
  "lon": 18.5520133
},
{
  "type": "node",
  "id": 2302133934,
  "lat": 54.5194520,
  "lon": 18.5522703
},
{
  "type": "node",
  "id": 2302133935,
  "lat": 54.5194653,
  "lon": 18.5521837
},
{
  "type": "node",
  "id": 2302133936,
  "lat": 54.5194736,
  "lon": 18.5521617
},
{
  "type": "node",
  "id": 2302133937,
  "lat": 54.5194980,
  "lon": 18.5521421
},
{
  "type": "node",
  "id": 2302133938,
  "lat": 54.5195260,
  "lon": 18.5521594
},
{
  "type": "node",
  "id": 2663587793,
  "lat": 54.5161835,
  "lon": 18.5473271
},
{
  "type": "node",
  "id": 2663587819,
  "lat": 54.5162128,
  "lon": 18.5474162
},
{
  "type": "node",
  "id": 2663587823,
  "lat": 54.5162135,
  "lon": 18.5474190
},
{
  "type": "node",
  "id": 2663587829,
  "lat": 54.5162194,
  "lon": 18.5474200
},
{
  "type": "node",
  "id": 2854801008,
  "lat": 54.5196273,
  "lon": 18.5504773
},
{
  "type": "node",
  "id": 2854801009,
  "lat": 54.5195783,
  "lon": 18.5503006
},
{
  "type": "node",
  "id": 2854801011,
  "lat": 54.5195462,
  "lon": 18.5519944
},
{
  "type": "node",
  "id": 2854801012,
  "lat": 54.5195035,
  "lon": 18.5519936
},
{
  "type": "node",
  "id": 2854801013,
  "lat": 54.5194894,
  "lon": 18.5519457
},
{
  "type": "node",
  "id": 2854801014,
  "lat": 54.5195476,
  "lon": 18.5504669
},
{
  "type": "node",
  "id": 2854801015,
  "lat": 54.5196133,
  "lon": 18.5503059
},
{
  "type": "node",
  "id": 2854801016,
  "lat": 54.5195621,
  "lon": 18.5519492
},
{
  "type": "node",
  "id": 4044886687,
  "lat": 54.5196190,
  "lon": 18.5508158
},
{
  "type": "node",
  "id": 4044886688,
  "lat": 54.5195297,
  "lon": 18.5508076
},
{
  "type": "node",
  "id": 4044895606,
  "lat": 54.5195358,
  "lon": 18.5520079
},
{
  "type": "node",
  "id": 4044895607,
  "lat": 54.5195122,
  "lon": 18.5520067
},
{
  "type": "node",
  "id": 4044895608,
  "lat": 54.5195301,
  "lon": 18.5520127
},
{
  "type": "node",
  "id": 4044895609,
  "lat": 54.5195176,
  "lon": 18.5520112
},
{
  "type": "node",
  "id": 4044895610,
  "lat": 54.5194969,
  "lon": 18.5519746
},
{
  "type": "node",
  "id": 4044895611,
  "lat": 54.5195077,
  "lon": 18.5520011
},
{
  "type": "node",
  "id": 4044895612,
  "lat": 54.5195404,
  "lon": 18.5520027
},
{
  "type": "node",
  "id": 4044895613,
  "lat": 54.5195532,
  "lon": 18.5519763
},
{
  "type": "node",
  "id": 4805825920,
  "lat": 54.5194427,
  "lon": 18.5523623
},
{
  "type": "node",
  "id": 4805827221,
  "lat": 54.5194473,
  "lon": 18.5523128
},
{
  "type": "node",
  "id": 4805827222,
  "lat": 54.5194555,
  "lon": 18.5522400
},
{
  "type": "node",
  "id": 4805827223,
  "lat": 54.5194693,
  "lon": 18.5521706
},
{
  "type": "node",
  "id": 4805827224,
  "lat": 54.5194783,
  "lon": 18.5521536
},
{
  "type": "node",
  "id": 4805827225,
  "lat": 54.5194906,
  "lon": 18.5521439
},
{
  "type": "node",
  "id": 4805827226,
  "lat": 54.5195037,
  "lon": 18.5521427
},
{
  "type": "node",
  "id": 4805827227,
  "lat": 54.5195086,
  "lon": 18.5521445
},
{
  "type": "node",
  "id": 4805827228,
  "lat": 54.5195135,
  "lon": 18.5521472
},
{
  "type": "node",
  "id": 4805827229,
  "lat": 54.5194618,
  "lon": 18.5521994
},
{
  "type": "node",
  "id": 4805827230,
  "lat": 54.5195208,
  "lon": 18.5521530
},
{
  "type": "node",
  "id": 4805827231,
  "lat": 54.5195301,
  "lon": 18.5521686
},
{
  "type": "node",
  "id": 4805827232,
  "lat": 54.5195373,
  "lon": 18.5522019
},
{
  "type": "node",
  "id": 4805827233,
  "lat": 54.5195387,
  "lon": 18.5522190
},
{
  "type": "node",
  "id": 4805827234,
  "lat": 54.5195406,
  "lon": 18.5522850
},
{
  "type": "node",
  "id": 4805827235,
  "lat": 54.5195402,
  "lon": 18.5522632
},
{
  "type": "node",
  "id": 4805827236,
  "lat": 54.5195412,
  "lon": 18.5523472
},
{
  "type": "node",
  "id": 4805827237,
  "lat": 54.5194062,
  "lon": 18.5530946
},
{
  "type": "node",
  "id": 4805827238,
  "lat": 54.5194078,
  "lon": 18.5531517
},
{
  "type": "node",
  "id": 4805827239,
  "lat": 54.5194144,
  "lon": 18.5532313
},
{
  "type": "node",
  "id": 4805827245,
  "lat": 54.5194879,
  "lon": 18.5532282
},
{
  "type": "node",
  "id": 4805827246,
  "lat": 54.5194935,
  "lon": 18.5532037
},
{
  "type": "node",
  "id": 4805827247,
  "lat": 54.5195107,
  "lon": 18.5530727
},
{
  "type": "node",
  "id": 4805827248,
  "lat": 54.5194083,
  "lon": 18.5531640
},
{
  "type": "node",
  "id": 4805827249,
  "lat": 54.5194128,
  "lon": 18.5532192
},
{
  "type": "node",
  "id": 4805827250,
  "lat": 54.5194992,
  "lon": 18.5531716
},
{
  "type": "node",
  "id": 4805827251,
  "lat": 54.5195004,
  "lon": 18.5531629
},
{
  "type": "node",
  "id": 4805827252,
  "lat": 54.5195175,
  "lon": 18.5530101
},
{
  "type": "node",
  "id": 1776480462,
  "lat": 54.5194468,
  "lon": 18.5533559
},
{
  "type": "node",
  "id": 4805827240,
  "lat": 54.5194270,
  "lon": 18.5532906
},
{
  "type": "node",
  "id": 4805827241,
  "lat": 54.5194348,
  "lon": 18.5533184
},
{
  "type": "node",
  "id": 4805827242,
  "lat": 54.5194599,
  "lon": 18.5533180
},
{
  "type": "node",
  "id": 4805827243,
  "lat": 54.5194698,
  "lon": 18.5532897
},
{
  "type": "node",
  "id": 4805827244,
  "lat": 54.5194811,
  "lon": 18.5532527
},
{
  "type": "node",
  "id": 4805827253,
  "lat": 54.5194263,
  "lon": 18.5532880
},
{
  "type": "node",
  "id": 4303208464,
  "lat": 54.4398786,
  "lon": 18.5760019
},
{
  "type": "node",
  "id": 4303208465,
  "lat": 54.4398845,
  "lon": 18.5759973
},
{
  "type": "node",
  "id": 4303208466,
  "lat": 54.4399031,
  "lon": 18.5759830
},
{
  "type": "node",
  "id": 4303208467,
  "lat": 54.4399032,
  "lon": 18.5759831
},
{
  "type": "node",
  "id": 4303208468,
  "lat": 54.4399048,
  "lon": 18.5759816
},
{
  "type": "node",
  "id": 4303208469,
  "lat": 54.4399048,
  "lon": 18.5759817
},
{
  "type": "node",
  "id": 4303208470,
  "lat": 54.4399104,
  "lon": 18.5761153
},
{
  "type": "node",
  "id": 4303208471,
  "lat": 54.4399311,
  "lon": 18.5760982
},
{
  "type": "node",
  "id": 4303208472,
  "lat": 54.4399401,
  "lon": 18.5759546
},
{
  "type": "node",
  "id": 4303208473,
  "lat": 54.4399422,
  "lon": 18.5760890
},
{
  "type": "node",
  "id": 4303208474,
  "lat": 54.4399474,
  "lon": 18.5759829
},
{
  "type": "node",
  "id": 4303208475,
  "lat": 54.4399512,
  "lon": 18.5760816
},
{
  "type": "node",
  "id": 4303208476,
  "lat": 54.4399571,
  "lon": 18.5761017
},
{
  "type": "node",
  "id": 4303208477,
  "lat": 54.4399646,
  "lon": 18.5760955
},
{
  "type": "node",
  "id": 4303208478,
  "lat": 54.4399715,
  "lon": 18.5761581
},
{
  "type": "node",
  "id": 4303208479,
  "lat": 54.4399767,
  "lon": 18.5761783
},
{
  "type": "node",
  "id": 4303208480,
  "lat": 54.4399770,
  "lon": 18.5761392
},
{
  "type": "node",
  "id": 4303208481,
  "lat": 54.4399843,
  "lon": 18.5759549
},
{
  "type": "node",
  "id": 4303208482,
  "lat": 54.4399843,
  "lon": 18.5759550
},
{
  "type": "node",
  "id": 4303208483,
  "lat": 54.4399881,
  "lon": 18.5761847
},
{
  "type": "node",
  "id": 4303208484,
  "lat": 54.4399895,
  "lon": 18.5761902
},
{
  "type": "node",
  "id": 4303208485,
  "lat": 54.4400172,
  "lon": 18.5759299
},
{
  "type": "node",
  "id": 4303208486,
  "lat": 54.4400172,
  "lon": 18.5759300
},
{
  "type": "node",
  "id": 4303208487,
  "lat": 54.4400202,
  "lon": 18.5761669
},
{
  "type": "node",
  "id": 4303208488,
  "lat": 54.4400202,
  "lon": 18.5761670
},
{
  "type": "node",
  "id": 4303208489,
  "lat": 54.4400246,
  "lon": 18.5759243
},
{
  "type": "node",
  "id": 4303208490,
  "lat": 54.4400282,
  "lon": 18.5761609
},
{
  "type": "node",
  "id": 4303208491,
  "lat": 54.4400357,
  "lon": 18.5761552
},
{
  "type": "node",
  "id": 4303208492,
  "lat": 54.4400377,
  "lon": 18.5759716
},
{
  "type": "node",
  "id": 4303208493,
  "lat": 54.4400413,
  "lon": 18.5759686
},
{
  "type": "node",
  "id": 4303208494,
  "lat": 54.4400419,
  "lon": 18.5761786
},
{
  "type": "node",
  "id": 4303208495,
  "lat": 54.4400515,
  "lon": 18.5760032
},
{
  "type": "node",
  "id": 4303208496,
  "lat": 54.4400608,
  "lon": 18.5761638
},
{
  "type": "node",
  "id": 4303208497,
  "lat": 54.4400609,
  "lon": 18.5761639
},
{
  "type": "node",
  "id": 4303208498,
  "lat": 54.4400625,
  "lon": 18.5761624
},
{
  "type": "node",
  "id": 4303208499,
  "lat": 54.4400626,
  "lon": 18.5761625
},
{
  "type": "node",
  "id": 4303208500,
  "lat": 54.4400670,
  "lon": 18.5760776
},
{
  "type": "node",
  "id": 4303208501,
  "lat": 54.4400707,
  "lon": 18.5759888
},
{
  "type": "node",
  "id": 4303208502,
  "lat": 54.4400795,
  "lon": 18.5760685
},
{
  "type": "node",
  "id": 4303208503,
  "lat": 54.4400796,
  "lon": 18.5760685
},
{
  "type": "node",
  "id": 4303208504,
  "lat": 54.4400849,
  "lon": 18.5761451
},
{
  "type": "node",
  "id": 4303208505,
  "lat": 54.4400892,
  "lon": 18.5760614
},
{
  "type": "node",
  "id": 747075152,
  "lat": 54.3958632,
  "lon": 18.6794708
},
{
  "type": "node",
  "id": 747075158,
  "lat": 54.3959954,
  "lon": 18.6793546
},
{
  "type": "node",
  "id": 747075163,
  "lat": 54.3959860,
  "lon": 18.6792210
},
{
  "type": "node",
  "id": 747075174,
  "lat": 54.3956496,
  "lon": 18.6791818
},
{
  "type": "node",
  "id": 747075182,
  "lat": 54.3957490,
  "lon": 18.6794314
},
{
  "type": "node",
  "id": 747075183,
  "lat": 54.3957406,
  "lon": 18.6789409
},
{
  "type": "node",
  "id": 747075187,
  "lat": 54.3959276,
  "lon": 18.6794408
},
{
  "type": "node",
  "id": 747075191,
  "lat": 54.3960284,
  "lon": 18.6792560
},
{
  "type": "node",
  "id": 747075200,
  "lat": 54.3956858,
  "lon": 18.6789013
},
{
  "type": "node",
  "id": 747075208,
  "lat": 54.3956938,
  "lon": 18.6793534
},
{
  "type": "node",
  "id": 6035273460,
  "lat": 54.3956731,
  "lon": 18.6789644
},
{
  "type": "node",
  "id": 6035273578,
  "lat": 54.3957143,
  "lon": 18.6789973
},
{
  "type": "node",
  "id": 6035273579,
  "lat": 54.3956969,
  "lon": 18.6790713
},
{
  "type": "node",
  "id": 6035273580,
  "lat": 54.3956941,
  "lon": 18.6791605
},
{
  "type": "node",
  "id": 6035273581,
  "lat": 54.3957110,
  "lon": 18.6792530
},
{
  "type": "node",
  "id": 6035273582,
  "lat": 54.3957447,
  "lon": 18.6793256
},
{
  "type": "node",
  "id": 6035273583,
  "lat": 54.3959500,
  "lon": 18.6793159
},
{
  "type": "node",
  "id": 6035273584,
  "lat": 54.3959011,
  "lon": 18.6793709
},
{
  "type": "node",
  "id": 6035273585,
  "lat": 54.3958493,
  "lon": 18.6793898
},
{
  "type": "node",
  "id": 6035273586,
  "lat": 54.3957946,
  "lon": 18.6793755
},
{
  "type": "node",
  "id": 6035273611,
  "lat": 54.3957269,
  "lon": 18.6789663
},
{
  "type": "node",
  "id": 6035273612,
  "lat": 54.3957050,
  "lon": 18.6790287
},
{
  "type": "node",
  "id": 6035273613,
  "lat": 54.3956933,
  "lon": 18.6791156
},
{
  "type": "node",
  "id": 6035273614,
  "lat": 54.3956997,
  "lon": 18.6792065
},
{
  "type": "node",
  "id": 6035273615,
  "lat": 54.3957277,
  "lon": 18.6792956
},
{
  "type": "node",
  "id": 6035273616,
  "lat": 54.3957667,
  "lon": 18.6793531
},
{
  "type": "node",
  "id": 6035273617,
  "lat": 54.3958255,
  "lon": 18.6793879
},
{
  "type": "node",
  "id": 6035273618,
  "lat": 54.3958742,
  "lon": 18.6793848
},
{
  "type": "node",
  "id": 6035273619,
  "lat": 54.3959255,
  "lon": 18.6793493
},
{
  "type": "node",
  "id": 6035273620,
  "lat": 54.3959693,
  "lon": 18.6792763
},
{
  "type": "node",
  "id": 6035273621,
  "lat": 54.3956653,
  "lon": 18.6790032
},
{
  "type": "node",
  "id": 6035273622,
  "lat": 54.3956506,
  "lon": 18.6790998
},
{
  "type": "node",
  "id": 6035273623,
  "lat": 54.3956587,
  "lon": 18.6792433
},
{
  "type": "node",
  "id": 6035273624,
  "lat": 54.3956736,
  "lon": 18.6793003
},
{
  "type": "node",
  "id": 6035273625,
  "lat": 54.3957196,
  "lon": 18.6793960
},
{
  "type": "node",
  "id": 6035273626,
  "lat": 54.3957908,
  "lon": 18.6794578
},
{
  "type": "node",
  "id": 6035273627,
  "lat": 54.3958247,
  "lon": 18.6794685
},
{
  "type": "node",
  "id": 6035273628,
  "lat": 54.3958977,
  "lon": 18.6794595
},
{
  "type": "node",
  "id": 6035273629,
  "lat": 54.3960138,
  "lon": 18.6793062
},
{
  "type": "node",
  "id": 6035273630,
  "lat": 54.3959629,
  "lon": 18.6794064
},
{
  "type": "node",
  "id": 2794543468,
  "lat": 54.4059788,
  "lon": 18.6760452
},
{
  "type": "node",
  "id": 2794543469,
  "lat": 54.4059834,
  "lon": 18.6759257
},
{
  "type": "node",
  "id": 2794543470,
  "lat": 54.4060648,
  "lon": 18.6760550
},
{
  "type": "node",
  "id": 2794543471,
  "lat": 54.4060686,
  "lon": 18.6759354
},
{
  "type": "node",
  "id": 6662106849,
  "lat": 54.4060683,
  "lon": 18.6759640
},
{
  "type": "node",
  "id": 6662106850,
  "lat": 54.4060876,
  "lon": 18.6759197
},
{
  "type": "node",
  "id": 6662106851,
  "lat": 54.4060858,
  "lon": 18.6759660
},
{
  "type": "node",
  "id": 6662106852,
  "lat": 54.4060692,
  "lon": 18.6759177
},
{
  "type": "node",
  "id": 4308525204,
  "lat": 54.5469969,
  "lon": 18.4574822
},
{
  "type": "node",
  "id": 4308525280,
  "lat": 54.5470884,
  "lon": 18.4575538
},
{
  "type": "node",
  "id": 4308525302,
  "lat": 54.5471106,
  "lon": 18.4570521
},
{
  "type": "node",
  "id": 4308525369,
  "lat": 54.5472021,
  "lon": 18.4571237
},
{
  "type": "node",
  "id": 1369935068,
  "lat": 54.7162804,
  "lon": 18.6345370
},
{
  "type": "node",
  "id": 3491576132,
  "lat": 54.7162620,
  "lon": 18.6346576
},
{
  "type": "node",
  "id": 3491576133,
  "lat": 54.7162891,
  "lon": 18.6345091
},
{
  "type": "node",
  "id": 3491576134,
  "lat": 54.7162819,
  "lon": 18.6345263
},
{
  "type": "node",
  "id": 3491576135,
  "lat": 54.7162838,
  "lon": 18.6345188
},
{
  "type": "node",
  "id": 3491576136,
  "lat": 54.7163051,
  "lon": 18.6345009
},
{
  "type": "node",
  "id": 3491576137,
  "lat": 54.7163133,
  "lon": 18.6345047
},
{
  "type": "node",
  "id": 3491576138,
  "lat": 54.7162967,
  "lon": 18.6345025
},
{
  "type": "node",
  "id": 3491576139,
  "lat": 54.7163292,
  "lon": 18.6346880
},
{
  "type": "node",
  "id": 3491576140,
  "lat": 54.7163245,
  "lon": 18.6347205
},
{
  "type": "node",
  "id": 3491576141,
  "lat": 54.7163939,
  "lon": 18.6345419
},
{
  "type": "node",
  "id": 3491576142,
  "lat": 54.7164007,
  "lon": 18.6345505
},
{
  "type": "node",
  "id": 3491576143,
  "lat": 54.7163836,
  "lon": 18.6347463
},
{
  "type": "node",
  "id": 3491576144,
  "lat": 54.7164054,
  "lon": 18.6345628
},
{
  "type": "node",
  "id": 3491576145,
  "lat": 54.7164069,
  "lon": 18.6345747
},
{
  "type": "node",
  "id": 3491576146,
  "lat": 54.7164070,
  "lon": 18.6345819
},
{
  "type": "node",
  "id": 1623836754,
  "lat": 54.6050719,
  "lon": 18.8021496
},
{
  "type": "node",
  "id": 1623836757,
  "lat": 54.6050788,
  "lon": 18.8020058
},
{
  "type": "node",
  "id": 1623836760,
  "lat": 54.6051111,
  "lon": 18.8021527
},
{
  "type": "node",
  "id": 1623836775,
  "lat": 54.6051319,
  "lon": 18.8020135
},
{
  "type": "node",
  "id": 1623836778,
  "lat": 54.6051368,
  "lon": 18.8019118
},
{
  "type": "node",
  "id": 1623836784,
  "lat": 54.6051969,
  "lon": 18.8020230
},
{
  "type": "node",
  "id": 1623836786,
  "lat": 54.6052019,
  "lon": 18.8019211
},
{
  "type": "node",
  "id": 1623836806,
  "lat": 54.6052619,
  "lon": 18.8020324
},
{
  "type": "node",
  "id": 1623836495,
  "lat": 54.6037275,
  "lon": 18.8032614
},
{
  "type": "node",
  "id": 1623836516,
  "lat": 54.6037583,
  "lon": 18.8034317
},
{
  "type": "node",
  "id": 1623836758,
  "lat": 54.6051017,
  "lon": 18.8023475
},
{
  "type": "node",
  "id": 1623836762,
  "lat": 54.6051221,
  "lon": 18.8023892
},
{
  "type": "node",
  "id": 1623836779,
  "lat": 54.6051633,
  "lon": 18.8023951
},
{
  "type": "node",
  "id": 1623836780,
  "lat": 54.6051929,
  "lon": 18.8023519
},
{
  "type": "node",
  "id": 1623836782,
  "lat": 54.6051946,
  "lon": 18.8023176
},
{
  "type": "node",
  "id": 1623836804,
  "lat": 54.6052477,
  "lon": 18.8023252
},
{
  "type": "node",
  "id": 5840484546,
  "lat": 54.6036762,
  "lon": 18.8032890
},
{
  "type": "node",
  "id": 5840484547,
  "lat": 54.6037071,
  "lon": 18.8034594
},
{
  "type": "node",
  "id": 2727004496,
  "lat": 54.5954006,
  "lon": 18.8100678
},
{
  "type": "node",
  "id": 2727004500,
  "lat": 54.5954708,
  "lon": 18.8102559
},
{
  "type": "node",
  "id": 2727004504,
  "lat": 54.5956021,
  "lon": 18.8101099
},
{
  "type": "node",
  "id": 2727004508,
  "lat": 54.5955320,
  "lon": 18.8099219
},
{
  "type": "node",
  "id": 2727022149,
  "lat": 54.5959844,
  "lon": 18.8110351
},
{
  "type": "node",
  "id": 2727022150,
  "lat": 54.5958537,
  "lon": 18.8111887
},
{
  "type": "node",
  "id": 2727022151,
  "lat": 54.5959273,
  "lon": 18.8113752
},
{
  "type": "node",
  "id": 2727022152,
  "lat": 54.5960580,
  "lon": 18.8112216
},
{
  "type": "node",
  "id": 2752447523,
  "lat": 54.5960514,
  "lon": 18.8124009
},
{
  "type": "node",
  "id": 2752447524,
  "lat": 54.5961220,
  "lon": 18.8125848
},
{
  "type": "node",
  "id": 2752447525,
  "lat": 54.5959914,
  "lon": 18.8127342
},
{
  "type": "node",
  "id": 2752447526,
  "lat": 54.5959208,
  "lon": 18.8125502
},
{
  "type": "node",
  "id": 2840813775,
  "lat": 54.5960979,
  "lon": 18.8125220
},
{
  "type": "node",
  "id": 2877750066,
  "lat": 54.5967292,
  "lon": 18.8123866
},
{
  "type": "node",
  "id": 2877750067,
  "lat": 54.5969389,
  "lon": 18.8125779
},
{
  "type": "node",
  "id": 2877750068,
  "lat": 54.5968310,
  "lon": 18.8129303
},
{
  "type": "node",
  "id": 2877750069,
  "lat": 54.5966213,
  "lon": 18.8127390
},
{
  "type": "node",
  "id": 2877750070,
  "lat": 54.5969111,
  "lon": 18.8125526
},
{
  "type": "node",
  "id": 2877750071,
  "lat": 54.5967557,
  "lon": 18.8124108
},
{
  "type": "node",
  "id": 3775708157,
  "lat": 54.5955546,
  "lon": 18.8099824
},
{
  "type": "node",
  "id": 2830338533,
  "lat": 54.6090156,
  "lon": 18.7969911
},
{
  "type": "node",
  "id": 2830338534,
  "lat": 54.6090630,
  "lon": 18.7970759
},
{
  "type": "node",
  "id": 2830338535,
  "lat": 54.6089710,
  "lon": 18.7972289
},
{
  "type": "node",
  "id": 2830338536,
  "lat": 54.6089237,
  "lon": 18.7971442
},
{
  "type": "node",
  "id": 2830348682,
  "lat": 54.6090400,
  "lon": 18.7970348
},
{
  "type": "node",
  "id": 3407143941,
  "lat": 54.6209239,
  "lon": 18.7995986
},
{
  "type": "node",
  "id": 3407143942,
  "lat": 54.6206488,
  "lon": 18.7997269
},
{
  "type": "node",
  "id": 3407143943,
  "lat": 54.6207467,
  "lon": 18.8003526
},
{
  "type": "node",
  "id": 3407143944,
  "lat": 54.6207410,
  "lon": 18.8003553
},
{
  "type": "node",
  "id": 3407143945,
  "lat": 54.6207591,
  "lon": 18.8004709
},
{
  "type": "node",
  "id": 3407143946,
  "lat": 54.6207420,
  "lon": 18.8004788
},
{
  "type": "node",
  "id": 3407143947,
  "lat": 54.6207607,
  "lon": 18.8005986
},
{
  "type": "node",
  "id": 3407143948,
  "lat": 54.6207687,
  "lon": 18.8006498
},
{
  "type": "node",
  "id": 3607612924,
  "lat": 54.6206772,
  "lon": 18.8008408
},
{
  "type": "node",
  "id": 3607612925,
  "lat": 54.6201321,
  "lon": 18.8008220
},
{
  "type": "node",
  "id": 3607612926,
  "lat": 54.6201849,
  "lon": 18.8005391
},
{
  "type": "node",
  "id": 3607612927,
  "lat": 54.6201756,
  "lon": 18.8003781
},
{
  "type": "node",
  "id": 3607612928,
  "lat": 54.6205289,
  "lon": 18.7997317
},
{
  "type": "node",
  "id": 3607612929,
  "lat": 54.6206943,
  "lon": 18.7994313
},
{
  "type": "node",
  "id": 2093910864,
  "lat": 54.6224298,
  "lon": 18.7942759
},
{
  "type": "node",
  "id": 2093910872,
  "lat": 54.6224511,
  "lon": 18.7944996
},
{
  "type": "node",
  "id": 2093910876,
  "lat": 54.6225416,
  "lon": 18.7942443
},
{
  "type": "node",
  "id": 2093910877,
  "lat": 54.6225628,
  "lon": 18.7944679
},
{
  "type": "node",
  "id": 2849167633,
  "lat": 54.6289157,
  "lon": 18.7916548
},
{
  "type": "node",
  "id": 2849167634,
  "lat": 54.6296082,
  "lon": 18.7921591
},
{
  "type": "node",
  "id": 2858172306,
  "lat": 54.6292324,
  "lon": 18.7918855
},
{
  "type": "node",
  "id": 1988536712,
  "lat": 54.6224408,
  "lon": 18.8012041
},
{
  "type": "node",
  "id": 2333009919,
  "lat": 54.6227824,
  "lon": 18.8012053
},
{
  "type": "node",
  "id": 2333009920,
  "lat": 54.6229023,
  "lon": 18.8021282
},
{
  "type": "node",
  "id": 2333009921,
  "lat": 54.6230574,
  "lon": 18.8010770
},
{
  "type": "node",
  "id": 2333009923,
  "lat": 54.6232266,
  "lon": 18.8019768
},
{
  "type": "node",
  "id": 2880293316,
  "lat": 54.6222406,
  "lon": 18.8014810
},
{
  "type": "node",
  "id": 2880293317,
  "lat": 54.6224580,
  "lon": 18.8012638
},
{
  "type": "node",
  "id": 2880293318,
  "lat": 54.6223711,
  "lon": 18.8008936
},
{
  "type": "node",
  "id": 2880293319,
  "lat": 54.6228043,
  "lon": 18.8006093
},
{
  "type": "node",
  "id": 2880293320,
  "lat": 54.6232904,
  "lon": 18.8003947
},
{
  "type": "node",
  "id": 2880293321,
  "lat": 54.6233587,
  "lon": 18.8008427
},
{
  "type": "node",
  "id": 2880293322,
  "lat": 54.6236242,
  "lon": 18.8007166
},
{
  "type": "node",
  "id": 2880293323,
  "lat": 54.6237376,
  "lon": 18.8008705
},
{
  "type": "node",
  "id": 2880293324,
  "lat": 54.6238975,
  "lon": 18.8019665
},
{
  "type": "node",
  "id": 2884366029,
  "lat": 54.6233328,
  "lon": 18.8006539
},
{
  "type": "node",
  "id": 2884366030,
  "lat": 54.6234429,
  "lon": 18.8021938
},
{
  "type": "node",
  "id": 2884366031,
  "lat": 54.6238600,
  "lon": 18.8016873
},
{
  "type": "node",
  "id": 2884367835,
  "lat": 54.6228380,
  "lon": 18.8015605
},
{
  "type": "node",
  "id": 3110270310,
  "lat": 54.6228746,
  "lon": 18.8018337
},
{
  "type": "node",
  "id": 3110270311,
  "lat": 54.6228756,
  "lon": 18.8019572
},
{
  "type": "node",
  "id": 3110270312,
  "lat": 54.6228803,
  "lon": 18.8018310
},
{
  "type": "node",
  "id": 3110270313,
  "lat": 54.6228927,
  "lon": 18.8019493
},
{
  "type": "node",
  "id": 3110270314,
  "lat": 54.6228937,
  "lon": 18.8016776
},
{
  "type": "node",
  "id": 3110270315,
  "lat": 54.6228943,
  "lon": 18.8020770
},
{
  "type": "node",
  "id": 3110270316,
  "lat": 54.6228979,
  "lon": 18.8016163
},
{
  "type": "node",
  "id": 3110270317,
  "lat": 54.6229013,
  "lon": 18.8017379
},
{
  "type": "node",
  "id": 3110270318,
  "lat": 54.6229134,
  "lon": 18.8015606
},
{
  "type": "node",
  "id": 3110270319,
  "lat": 54.6229198,
  "lon": 18.8017907
},
{
  "type": "node",
  "id": 3110270321,
  "lat": 54.6229385,
  "lon": 18.8015167
},
{
  "type": "node",
  "id": 3110270322,
  "lat": 54.6229472,
  "lon": 18.8018303
},
{
  "type": "node",
  "id": 3110270323,
  "lat": 54.6229705,
  "lon": 18.8014893
},
{
  "type": "node",
  "id": 3110270324,
  "lat": 54.6229806,
  "lon": 18.8018524
},
{
  "type": "node",
  "id": 3110270325,
  "lat": 54.6230060,
  "lon": 18.8014812
},
{
  "type": "node",
  "id": 3110270326,
  "lat": 54.6230163,
  "lon": 18.8018545
},
{
  "type": "node",
  "id": 3110270327,
  "lat": 54.6230410,
  "lon": 18.8014935
},
{
  "type": "node",
  "id": 3110270328,
  "lat": 54.6230505,
  "lon": 18.8018365
},
{
  "type": "node",
  "id": 3110270829,
  "lat": 54.6230718,
  "lon": 18.8015248
},
{
  "type": "node",
  "id": 3110270830,
  "lat": 54.6230794,
  "lon": 18.8018004
},
{
  "type": "node",
  "id": 3110270832,
  "lat": 54.6230951,
  "lon": 18.8015716
},
{
  "type": "node",
  "id": 3110270833,
  "lat": 54.6231000,
  "lon": 18.8017499
},
{
  "type": "node",
  "id": 3110270834,
  "lat": 54.6231083,
  "lon": 18.8016290
},
{
  "type": "node",
  "id": 3110270835,
  "lat": 54.6231100,
  "lon": 18.8016906
},
{
  "type": "node",
  "id": 3110270837,
  "lat": 54.6231590,
  "lon": 18.8017268
},
{
  "type": "node",
  "id": 3110270840,
  "lat": 54.6231697,
  "lon": 18.8017218
},
{
  "type": "node",
  "id": 3110270841,
  "lat": 54.6231841,
  "lon": 18.8018137
},
{
  "type": "node",
  "id": 3110270843,
  "lat": 54.6231999,
  "lon": 18.8018064
},
{
  "type": "node",
  "id": 3110270844,
  "lat": 54.6232185,
  "lon": 18.8019252
},
{
  "type": "node",
  "id": 3407143935,
  "lat": 54.6210931,
  "lon": 18.8004984
},
{
  "type": "node",
  "id": 3407143936,
  "lat": 54.6210850,
  "lon": 18.8004468
},
{
  "type": "node",
  "id": 3407143937,
  "lat": 54.6210664,
  "lon": 18.8003280
},
{
  "type": "node",
  "id": 3407143938,
  "lat": 54.6210506,
  "lon": 18.8003353
},
{
  "type": "node",
  "id": 3407143939,
  "lat": 54.6210362,
  "lon": 18.8002434
},
{
  "type": "node",
  "id": 3407143940,
  "lat": 54.6210255,
  "lon": 18.8002484
},
{
  "type": "node",
  "id": 3407143949,
  "lat": 54.6260221,
  "lon": 18.8000239
},
{
  "type": "node",
  "id": 3407143950,
  "lat": 54.6260154,
  "lon": 18.7999718
},
{
  "type": "node",
  "id": 3407143951,
  "lat": 54.6259999,
  "lon": 18.7998516
},
{
  "type": "node",
  "id": 3407143952,
  "lat": 54.6259839,
  "lon": 18.7998577
},
{
  "type": "node",
  "id": 3407143953,
  "lat": 54.6259719,
  "lon": 18.7997648
},
{
  "type": "node",
  "id": 3407143954,
  "lat": 54.6259611,
  "lon": 18.7997689
},
{
  "type": "node",
  "id": 3407143955,
  "lat": 54.6258766,
  "lon": 18.7991119
},
{
  "type": "node",
  "id": 3407143956,
  "lat": 54.6255986,
  "lon": 18.7992186
},
{
  "type": "node",
  "id": 3407143957,
  "lat": 54.6256800,
  "lon": 18.7998513
},
{
  "type": "node",
  "id": 3407143958,
  "lat": 54.6256742,
  "lon": 18.7998535
},
{
  "type": "node",
  "id": 3407143959,
  "lat": 54.6256893,
  "lon": 18.7999704
},
{
  "type": "node",
  "id": 3407143960,
  "lat": 54.6256720,
  "lon": 18.7999770
},
{
  "type": "node",
  "id": 3407143961,
  "lat": 54.6256875,
  "lon": 18.8000981
},
{
  "type": "node",
  "id": 3407143962,
  "lat": 54.6256942,
  "lon": 18.8001499
},
{
  "type": "node",
  "id": 3415959594,
  "lat": 54.6259304,
  "lon": 18.7995305
},
{
  "type": "node",
  "id": 3607612922,
  "lat": 54.6210281,
  "lon": 18.7992757
},
{
  "type": "node",
  "id": 3607612923,
  "lat": 54.6212269,
  "lon": 18.8005672
},
{
  "type": "node",
  "id": 2880293313,
  "lat": 54.6229053,
  "lon": 18.8024627
},
{
  "type": "node",
  "id": 2880293314,
  "lat": 54.6227313,
  "lon": 18.8025432
},
{
  "type": "node",
  "id": 2880293315,
  "lat": 54.6222360,
  "lon": 18.8022964
},
{
  "type": "node",
  "id": 2849167635,
  "lat": 54.6285294,
  "lon": 18.7965799
},
{
  "type": "node",
  "id": 2849167636,
  "lat": 54.6277807,
  "lon": 18.7960215
},
{
  "type": "node",
  "id": 5916369433,
  "lat": 54.6953097,
  "lon": 18.6841580
},
{
  "type": "node",
  "id": 5916369434,
  "lat": 54.6953041,
  "lon": 18.6841602
},
{
  "type": "node",
  "id": 5916369435,
  "lat": 54.6953025,
  "lon": 18.6841570
},
{
  "type": "node",
  "id": 5916369436,
  "lat": 54.6952306,
  "lon": 18.6841466
},
{
  "type": "node",
  "id": 5916369437,
  "lat": 54.6952477,
  "lon": 18.6838551
},
{
  "type": "node",
  "id": 5916369438,
  "lat": 54.6953261,
  "lon": 18.6838690
},
{
  "type": "way",
  "id": 460826213,
  "nodes": [
    6622438521,
    5364378262,
    4564273047,
    5364378263,
    4870443739,
    7147377456,
    4870443734,
    4564273046,
    5364378273,
    4564273050,
    5364378277,
    5364407953
  ]
},
{
  "type": "way",
  "id": 556089550,
  "nodes": [
    5364378268,
    5364378267,
    5364378266,
    5364378265,
    5364378268
  ]
},
{
  "type": "way",
  "id": 705097155,
  "nodes": [
    5364407953,
    5364378269,
    5364407951,
    4564273055,
    4564273056,
    4925042790,
    4870443728,
    4564273051,
    5364378274,
    5364378275,
    5364378276,
    4564273053,
    5364378260,
    6622438521
  ]
},
{
  "type": "way",
  "id": 224478773,
  "nodes": [
    2333009923,
    3110270844,
    3110270843,
    3110270841,
    3110270840,
    3110270837,
    2333009921,
    2333009919,
    2884367835,
    3110270312,
    3110270310,
    3110270313,
    3110270311,
    3110270315,
    2333009920,
    2333009923
  ]
},
{
  "type": "way",
  "id": 306181521,
  "nodes": [
    3110270834,
    3110270835,
    3110270833,
    3110270830,
    3110270328,
    3110270326,
    3110270324,
    3110270322,
    3110270319,
    3110270317,
    3110270314,
    3110270316,
    3110270318,
    3110270321,
    3110270323,
    3110270325,
    3110270327,
    3110270829,
    3110270832,
    3110270834
  ]
}

  ]
}
