{
  "version": 0.6,
  "generator": "Overpass API 0.7.55.1011 6c2efc30",
  "osm3s": {
    "timestamp_osm_base": "2020-02-14T09:20:02Z",
    "copyright": "The data included in this document is from www.openstreetmap.org. The data is made available under ODbL."
  },
  "elements": [

{
  "type": "node",
  "id": 256663228,
  "lat": 51.8633613,
  "lon": -2.2445720,
  "tags": {
    "name": "Museum of Gloucester",
    "tourism": "museum"
  }
},
{
  "type": "node",
  "id": 681753010,
  "lat": 51.9912152,
  "lon": -2.1601083,
  "tags": {
    "name": "John Moore Countryside Museum",
    "tourism": "museum",
    "url": "http://www.johnmooremuseum.org/"
  }
},
{
  "type": "node",
  "id": 691100484,
  "lat": 51.7932555,
  "lon": -2.4884804,
  "tags": {
    "name": "Dean Heritage Museum",
    "source": "OS OpenData StreetView",
    "source:name": "NaPTAN",
    "tourism": "museum"
  }
},
{
  "type": "node",
  "id": 889453436,
  "lat": 51.8671663,
  "lon": -2.2502510,
  "tags": {
    "name": "Folk Museum",
    "source": "OS OpenData StreetView + local knowedge",
    "tourism": "museum"
  }
},
{
  "type": "node",
  "id": 944698729,
  "lat": 51.9691137,
  "lon": -1.9278959,
  "tags": {
    "operator": "English Heritage",
    "source": "gps_survey",
    "tourism": "museum"
  }
},
{
  "type": "node",
  "id": 1241185079,
  "lat": 52.0643967,
  "lon": -2.2178946,
  "tags": {
    "name": "Upton Heritage Centre",
    "tourism": "museum"
  }
},
{
  "type": "node",
  "id": 1241225905,
  "lat": 52.0641693,
  "lon": -2.2180115,
  "tags": {
    "addr:street": "Church Street",
    "name": "The Tudor House",
    "tourism": "museum"
  }
},
{
  "type": "node",
  "id": 1290611797,
  "lat": 51.8294488,
  "lon": -1.8358690,
  "tags": {
    "name": "Keith Harding's World of Mechanical Music",
    "tourism": "museum"
  }
},
{
  "type": "node",
  "id": 1765066935,
  "lat": 51.9922946,
  "lon": -2.1580402,
  "tags": {
    "addr:housenumber": "100 ",
    "addr:postcode": "GL20 5AB",
    "addr:street": "Church Street",
    "name": "Out of the Hat",
    "tourism": "museum",
    "url": "http://www.outofthehat.org.uk/",
    "wikidata": "Q17539328"
  }
},
{
  "type": "node",
  "id": 2755706956,
  "lat": 51.8956449,
  "lon": -2.1747476,
  "tags": {
    "addr:city": "Gloucester",
    "addr:postcode": "GL2 9QL",
    "addr:street": "Cheltenham Road East",
    "name": "Jet Age Museum",
    "opening_hours": "Sa,Su,PH 10:00-16:00",
    "tourism": "museum",
    "website": "https://www.jetagemuseum.org/",
    "wikidata": "Q15961587"
  }
},
{
  "type": "node",
  "id": 3053244065,
  "lat": 52.1921430,
  "lon": -2.1838977,
  "tags": {
    "name": "The George Marshall Medical Museum",
    "tourism": "museum"
  }
},
{
  "type": "node",
  "id": 3402889388,
  "lat": 51.9523459,
  "lon": -1.9694618,
  "tags": {
    "addr:housenumber": "23",
    "addr:postcode": "GL54 5LX",
    "addr:street": "Gloucester Street",
    "name": "Winchcombe Railway Museum",
    "tourism": "museum",
    "url": "http://www.winchcomberailwaymuseum.co.uk/"
  }
},
{
  "type": "node",
  "id": 3405026244,
  "lat": 51.9882534,
  "lon": -1.7068185,
  "tags": {
    "name": "Wellington Aviation Museum",
    "tourism": "museum",
    "url": "http://www.wellingtonaviation.org/"
  }
},
{
  "type": "node",
  "id": 6828104457,
  "lat": 52.1902495,
  "lon": -2.2190291,
  "tags": {
    "name": "Tudor House Museum",
    "source": "estimate",
    "tourism": "museum"
  }
},
{
  "type": "way",
  "id": 79398247,
  "nodes": [
    926991933,
    926991937,
    2956985299,
    926991928,
    2956985294,
    3122654109,
    3122654104,
    926991940,
    926991933
  ],
  "tags": {
    "HE_ref": "147492",
    "addr:postcode": "WR11 4BQ",
    "addr:street": "Abbey Gate",
    "alt_name": "Almonry Heritage Centre",
    "building": "yes",
    "historic": "yes",
    "listed_status": "Grade I",
    "name": "Almonry",
    "phone": "+44 1386 446944",
    "source:listed_status": "English Heritage",
    "tourism": "museum",
    "website": "http://www.almonryevesham.org/",
    "wikidata": "Q18962174",
    "wikipedia": "en:Almonry Museum and Heritage Centre"
  }
},
{
  "type": "way",
  "id": 84302238,
  "nodes": [
    980316538,
    980316545,
    980316550,
    980316555,
    980316570,
    980316572,
    980316574,
    980316538
  ],
  "tags": {
    "building": "yes",
    "name": "Corinium Museum",
    "tourism": "museum"
  }
},
{
  "type": "way",
  "id": 89571578,
  "nodes": [
    1038284111,
    1038284098,
    1038284108,
    1038284088,
    2747785123,
    2747785125,
    1038284111
  ],
  "tags": {
    "addr:postcode": "GL1 2EH",
    "building": "yes",
    "building_name": "Llanthony Warehouse",
    "name": "Gloucester Waterways Museum",
    "tourism": "museum"
  }
},
{
  "type": "way",
  "id": 106253639,
  "nodes": [
    367040649,
    1223062912,
    1223063374,
    1223063284,
    1223063104,
    1223062996,
    1223063395,
    1223063352,
    1223063182,
    1223063048,
    1223062862,
    1223063394,
    367040649
  ],
  "tags": {
    "addr:housename": "The Chantry",
    "addr:postcode": "GL13 9BN",
    "addr:street": "Church Lane",
    "building": "yes",
    "name": "Jenner Museum",
    "tourism": "museum",
    "wikidata": "Q5343755"
  }
},
{
  "type": "way",
  "id": 165991865,
  "nodes": [
    1774881817,
    1774881553,
    1774881824,
    1774881625,
    3929838559,
    1774881756,
    1774881728,
    1774881682,
    1774881752,
    1774881701,
    1774881556,
    1774881815,
    3959965103,
    3959965102,
    3959965101,
    1774881641,
    1774881672,
    1774881803,
    1774881588,
    1774881817
  ],
  "tags": {
    "addr:city": "Cheltenham",
    "addr:postcode": "GL50 3JT",
    "addr:street": "Clarence Street",
    "alt_name": "The Wilson Cheltenham Art Gallery & Museum",
    "building": "public",
    "name": "The Wilson",
    "old_name": "Cheltenham Art Gallery & Museum",
    "opening_hours": "Mo-Sa 09:30-17:15; Th 09:30-19:45; Su 11:00-16:00",
    "tourism": "museum",
    "website": "https://www.cheltenhammuseum.org.uk/"
  }
},
{
  "type": "way",
  "id": 167785261,
  "nodes": [
    1791440737,
    1791440718,
    1791440754,
    1791440732,
    1791440750,
    1791440649,
    1791440640,
    1791440737
  ],
  "tags": {
    "addr:housenumber": "4",
    "addr:street": "Clarence Road",
    "building": "museum",
    "name": "Holst Birthplace Museum",
    "tourism": "museum",
    "website": "http://www.holstmuseum.org.uk"
  }
},
{
  "type": "way",
  "id": 168417703,
  "nodes": [
    1796884816,
    1796884779,
    1796884768,
    1796884804,
    1796884767,
    1796884806,
    1796884811,
    1796884800,
    1796884773,
    6612071265,
    1796884820,
    1796884790,
    1796884825,
    1796884763,
    6612071261,
    1796884777,
    1796884766,
    1796884781,
    1796884776,
    1796884799,
    1796884782,
    1796884816
  ],
  "tags": {
    "addr:postcode": "GL5 4AF",
    "building": "yes",
    "name": "The Museum in the Park",
    "tourism": "museum",
    "website": "https://museuminthepark.org.uk/",
    "wikidata": "Q26557846"
  }
},
{
  "type": "way",
  "id": 246650420,
  "nodes": [
    2536600847,
    2536600842,
    2536600833,
    2536600845,
    2536600835,
    2536600830,
    2536600827,
    2536600839,
    2536600847
  ],
  "tags": {
    "building": "yes",
    "name": "Court Barn",
    "tourism": "museum"
  }
},
{
  "type": "way",
  "id": 266147107,
  "nodes": [
    2717272786,
    2717272783,
    2717272769,
    2717272765,
    2717272760,
    2723441137,
    2723441139,
    2723441135,
    2717272767,
    2723971762,
    2717272786
  ],
  "tags": {
    "building": "yes",
    "name": "Museum of Royal Worcester",
    "source": "bing",
    "tourism": "museum",
    "wikidata": "Q540718"
  }
},
{
  "type": "way",
  "id": 266149681,
  "nodes": [
    2717298450,
    2723459681,
    2717298437,
    2717298467,
    2717298471,
    2717298483,
    2717298479,
    2717298548,
    2717298544,
    2717298508,
    2717298496,
    2717298502,
    2717298498,
    2717298516,
    2717298504,
    5875321695,
    2717298487,
    2717298493,
    2717298464,
    2717298460,
    2717298448,
    2717298452,
    2717298442,
    2717298444,
    2717298456,
    2717298454,
    2717298475,
    2717298477,
    2717298485,
    2717298491,
    2717298450
  ],
  "tags": {
    "addr:city": "Worcester",
    "addr:postcode": "WR1 2HU",
    "addr:street": "Sidbury",
    "building": "yes",
    "fhrs:id": "685561",
    "heritage": "2",
    "heritage:operator": "eh",
    "listed_status": "Grade I",
    "name": "The Commandery",
    "source": "bing",
    "tourism": "museum",
    "wikidata": "Q7726974"
  }
},
{
  "type": "way",
  "id": 269596620,
  "nodes": [
    2747755719,
    2747755721,
    2747755722,
    2747755724,
    2747755720,
    2747755715,
    2747755717,
    2747755714,
    2747755719
  ],
  "tags": {
    "building": "yes",
    "fee": "yes",
    "name": "Soldiers of Gloucestershire",
    "tourism": "museum"
  }
},
{
  "type": "way",
  "id": 271835824,
  "nodes": [
    2767791999,
    2767792002,
    2767791997,
    2767791994,
    2767791992,
    2767791989,
    2767791999
  ],
  "tags": {
    "building": "yes",
    "heritage": "2",
    "heritage:operator": "Historic England",
    "listed_status": "Grade II*",
    "name": "City Art Gallery & Museum",
    "source": "visual survey;bing",
    "tourism": "museum",
    "wikidata": "Q8034152"
  }
},
{
  "type": "way",
  "id": 275356458,
  "nodes": [
    2799984816,
    2799984817,
    2799984818,
    2799984819,
    2799984820,
    4091069448,
    2799984821,
    2799984822,
    2799984823,
    2799984816
  ],
  "tags": {
    "addr:city": "Wotton-under-Edge",
    "addr:postcode": "GL12 7AD",
    "addr:street": "The Chipping",
    "building": "yes",
    "fhrs:id": "216131",
    "name": "Wotton-under-Edge Heritage Centre",
    "tourism": "museum",
    "website": "https://www.wottonheritage.com/"
  }
},
{
  "type": "way",
  "id": 291777054,
  "nodes": [
    2952754217,
    2952754218,
    2952754219,
    2952754220,
    2952754217
  ],
  "tags": {
    "addr:city": "Ledbury",
    "addr:postcode": "HR8 1DN",
    "addr:street": "Church Lane",
    "building": "yes",
    "name": "Ledbury Heritage Centre",
    "tourism": "museum"
  }
},
{
  "type": "way",
  "id": 299920722,
  "nodes": [
    3040065167,
    3040065168,
    3040065169,
    3040065170,
    3040065167
  ],
  "tags": {
    "addr:city": "Ledbury",
    "addr:housename": "Butcher Row House",
    "addr:postcode": "HR8 1DW",
    "addr:street": "Church Lane",
    "building": "yes",
    "name": "Butcher Row House Museum",
    "operator": "Ledbury & District Civic Society",
    "tourism": "museum",
    "website": "http://www.ledburycivicsociety.org/butcherrowhouse.html"
  }
},
{
  "type": "way",
  "id": 317444737,
  "nodes": [
    2836129574,
    3237083851,
    3237083852,
    3237083848,
    3237083850,
    3237083853,
    2836129574
  ],
  "tags": {
    "building": "yes",
    "tourism": "museum"
  }
},
{
  "type": "way",
  "id": 350190508,
  "nodes": [
    3559397103,
    3559397105,
    3559397118,
    3559397114,
    3559397103
  ],
  "tags": {
    "HE_ref": "400524",
    "addr:city": "Broadway",
    "addr:housename": "Tudor House",
    "addr:street": "High Street",
    "building": "yes",
    "heritage": "2",
    "heritage:operator": "Historic England",
    "listed_status": "Grade II*",
    "name": "Broadway Museum and Art Gallery",
    "source:listed_status": "English Heritage",
    "tourism": "museum",
    "website": "https://broadwaymuseum.org.uk/"
  }
},
{
  "type": "way",
  "id": 350680239,
  "nodes": [
    3564449385,
    3564449387,
    3564449390,
    3564449391,
    3564450093,
    3564450095,
    3564450094,
    3564449392,
    3564450101,
    3564450103,
    3564450104,
    3564450102,
    3564450100,
    3564450099,
    3564450098,
    3564450097,
    3564449385
  ],
  "tags": {
    "HE_ref": "486745",
    "addr:street": "Russell Square",
    "building": "yes",
    "historic": "yes",
    "listed_status": "Grade II",
    "name": "Gordon Russell Museum",
    "old_name": "Drawing Office at Gordon Russell Ltd",
    "source:listed_status": "English Heritage",
    "tourism": "museum",
    "url": "http://www.gordonrussellmuseum.org/"
  }
},
{
  "type": "way",
  "id": 448624720,
  "nodes": [
    668950249,
    4456210629,
    4456210618,
    4456210627,
    4456209757,
    668950249
  ],
  "tags": {
    "addr:city": "Bourton-on-the-Water",
    "addr:country": "GB",
    "addr:housename": "The Old Mill",
    "addr:postcode": "GL54 2BY",
    "contact:email": "museum@cotswoldmotormuseum.co.uk",
    "contact:phone": "+44 (0)1451 821255",
    "contact:website": "cotswoldmotoingrmuseum.co.uk",
    "name": "Cotswold Motoring Museum & Toy Collection",
    "operator": "Boundless by CSMA",
    "tourism": "museum"
  }
},
{
  "type": "way",
  "id": 504445705,
  "nodes": [
    4946078499,
    4946078494,
    4946078493,
    4946078492,
    4946078481,
    539530945,
    4946078308,
    4946078491,
    4946078490,
    4946078489,
    4946078488,
    4946078487,
    4946078486,
    4946078485,
    4946078484,
    4946078483,
    4946078482,
    4946078499
  ],
  "tags": {
    "addr:city": "Tetbury",
    "addr:housename": "The Old Courthouse",
    "addr:housename2": "Police Station and Re Sessional Court",
    "addr:housenumber": "63",
    "addr:postcode": "GL8 8AA",
    "addr:street": "Long Street",
    "building": "yes",
    "name": "Tetbury Police Museum & Courtroom",
    "tourism": "museum"
  }
},
{
  "type": "way",
  "id": 604762185,
  "nodes": [
    5737660871,
    5737660870,
    5737660869,
    5737660868,
    5737660867,
    5737660866,
    5737660865,
    5737660864,
    5737660872,
    5737660871
  ],
  "tags": {
    "building": "yes",
    "name": "Tolsey Museum",
    "tourism": "museum"
  }
},
{
  "type": "way",
  "id": 659938006,
  "nodes": [
    6178747807,
    6178747808,
    6178747806,
    6178747809,
    6178747810,
    6178747805,
    6178747807
  ],
  "tags": {
    "addr:city": "Malvern",
    "addr:street": "Abbey Road",
    "building": "yes",
    "heritage": "2",
    "heritage:operator": "Historic England",
    "listed_status": "Grade II*",
    "name": "Malvern Museum",
    "tourism": "museum",
    "wikidata": "Q6745082",
    "wikipedia": "en:Malvern Museum"
  }
},
{
  "type": "way",
  "id": 696525612,
  "nodes": [
    6541050873,
    6541050852,
    6541050843,
    6541050853,
    6541050871,
    6541050866,
    6541050873
  ],
  "tags": {
    "addr:housenumber": "64",
    "addr:postcode": "GL20 5PX",
    "addr:street": "Barton Street",
    "building": "yes",
    "name": "Tewkesbury Museum",
    "source": "Bing",
    "tourism": "museum",
    "website": "https://www.tewkesburymuseum.org/",
    "wikidata": "Q7707197"
  }
},
{
  "type": "way",
  "id": 696732675,
  "nodes": [
    6534045831,
    6543080719,
    6543080714,
    6543080721,
    6543080716,
    6543080722,
    6543080724,
    6543080713,
    6534045831
  ],
  "tags": {
    "building": "yes",
    "name": "Winchcombe Museum",
    "source:outline": "Bing",
    "tourism": "museum"
  }
},
{
  "type": "relation",
  "id": 6983858,
  "members": [
    {
      "type": "way",
      "ref": 474865676,
      "role": "outer"
    },
    {
      "type": "way",
      "ref": 443669735,
      "role": "outer"
    }
  ],
  "tags": {
    "name": "RAF Defford Museum",
    "tourism": "museum",
    "type": "multipolygon"
  }
},
{
  "type": "node",
  "id": 367040649,
  "lat": 51.6903090,
  "lon": -2.4575443
},
{
  "type": "node",
  "id": 1223062862,
  "lat": 51.6901679,
  "lon": -2.4573722
},
{
  "type": "node",
  "id": 1223062912,
  "lat": 51.6902978,
  "lon": -2.4573882
},
{
  "type": "node",
  "id": 1223062996,
  "lat": 51.6902519,
  "lon": -2.4570691
},
{
  "type": "node",
  "id": 1223063048,
  "lat": 51.6902390,
  "lon": -2.4573589
},
{
  "type": "node",
  "id": 1223063104,
  "lat": 51.6902658,
  "lon": -2.4572618
},
{
  "type": "node",
  "id": 1223063182,
  "lat": 51.6902328,
  "lon": -2.4572731
},
{
  "type": "node",
  "id": 1223063284,
  "lat": 51.6903392,
  "lon": -2.4572480
},
{
  "type": "node",
  "id": 1223063352,
  "lat": 51.6902144,
  "lon": -2.4572766
},
{
  "type": "node",
  "id": 1223063374,
  "lat": 51.6903486,
  "lon": -2.4573787
},
{
  "type": "node",
  "id": 1223063394,
  "lat": 51.6901820,
  "lon": -2.4575680
},
{
  "type": "node",
  "id": 1223063395,
  "lat": 51.6902002,
  "lon": -2.4570788
},
{
  "type": "node",
  "id": 2799984816,
  "lat": 51.6368142,
  "lon": -2.3539722
},
{
  "type": "node",
  "id": 2799984817,
  "lat": 51.6367687,
  "lon": -2.3537938
},
{
  "type": "node",
  "id": 2799984818,
  "lat": 51.6366721,
  "lon": -2.3538595
},
{
  "type": "node",
  "id": 2799984819,
  "lat": 51.6366891,
  "lon": -2.3539242
},
{
  "type": "node",
  "id": 2799984820,
  "lat": 51.6367198,
  "lon": -2.3539032
},
{
  "type": "node",
  "id": 2799984821,
  "lat": 51.6367426,
  "lon": -2.3539900
},
{
  "type": "node",
  "id": 2799984822,
  "lat": 51.6367634,
  "lon": -2.3539758
},
{
  "type": "node",
  "id": 2799984823,
  "lat": 51.6367694,
  "lon": -2.3539986
},
{
  "type": "node",
  "id": 4091069448,
  "lat": 51.6367317,
  "lon": -2.3539485
},
{
  "type": "node",
  "id": 539530945,
  "lat": 51.6390708,
  "lon": -2.1618150
},
{
  "type": "node",
  "id": 4946078308,
  "lat": 51.6390802,
  "lon": -2.1616913
},
{
  "type": "node",
  "id": 4946078481,
  "lat": 51.6390118,
  "lon": -2.1618034
},
{
  "type": "node",
  "id": 4946078482,
  "lat": 51.6389365,
  "lon": -2.1617626
},
{
  "type": "node",
  "id": 4946078483,
  "lat": 51.6389272,
  "lon": -2.1617608
},
{
  "type": "node",
  "id": 4946078484,
  "lat": 51.6389328,
  "lon": -2.1616872
},
{
  "type": "node",
  "id": 4946078485,
  "lat": 51.6389447,
  "lon": -2.1616895
},
{
  "type": "node",
  "id": 4946078486,
  "lat": 51.6389503,
  "lon": -2.1616151
},
{
  "type": "node",
  "id": 4946078487,
  "lat": 51.6390053,
  "lon": -2.1616259
},
{
  "type": "node",
  "id": 4946078488,
  "lat": 51.6390029,
  "lon": -2.1616574
},
{
  "type": "node",
  "id": 4946078489,
  "lat": 51.6390480,
  "lon": -2.1616663
},
{
  "type": "node",
  "id": 4946078490,
  "lat": 51.6390496,
  "lon": -2.1616451
},
{
  "type": "node",
  "id": 4946078491,
  "lat": 51.6390832,
  "lon": -2.1616517
},
{
  "type": "node",
  "id": 4946078492,
  "lat": 51.6389954,
  "lon": -2.1618002
},
{
  "type": "node",
  "id": 4946078493,
  "lat": 51.6389949,
  "lon": -2.1618068
},
{
  "type": "node",
  "id": 4946078494,
  "lat": 51.6389341,
  "lon": -2.1617949
},
{
  "type": "node",
  "id": 4946078499,
  "lat": 51.6389348,
  "lon": -2.1617849
},
{
  "type": "node",
  "id": 1796884763,
  "lat": 51.7498274,
  "lon": -2.2239764
},
{
  "type": "node",
  "id": 1796884766,
  "lat": 51.7494954,
  "lon": -2.2241147
},
{
  "type": "node",
  "id": 1796884767,
  "lat": 51.7495893,
  "lon": -2.2235806
},
{
  "type": "node",
  "id": 1796884768,
  "lat": 51.7495717,
  "lon": -2.2236233
},
{
  "type": "node",
  "id": 1796884773,
  "lat": 51.7498066,
  "lon": -2.2236240
},
{
  "type": "node",
  "id": 1796884776,
  "lat": 51.7496004,
  "lon": -2.2240534
},
{
  "type": "node",
  "id": 1796884777,
  "lat": 51.7495670,
  "lon": -2.2242738
},
{
  "type": "node",
  "id": 1796884779,
  "lat": 51.7495897,
  "lon": -2.2236252
},
{
  "type": "node",
  "id": 1796884781,
  "lat": 51.7495863,
  "lon": -2.2240182
},
{
  "type": "node",
  "id": 1796884782,
  "lat": 51.7497168,
  "lon": -2.2237223
},
{
  "type": "node",
  "id": 1796884790,
  "lat": 51.7498049,
  "lon": -2.2238025
},
{
  "type": "node",
  "id": 1796884799,
  "lat": 51.7497300,
  "lon": -2.2239057
},
{
  "type": "node",
  "id": 1796884800,
  "lat": 51.7497712,
  "lon": -2.2236203
},
{
  "type": "node",
  "id": 1796884804,
  "lat": 51.7495735,
  "lon": -2.2235790
},
{
  "type": "node",
  "id": 1796884806,
  "lat": 51.7495926,
  "lon": -2.2234975
},
{
  "type": "node",
  "id": 1796884811,
  "lat": 51.7497754,
  "lon": -2.2235164
},
{
  "type": "node",
  "id": 1796884816,
  "lat": 51.7495865,
  "lon": -2.2237081
},
{
  "type": "node",
  "id": 1796884820,
  "lat": 51.7498024,
  "lon": -2.2237304
},
{
  "type": "node",
  "id": 1796884825,
  "lat": 51.7498176,
  "lon": -2.2238013
},
{
  "type": "node",
  "id": 6612071261,
  "lat": 51.7495992,
  "lon": -2.2242370
},
{
  "type": "node",
  "id": 6612071265,
  "lat": 51.7498030,
  "lon": -2.2237143
},
{
  "type": "node",
  "id": 2836129574,
  "lat": 51.9952816,
  "lon": -2.5130214
},
{
  "type": "node",
  "id": 3237083848,
  "lat": 51.9951635,
  "lon": -2.5133679
},
{
  "type": "node",
  "id": 3237083850,
  "lat": 51.9951957,
  "lon": -2.5134155
},
{
  "type": "node",
  "id": 3237083851,
  "lat": 51.9952507,
  "lon": -2.5130666
},
{
  "type": "node",
  "id": 3237083852,
  "lat": 51.9952817,
  "lon": -2.5131290
},
{
  "type": "node",
  "id": 3237083853,
  "lat": 51.9953414,
  "lon": -2.5131282
},
{
  "type": "node",
  "id": 1038284088,
  "lat": 51.8618053,
  "lon": -2.2522021
},
{
  "type": "node",
  "id": 1038284098,
  "lat": 51.8618371,
  "lon": -2.2530505
},
{
  "type": "node",
  "id": 1038284111,
  "lat": 51.8616908,
  "lon": -2.2525648
},
{
  "type": "node",
  "id": 2747785123,
  "lat": 51.8617597,
  "lon": -2.2522381
},
{
  "type": "node",
  "id": 2747785125,
  "lat": 51.8618260,
  "lon": -2.2524580
},
{
  "type": "node",
  "id": 1038284108,
  "lat": 51.8620179,
  "lon": -2.2529077
},
{
  "type": "node",
  "id": 2747755714,
  "lat": 51.8637363,
  "lon": -2.2500533
},
{
  "type": "node",
  "id": 2747755715,
  "lat": 51.8637513,
  "lon": -2.2499753
},
{
  "type": "node",
  "id": 2747755717,
  "lat": 51.8637689,
  "lon": -2.2500106
},
{
  "type": "node",
  "id": 2747755719,
  "lat": 51.8638320,
  "lon": -2.2502450
},
{
  "type": "node",
  "id": 2747755720,
  "lat": 51.8638450,
  "lon": -2.2498526
},
{
  "type": "node",
  "id": 2747755721,
  "lat": 51.8638645,
  "lon": -2.2502024
},
{
  "type": "node",
  "id": 2747755722,
  "lat": 51.8638909,
  "lon": -2.2502551
},
{
  "type": "node",
  "id": 2747755724,
  "lat": 51.8639847,
  "lon": -2.2501323
},
{
  "type": "node",
  "id": 6541050843,
  "lat": 51.9925759,
  "lon": -2.1551878
},
{
  "type": "node",
  "id": 6541050852,
  "lat": 51.9927040,
  "lon": -2.1552218
},
{
  "type": "node",
  "id": 6541050853,
  "lat": 51.9925681,
  "lon": -2.1552650
},
{
  "type": "node",
  "id": 6541050866,
  "lat": 51.9925995,
  "lon": -2.1553508
},
{
  "type": "node",
  "id": 6541050871,
  "lat": 51.9926071,
  "lon": -2.1552753
},
{
  "type": "node",
  "id": 6541050873,
  "lat": 51.9926887,
  "lon": -2.1553745
},
{
  "type": "node",
  "id": 980316538,
  "lat": 51.7172667,
  "lon": -1.9708361
},
{
  "type": "node",
  "id": 980316545,
  "lat": 51.7174196,
  "lon": -1.9707931
},
{
  "type": "node",
  "id": 980316550,
  "lat": 51.7174860,
  "lon": -1.9708575
},
{
  "type": "node",
  "id": 980316555,
  "lat": 51.7176788,
  "lon": -1.9709112
},
{
  "type": "node",
  "id": 980316570,
  "lat": 51.7177253,
  "lon": -1.9705893
},
{
  "type": "node",
  "id": 980316572,
  "lat": 51.7174594,
  "lon": -1.9704927
},
{
  "type": "node",
  "id": 980316574,
  "lat": 51.7172534,
  "lon": -1.9702889
},
{
  "type": "node",
  "id": 1774881553,
  "lat": 51.9011214,
  "lon": -2.0778109
},
{
  "type": "node",
  "id": 1774881588,
  "lat": 51.9011463,
  "lon": -2.0776246
},
{
  "type": "node",
  "id": 1774881625,
  "lat": 51.9011397,
  "lon": -2.0778784
},
{
  "type": "node",
  "id": 1774881682,
  "lat": 51.9012430,
  "lon": -2.0780414
},
{
  "type": "node",
  "id": 1774881728,
  "lat": 51.9011875,
  "lon": -2.0779328
},
{
  "type": "node",
  "id": 1774881756,
  "lat": 51.9011776,
  "lon": -2.0779476
},
{
  "type": "node",
  "id": 1774881803,
  "lat": 51.9012117,
  "lon": -2.0775397
},
{
  "type": "node",
  "id": 1774881817,
  "lat": 51.9011912,
  "lon": -2.0777155
},
{
  "type": "node",
  "id": 1774881824,
  "lat": 51.9011114,
  "lon": -2.0778215
},
{
  "type": "node",
  "id": 3929838559,
  "lat": 51.9011625,
  "lon": -2.0779200
},
{
  "type": "node",
  "id": 1774881556,
  "lat": 51.9014186,
  "lon": -2.0778241
},
{
  "type": "node",
  "id": 1774881641,
  "lat": 51.9012942,
  "lon": -2.0775751
},
{
  "type": "node",
  "id": 1774881701,
  "lat": 51.9012993,
  "lon": -2.0779918
},
{
  "type": "node",
  "id": 1774881752,
  "lat": 51.9012870,
  "lon": -2.0779716
},
{
  "type": "node",
  "id": 1774881815,
  "lat": 51.9013433,
  "lon": -2.0776748
},
{
  "type": "node",
  "id": 3959965101,
  "lat": 51.9012988,
  "lon": -2.0775707
},
{
  "type": "node",
  "id": 3959965102,
  "lat": 51.9013229,
  "lon": -2.0776202
},
{
  "type": "node",
  "id": 3959965103,
  "lat": 51.9013451,
  "lon": -2.0776660
},
{
  "type": "node",
  "id": 1774881672,
  "lat": 51.9012652,
  "lon": -2.0774755
},
{
  "type": "node",
  "id": 1791440640,
  "lat": 51.9039727,
  "lon": -2.0706502
},
{
  "type": "node",
  "id": 1791440649,
  "lat": 51.9040016,
  "lon": -2.0706327
},
{
  "type": "node",
  "id": 1791440718,
  "lat": 51.9039905,
  "lon": -2.0705815
},
{
  "type": "node",
  "id": 1791440732,
  "lat": 51.9040887,
  "lon": -2.0706209
},
{
  "type": "node",
  "id": 1791440737,
  "lat": 51.9039610,
  "lon": -2.0705994
},
{
  "type": "node",
  "id": 1791440750,
  "lat": 51.9040100,
  "lon": -2.0706687
},
{
  "type": "node",
  "id": 1791440754,
  "lat": 51.9040686,
  "lon": -2.0705340
},
{
  "type": "node",
  "id": 6534045831,
  "lat": 51.9535287,
  "lon": -1.9640736
},
{
  "type": "node",
  "id": 6543080713,
  "lat": 51.9536319,
  "lon": -1.9642288
},
{
  "type": "node",
  "id": 6543080714,
  "lat": 51.9536074,
  "lon": -1.9640495
},
{
  "type": "node",
  "id": 6543080719,
  "lat": 51.9535724,
  "lon": -1.9639969
},
{
  "type": "node",
  "id": 6543080721,
  "lat": 51.9536387,
  "lon": -1.9639947
},
{
  "type": "node",
  "id": 6543080722,
  "lat": 51.9536463,
  "lon": -1.9641074
},
{
  "type": "node",
  "id": 6543080724,
  "lat": 51.9536758,
  "lon": -1.9641518
},
{
  "type": "node",
  "id": 6543080716,
  "lat": 51.9536774,
  "lon": -1.9640529
},
{
  "type": "node",
  "id": 668950249,
  "lat": 51.8846718,
  "lon": -1.7587180
},
{
  "type": "node",
  "id": 4456209757,
  "lat": 51.8845578,
  "lon": -1.7591838
},
{
  "type": "node",
  "id": 4456210618,
  "lat": 51.8850167,
  "lon": -1.7593477
},
{
  "type": "node",
  "id": 4456210627,
  "lat": 51.8846620,
  "lon": -1.7597182
},
{
  "type": "node",
  "id": 4456210629,
  "lat": 51.8847951,
  "lon": -1.7586348
},
{
  "type": "node",
  "id": 2952754217,
  "lat": 52.0372392,
  "lon": -2.4215364
},
{
  "type": "node",
  "id": 2952754218,
  "lat": 52.0371897,
  "lon": -2.4215368
},
{
  "type": "node",
  "id": 2952754219,
  "lat": 52.0371917,
  "lon": -2.4217853
},
{
  "type": "node",
  "id": 2952754220,
  "lat": 52.0372421,
  "lon": -2.4217827
},
{
  "type": "node",
  "id": 3040065167,
  "lat": 52.0371100,
  "lon": -2.4219306
},
{
  "type": "node",
  "id": 3040065168,
  "lat": 52.0370512,
  "lon": -2.4219287
},
{
  "type": "node",
  "id": 3040065169,
  "lat": 52.0370521,
  "lon": -2.4218541
},
{
  "type": "node",
  "id": 3040065170,
  "lat": 52.0371109,
  "lon": -2.4218561
},
{
  "type": "node",
  "id": 6178747805,
  "lat": 52.1105413,
  "lon": -2.3295224
},
{
  "type": "node",
  "id": 6178747806,
  "lat": 52.1104739,
  "lon": -2.3294979
},
{
  "type": "node",
  "id": 6178747807,
  "lat": 52.1105365,
  "lon": -2.3296380
},
{
  "type": "node",
  "id": 6178747808,
  "lat": 52.1104684,
  "lon": -2.3296305
},
{
  "type": "node",
  "id": 6178747809,
  "lat": 52.1104801,
  "lon": -2.3293625
},
{
  "type": "node",
  "id": 6178747810,
  "lat": 52.1105482,
  "lon": -2.3293708
},
{
  "type": "node",
  "id": 1144766671,
  "lat": 52.1047376,
  "lon": -2.1665272
},
{
  "type": "node",
  "id": 1144766969,
  "lat": 52.1048573,
  "lon": -2.1662218
},
{
  "type": "node",
  "id": 1144767507,
  "lat": 52.1047795,
  "lon": -2.1661957
},
{
  "type": "node",
  "id": 1144767824,
  "lat": 52.1048317,
  "lon": -2.1664243
},
{
  "type": "node",
  "id": 1144768486,
  "lat": 52.1049785,
  "lon": -2.1664735
},
{
  "type": "node",
  "id": 1144769158,
  "lat": 52.1049622,
  "lon": -2.1666025
},
{
  "type": "node",
  "id": 4412263968,
  "lat": 52.1047035,
  "lon": -2.1664621
},
{
  "type": "node",
  "id": 4412263971,
  "lat": 52.1047104,
  "lon": -2.1664033
},
{
  "type": "node",
  "id": 4412263972,
  "lat": 52.1047443,
  "lon": -2.1664764
},
{
  "type": "node",
  "id": 4412263973,
  "lat": 52.1047515,
  "lon": -2.1664147
},
{
  "type": "node",
  "id": 4412263983,
  "lat": 52.1051085,
  "lon": -2.1666274
},
{
  "type": "node",
  "id": 4412263984,
  "lat": 52.1051119,
  "lon": -2.1667185
},
{
  "type": "node",
  "id": 4412263985,
  "lat": 52.1051885,
  "lon": -2.1666195
},
{
  "type": "node",
  "id": 4412263986,
  "lat": 52.1051919,
  "lon": -2.1667106
},
{
  "type": "node",
  "id": 4687272240,
  "lat": 52.1051122,
  "lon": -2.1666691
},
{
  "type": "node",
  "id": 4687272241,
  "lat": 52.1047263,
  "lon": -2.1664706
},
{
  "type": "node",
  "id": 2717272760,
  "lat": 52.1871098,
  "lon": -2.2187756
},
{
  "type": "node",
  "id": 2717272765,
  "lat": 52.1871514,
  "lon": -2.2187614
},
{
  "type": "node",
  "id": 2717272767,
  "lat": 52.1870265,
  "lon": -2.2192470
},
{
  "type": "node",
  "id": 2717272769,
  "lat": 52.1871699,
  "lon": -2.2189059
},
{
  "type": "node",
  "id": 2717272783,
  "lat": 52.1873643,
  "lon": -2.2188397
},
{
  "type": "node",
  "id": 2717272786,
  "lat": 52.1874001,
  "lon": -2.2191197
},
{
  "type": "node",
  "id": 2717298437,
  "lat": 52.1875889,
  "lon": -2.2171830
},
{
  "type": "node",
  "id": 2717298442,
  "lat": 52.1876059,
  "lon": -2.2167519
},
{
  "type": "node",
  "id": 2717298444,
  "lat": 52.1876284,
  "lon": -2.2168721
},
{
  "type": "node",
  "id": 2717298448,
  "lat": 52.1876506,
  "lon": -2.2165666
},
{
  "type": "node",
  "id": 2717298450,
  "lat": 52.1876563,
  "lon": -2.2170369
},
{
  "type": "node",
  "id": 2717298452,
  "lat": 52.1876785,
  "lon": -2.2167158
},
{
  "type": "node",
  "id": 2717298454,
  "lat": 52.1876827,
  "lon": -2.2168265
},
{
  "type": "node",
  "id": 2717298456,
  "lat": 52.1876859,
  "lon": -2.2168435
},
{
  "type": "node",
  "id": 2717298460,
  "lat": 52.1877110,
  "lon": -2.2165365
},
{
  "type": "node",
  "id": 2717298464,
  "lat": 52.1877381,
  "lon": -2.2166815
},
{
  "type": "node",
  "id": 2717298467,
  "lat": 52.1877924,
  "lon": -2.2170817
},
{
  "type": "node",
  "id": 2717298471,
  "lat": 52.1878098,
  "lon": -2.2171749
},
{
  "type": "node",
  "id": 2717298475,
  "lat": 52.1878316,
  "lon": -2.2167525
},
{
  "type": "node",
  "id": 2717298477,
  "lat": 52.1878449,
  "lon": -2.2168235
},
{
  "type": "node",
  "id": 2717298479,
  "lat": 52.1878539,
  "lon": -2.2170490
},
{
  "type": "node",
  "id": 2717298483,
  "lat": 52.1878716,
  "lon": -2.2171441
},
{
  "type": "node",
  "id": 2717298485,
  "lat": 52.1878752,
  "lon": -2.2168084
},
{
  "type": "node",
  "id": 2717298487,
  "lat": 52.1878758,
  "lon": -2.2164410
},
{
  "type": "node",
  "id": 2717298491,
  "lat": 52.1878957,
  "lon": -2.2169179
},
{
  "type": "node",
  "id": 2717298493,
  "lat": 52.1879052,
  "lon": -2.2165984
},
{
  "type": "node",
  "id": 2717298496,
  "lat": 52.1879371,
  "lon": -2.2166725
},
{
  "type": "node",
  "id": 2717298498,
  "lat": 52.1879450,
  "lon": -2.2166173
},
{
  "type": "node",
  "id": 2717298502,
  "lat": 52.1879537,
  "lon": -2.2166642
},
{
  "type": "node",
  "id": 2717298504,
  "lat": 52.1879660,
  "lon": -2.2163961
},
{
  "type": "node",
  "id": 2717298508,
  "lat": 52.1879732,
  "lon": -2.2168652
},
{
  "type": "node",
  "id": 2717298516,
  "lat": 52.1880021,
  "lon": -2.2165889
},
{
  "type": "node",
  "id": 2717298544,
  "lat": 52.1881422,
  "lon": -2.2167812
},
{
  "type": "node",
  "id": 2717298548,
  "lat": 52.1881634,
  "lon": -2.2168951
},
{
  "type": "node",
  "id": 2723441135,
  "lat": 52.1869999,
  "lon": -2.2190392
},
{
  "type": "node",
  "id": 2723441137,
  "lat": 52.1870683,
  "lon": -2.2187897
},
{
  "type": "node",
  "id": 2723441139,
  "lat": 52.1870961,
  "lon": -2.2190064
},
{
  "type": "node",
  "id": 2723459681,
  "lat": 52.1875608,
  "lon": -2.2170973
},
{
  "type": "node",
  "id": 2723971762,
  "lat": 52.1873435,
  "lon": -2.2191390
},
{
  "type": "node",
  "id": 5875321695,
  "lat": 52.1879369,
  "lon": -2.2164112
},
{
  "type": "node",
  "id": 2767791989,
  "lat": 52.1962132,
  "lon": -2.2224684
},
{
  "type": "node",
  "id": 2767791992,
  "lat": 52.1963143,
  "lon": -2.2219640
},
{
  "type": "node",
  "id": 2767791994,
  "lat": 52.1963362,
  "lon": -2.2219757
},
{
  "type": "node",
  "id": 2767791997,
  "lat": 52.1963559,
  "lon": -2.2218775
},
{
  "type": "node",
  "id": 2767791999,
  "lat": 52.1964409,
  "lon": -2.2225899
},
{
  "type": "node",
  "id": 2767792002,
  "lat": 52.1965617,
  "lon": -2.2219873
},
{
  "type": "node",
  "id": 926991928,
  "lat": 52.0911370,
  "lon": -1.9494586
},
{
  "type": "node",
  "id": 926991933,
  "lat": 52.0912853,
  "lon": -1.9495042
},
{
  "type": "node",
  "id": 926991937,
  "lat": 52.0912305,
  "lon": -1.9495385
},
{
  "type": "node",
  "id": 926991940,
  "lat": 52.0911977,
  "lon": -1.9490765
},
{
  "type": "node",
  "id": 2956985294,
  "lat": 52.0910793,
  "lon": -1.9492178
},
{
  "type": "node",
  "id": 2956985299,
  "lat": 52.0912077,
  "lon": -1.9494267
},
{
  "type": "node",
  "id": 3122654104,
  "lat": 52.0910944,
  "lon": -1.9491471
},
{
  "type": "node",
  "id": 3122654109,
  "lat": 52.0911068,
  "lon": -1.9491993
},
{
  "type": "node",
  "id": 3564449385,
  "lat": 52.0368311,
  "lon": -1.8621140
},
{
  "type": "node",
  "id": 3564449387,
  "lat": 52.0368475,
  "lon": -1.8621915
},
{
  "type": "node",
  "id": 3564449390,
  "lat": 52.0368581,
  "lon": -1.8622709
},
{
  "type": "node",
  "id": 3564449391,
  "lat": 52.0368640,
  "lon": -1.8623388
},
{
  "type": "node",
  "id": 3564449392,
  "lat": 52.0368670,
  "lon": -1.8625761
},
{
  "type": "node",
  "id": 3564450093,
  "lat": 52.0368676,
  "lon": -1.8624125
},
{
  "type": "node",
  "id": 3564450094,
  "lat": 52.0368676,
  "lon": -1.8625225
},
{
  "type": "node",
  "id": 3564450095,
  "lat": 52.0368681,
  "lon": -1.8624804
},
{
  "type": "node",
  "id": 3564450097,
  "lat": 52.0368867,
  "lon": -1.8620943
},
{
  "type": "node",
  "id": 3564450098,
  "lat": 52.0369020,
  "lon": -1.8621776
},
{
  "type": "node",
  "id": 3564450099,
  "lat": 52.0369126,
  "lon": -1.8622570
},
{
  "type": "node",
  "id": 3564450100,
  "lat": 52.0369185,
  "lon": -1.8623249
},
{
  "type": "node",
  "id": 3564450101,
  "lat": 52.0369202,
  "lon": -1.8625803
},
{
  "type": "node",
  "id": 3564450102,
  "lat": 52.0369220,
  "lon": -1.8623986
},
{
  "type": "node",
  "id": 3564450103,
  "lat": 52.0369220,
  "lon": -1.8625086
},
{
  "type": "node",
  "id": 3564450104,
  "lat": 52.0369226,
  "lon": -1.8624665
},
{
  "type": "node",
  "id": 3559397103,
  "lat": 52.0359969,
  "lon": -1.8576991
},
{
  "type": "node",
  "id": 3559397105,
  "lat": 52.0360016,
  "lon": -1.8575171
},
{
  "type": "node",
  "id": 3559397114,
  "lat": 52.0360712,
  "lon": -1.8577041
},
{
  "type": "node",
  "id": 3559397118,
  "lat": 52.0360758,
  "lon": -1.8575222
},
{
  "type": "node",
  "id": 2536600827,
  "lat": 52.0523940,
  "lon": -1.7763401
},
{
  "type": "node",
  "id": 2536600830,
  "lat": 52.0524105,
  "lon": -1.7762204
},
{
  "type": "node",
  "id": 2536600833,
  "lat": 52.0524544,
  "lon": -1.7761097
},
{
  "type": "node",
  "id": 2536600835,
  "lat": 52.0524774,
  "lon": -1.7762437
},
{
  "type": "node",
  "id": 2536600839,
  "lat": 52.0524939,
  "lon": -1.7763722
},
{
  "type": "node",
  "id": 2536600845,
  "lat": 52.0525082,
  "lon": -1.7761883
},
{
  "type": "node",
  "id": 2536600847,
  "lat": 52.0526026,
  "lon": -1.7761633
},
{
  "type": "node",
  "id": 2536600842,
  "lat": 52.0525027,
  "lon": -1.7760169
},
{
  "type": "node",
  "id": 5737660864,
  "lat": 51.8073369,
  "lon": -1.6369629
},
{
  "type": "node",
  "id": 5737660865,
  "lat": 51.8073585,
  "lon": -1.6370641
},
{
  "type": "node",
  "id": 5737660866,
  "lat": 51.8073278,
  "lon": -1.6370822
},
{
  "type": "node",
  "id": 5737660867,
  "lat": 51.8073486,
  "lon": -1.6371594
},
{
  "type": "node",
  "id": 5737660868,
  "lat": 51.8072951,
  "lon": -1.6371895
},
{
  "type": "node",
  "id": 5737660869,
  "lat": 51.8072544,
  "lon": -1.6370883
},
{
  "type": "node",
  "id": 5737660870,
  "lat": 51.8072719,
  "lon": -1.6370735
},
{
  "type": "node",
  "id": 5737660871,
  "lat": 51.8072578,
  "lon": -1.6370105
},
{
  "type": "node",
  "id": 5737660872,
  "lat": 51.8073162,
  "lon": -1.6369743
},
{
  "type": "way",
  "id": 443669735,
  "nodes": [
    4412263986,
    4412263985,
    4412263983,
    4687272240,
    4412263984,
    4412263986
  ]
},
{
  "type": "way",
  "id": 474865676,
  "nodes": [
    4412263973,
    1144767507,
    1144766969,
    1144767824,
    1144768486,
    1144769158,
    1144766671,
    4412263972,
    4687272241,
    4412263968,
    4412263971,
    4412263973
  ]
}

  ]
}
