{
  "version": 0.6,
  "generator": "Overpass API 0.7.55.9 ab41fea6",
  "osm3s": {
    "timestamp_osm_base": "2020-02-14T13:06:02Z",
    "copyright": "The data included in this document is from www.openstreetmap.org. The data is made available under ODbL."
  },
  "elements": [

{
  "type": "node",
  "id": 68978355,
  "lat": 43.5342466,
  "lon": 3.9343423,
  "tags": {
    "contact:website": "http://www.ot-palavaslesflots.com/view/1922-musee-albert-dubout.html",
    "layer": "5",
    "name": "Musée Albert Dubout",
    "tourism": "museum"
  }
},
{
  "type": "node",
  "id": 265363031,
  "lat": 43.6091823,
  "lon": 3.8769117,
  "tags": {
    "building": "civic",
    "name": "Galerie municipale Saint-Ravy",
    "operator": "Montpellier",
    "operator:type": "public",
    "tourism": "museum"
  }
},
{
  "type": "node",
  "id": 469730886,
  "lat": 43.7337991,
  "lon": 3.5493176,
  "tags": {
    "name": "Le Cloître de l'Abbaye de Gellone",
    "tourism": "museum"
  }
},
{
  "type": "node",
  "id": 598184808,
  "lat": 43.6106627,
  "lon": 3.8785261,
  "tags": {
    "building": "civic",
    "name": "Musée du vieux Montpellier",
    "operator": "Montpellier",
    "operator:type": "public",
    "tourism": "museum"
  }
},
{
  "type": "node",
  "id": 598185433,
  "lat": 43.6098384,
  "lon": 3.8777584,
  "tags": {
    "building": "civic",
    "name": "Musée de l'Histoire de Montpellier",
    "operator": "Montpellier",
    "operator:type": "public",
    "tourism": "museum",
    "wikidata": "Q3329789"
  }
},
{
  "type": "node",
  "id": 1165324328,
  "lat": 43.6095397,
  "lon": 3.8791384,
  "tags": {
    "building": "civic",
    "name": "Musée Languedocien",
    "tourism": "museum",
    "website": "https://www.montpellier-tourisme.fr/offre/fiche/musee-languedocien/PCULAR034V50HLKA",
    "wikidata": "Q3330631"
  }
},
{
  "type": "node",
  "id": 1182521804,
  "lat": 43.5329771,
  "lon": 3.9323636,
  "tags": {
    "name": "Musée du Train",
    "source": "survey 2014",
    "tourism": "museum"
  }
},
{
  "type": "node",
  "id": 1274577501,
  "lat": 43.7863898,
  "lon": 4.1934943,
  "tags": {
    "name": "Maison du Boutis",
    "tourism": "museum",
    "wheelchair": "no"
  }
},
{
  "type": "node",
  "id": 1434322516,
  "lat": 43.7025726,
  "lon": 3.5513610,
  "tags": {
    "description": "La Maison de la Poterie",
    "name": "Argileum",
    "tourism": "museum"
  }
},
{
  "type": "node",
  "id": 1964228636,
  "lat": 43.4060674,
  "lon": 3.6961935,
  "tags": {
    "addr:housenumber": "27",
    "addr:street": "Quai du Maréchal de Lattre de Tassigny",
    "name": "Musée international des Arts modestes",
    "tourism": "museum",
    "website": "https://miam.org/",
    "wheelchair": "yes",
    "wikidata": "Q3330617",
    "wikipedia": "fr:Musée international des Arts modestes"
  }
},
{
  "type": "node",
  "id": 2166752991,
  "lat": 43.4400883,
  "lon": 3.6143354,
  "tags": {
    "name": "Musée de site Gallo Romain Villa-Loupian",
    "phone": "+33 4 67186818",
    "tourism": "museum"
  }
},
{
  "type": "node",
  "id": 2244412926,
  "lat": 43.3953827,
  "lon": 3.6906637,
  "tags": {
    "name": "Musée Paul Valéry",
    "tourism": "museum",
    "wikidata": "Q18693190"
  }
},
{
  "type": "node",
  "id": 2923485526,
  "lat": 43.5715360,
  "lon": 4.1930659,
  "tags": {
    "addr:housenumber": "167",
    "addr:street": "Avenue du Pont de Provence",
    "name": "Le Tacot Aigues-Mortais",
    "opening_hours": "Mo-Su 09:00-12:30,14:30-19:00",
    "operator:type": "private",
    "source": "survey",
    "tourism": "museum"
  }
},
{
  "type": "node",
  "id": 2955888734,
  "lat": 43.5271053,
  "lon": 4.1404958,
  "tags": {
    "fee": "no",
    "name": "Le Carré de la pêche",
    "source": "website",
    "tourism": "museum"
  }
},
{
  "type": "node",
  "id": 3231508138,
  "lat": 43.5659699,
  "lon": 3.9085592,
  "tags": {
    "addr:housenumber": "390",
    "addr:street": "Route de Pérols",
    "building": "civic",
    "contact:email": "museelattes.conservation@montpellier3m.fr",
    "contact:fax": "+33 4 67 99 77 21",
    "contact:phone": "+33 4 67 99 77 20",
    "name": "Musée archéologique Henri Prades",
    "opening_hours": "Mo-Fr 10:00-12:00,13:30-17:30; Tu off; Sa,Su 14:00-18:00",
    "operator:type": "public",
    "tourism": "museum",
    "wikidata": "Q3329411"
  }
},
{
  "type": "node",
  "id": 4119157099,
  "lat": 43.5838278,
  "lon": 3.8034361,
  "tags": {
    "building": "civic",
    "name": "Musée Du Château des Evèques",
    "operator:type": "public",
    "tourism": "museum"
  }
},
{
  "type": "node",
  "id": 4219880844,
  "lat": 43.6330485,
  "lon": 3.8958305,
  "tags": {
    "addr:city": "Castelnau-le-Lez",
    "addr:housenumber": "1",
    "addr:postcode": "34170",
    "addr:street": "Place de la Liberté",
    "building": "civic",
    "name": "Musée de la Résistance et de la Déportation",
    "tourism": "museum"
  }
},
{
  "type": "node",
  "id": 4402339752,
  "lat": 43.6107381,
  "lon": 3.8792357,
  "tags": {
    "name": "Pharmacie et Chapelle de la Miséricorde",
    "operator": "Montpellier",
    "operator:type": "public",
    "tourism": "museum"
  }
},
{
  "type": "node",
  "id": 5396606655,
  "lat": 43.7819218,
  "lon": 4.1968457,
  "tags": {
    "name": "Vinopanorama",
    "operator": "Cave coopérative de Calvisson",
    "tourism": "museum",
    "wheelchair": "yes"
  }
},
{
  "type": "node",
  "id": 5613617738,
  "lat": 43.4004480,
  "lon": 3.6968665,
  "tags": {
    "fee": "yes",
    "name": "Chalutier Louis Nocca",
    "tourism": "museum"
  }
},
{
  "type": "node",
  "id": 6946432728,
  "lat": 43.6746283,
  "lon": 4.1342290,
  "tags": {
    "addr:city": "Lunel",
    "addr:housenumber": "16",
    "addr:postcode": "34400",
    "addr:street": "Cours Gabriel Péri",
    "email": "contact@ot-paysdelunel.fr",
    "fee": "no",
    "name": "La Tour des Prisons",
    "opening_hours": "PH,Su 09:00-13:00; Sep-Jun Mo-Sa 09:00-12:00,14:00-18:00; Jul-Aug Mo-Sa 09:00-13:00,14:00-19:00",
    "operator": "ville de Lunel",
    "operator:type": "government",
    "phone": "+33 4 67 71 01 37",
    "start_date": "2014-09-20",
    "tourism": "museum",
    "website": "https://www.lunel.com/fr/page/le-musee-de-la-tour-des-prisons"
  }
},
{
  "type": "way",
  "id": 26576910,
  "nodes": [
    291433254,
    291433258,
    291433264,
    291433265,
    291433260,
    291433256,
    291433270,
    291433273,
    291433276,
    291433275,
    291433274,
    291433271,
    291433257,
    291433255,
    291433267,
    291433268,
    6240777220,
    291433269,
    291433266,
    291433254
  ],
  "tags": {
    "building": "civic",
    "height": "9",
    "museum": "art",
    "name": "Pavillon Populaire",
    "operator": "Montpellier",
    "operator:type": "public",
    "source": "Cadastre",
    "tourism": "museum",
    "wikidata": "Q3373119"
  }
},
{
  "type": "way",
  "id": 26577008,
  "nodes": [
    291435013,
    2948065169,
    4526013682,
    291435019,
    291435020,
    6240777219,
    291435016,
    291435013
  ],
  "tags": {
    "building": "civic",
    "height": "7",
    "name": "Salle Dominique Bagouet",
    "operator": "Montpellier",
    "operator:type": "public",
    "tourism": "museum"
  }
},
{
  "type": "way",
  "id": 48978511,
  "nodes": [
    621463480,
    621463481,
    621463482,
    621463483,
    621463484,
    621463485,
    621463486,
    621463487,
    621463488,
    621463490,
    621463491,
    621463492,
    621463493,
    621463494,
    621463495,
    621463480
  ],
  "tags": {
    "addr:housenumber": "50",
    "addr:street": "Avenue du Nouveau Monde",
    "building": "yes",
    "name": "Halle du Verre",
    "source": "cadastre-dgi-fr source : Direction Générale des Impôts - Cadastre. Mise à jour : 2010",
    "tourism": "museum",
    "wheelchair": "yes"
  }
},
{
  "type": "way",
  "id": 75264144,
  "nodes": [
    888836894,
    888831182,
    888836434,
    888833332,
    888835554,
    888832621,
    888833138,
    888832555,
    6407756175,
    888833527,
    888836513,
    888834121,
    888834283,
    888832334,
    888837120,
    888832160,
    5732648020,
    888837073,
    888836894
  ],
  "tags": {
    "addr:housename": "Hôtel de Cabrières",
    "addr:street": "Rue Montpelliéret",
    "building": "civic",
    "description": "Musée d'arts décoratifs",
    "fee": "yes",
    "height": "18",
    "name": "Musée Sabatier d'Espeyran",
    "operator": "Montpellier Méditerranée Métropole",
    "operator:type": "public",
    "source": "cadastre-dgi-fr source : Direction Générale des Impôts - Cadastre. Mise à jour : 2010",
    "tourism": "museum",
    "website": "http://museefabre.montpellier3m.fr/RESSOURCES/PUBLICATIONS/Hotel_de_Cabrieres-Sabatier_d_Espeyran_Departement_des_Arts_decoratifs_du_musee_Fabre",
    "wikidata": "Q23639863"
  }
},
{
  "type": "way",
  "id": 75278752,
  "nodes": [
    888995694,
    889010127,
    889004528,
    888988293,
    889002659,
    889012482,
    889000986,
    889004852,
    888989142,
    889004789,
    889013694,
    889002169,
    888988453,
    889008052,
    888996503,
    888992064,
    888999339,
    888995062,
    889008832,
    889004489,
    889003811,
    889009144,
    888989361,
    6581728049,
    6581728011,
    888992817,
    889002989,
    888990002,
    888995694
  ],
  "tags": {
    "addr:city": "Montpellier",
    "addr:housenumber": "13",
    "addr:postcode": "34000",
    "addr:street": "Rue de la République",
    "building": "yes",
    "height": "12",
    "name": "Mo.Co Hôtel des Collections",
    "old_name": "Hôtel Montcalm",
    "operator": "Montpellier Méditerranée Métropole",
    "source": "cadastre-dgi-fr source : Direction Générale des Impôts - Cadastre. Mise à jour : 2010",
    "tourism": "museum",
    "wikidata": "Q56777310"
  }
},
{
  "type": "way",
  "id": 77368388,
  "nodes": [
    910711080,
    910700175,
    910677084,
    910728734,
    910693847,
    910709874,
    910734984,
    910715142,
    910687723,
    910721239,
    910703713,
    910732069,
    910710533,
    910677613,
    910700940,
    910677445,
    910695060,
    910705550,
    910680460,
    910676149,
    910708165,
    910678709,
    910726543,
    910733006,
    910679285,
    3154593927,
    3154593928,
    910709413,
    910708255,
    910681892,
    910701920,
    910707072,
    910727903,
    910694080,
    910687229,
    910716131,
    910726315,
    3154593923,
    910711080
  ],
  "tags": {
    "addr:housenumber": "533",
    "addr:street": "Avenue de l'Evêché de Maguelone",
    "building": "yes",
    "name": "Musée du Patrimoine Jean-Aristide Rudel",
    "source": "cadastre-dgi-fr source : Direction Générale des Impôts - Cadastre. Mise à jour : 2010; survey 2013",
    "tourism": "museum"
  }
},
{
  "type": "way",
  "id": 78355378,
  "nodes": [
    6329591806,
    919750806,
    919754650,
    919754811,
    919762199,
    919760945,
    919761849,
    919764757,
    919760451,
    919759277,
    919751899,
    6329591062,
    6329591066,
    6329591807,
    6329591808,
    6329591809,
    6834235110,
    6329591810,
    6329591811,
    6329591806
  ],
  "tags": {
    "building": "yes",
    "description": "Musée d'archéologie et expositions d'art",
    "name": "Maison des Consuls",
    "note": "Depuis sa rénovation, le musée est d'une seule pièce",
    "operator": "Communauté de Communes du Grand Pic Saint-Loup",
    "source": "cadastre-dgi-fr source : Direction Générale des Finances Publiques - Cadastre. Mise à jour : 2019",
    "tourism": "museum"
  }
},
{
  "type": "way",
  "id": 135811128,
  "nodes": [
    1490766243,
    1490766757,
    1490766841,
    1490766431,
    1490766438,
    1490766611,
    1490766284,
    1490766234,
    1490766072,
    1490765945,
    1490765706,
    1490765462,
    1490766714,
    1490766937,
    1490766216,
    1490766243
  ],
  "tags": {
    "building": "yes",
    "name": "Musée de la mer",
    "opening_hours": "May-Oct 10:00-19:00; Nov-Apr 09:30-18:00",
    "source": "cadastre-dgi-fr source : Direction Générale des Impôts - Cadastre. Mise à jour : 2011",
    "tourism": "museum"
  }
},
{
  "type": "way",
  "id": 135811740,
  "nodes": [
    1490853658,
    1490853394,
    1490853952,
    1490853873,
    1490853734,
    1490853591,
    1490852249,
    1490854641,
    1490855220,
    1490855398,
    1490855357,
    1490855471,
    1490856563,
    1490856429,
    1490856749,
    1490854543,
    1490854325,
    1490854605,
    1490853658
  ],
  "tags": {
    "addr:city": "Sète",
    "addr:country": "FR",
    "addr:housenumber": "67",
    "addr:postcode": "34200",
    "addr:street": "Boulevard Camille Blanc",
    "building": "yes",
    "email": "espacegeorgesbrassens@ville-sete.fr",
    "fax": "+33 4 67 51 44 20",
    "name": "Espace Georges Brassens",
    "opening_hours": "Mo-Su 10:00-18:00",
    "phone": "+33 4 99 04 76 26",
    "source": "cadastre-dgi-fr source : Direction Générale des Impôts - Cadastre. Mise à jour : 2011",
    "tourism": "museum",
    "wikidata": "Q3058132"
  }
},
{
  "type": "way",
  "id": 142362858,
  "nodes": [
    297596870,
    4974999955,
    297596872,
    1558083790,
    1558083786,
    1558083787,
    1558083789,
    1558083781,
    1558083780,
    1558083782,
    1558083783,
    1558083785,
    1558083788,
    1558083792,
    1558083793,
    1558083795,
    1558083797,
    1558083800,
    1558083802,
    1558083803,
    4974999953,
    297596869,
    297596870
  ],
  "tags": {
    "heritage": "3",
    "heritage:operator": "mhs",
    "historic": "archaeological_site",
    "mhs:inscription_date": "2003-02-28",
    "name": "Site archéologique de Lattara",
    "ref:mhs": "PA34000037",
    "source:heritage": "data.gouv.fr, Ministère de la Culture - 2016",
    "tourism": "museum",
    "wikidata": "Q1806812",
    "wikipedia": "fr:Lattara"
  }
},
{
  "type": "way",
  "id": 239313434,
  "nodes": [
    2471105938,
    2471105829,
    2471105870,
    2471105885,
    2471105908,
    2471106017,
    2471105973,
    2471105938
  ],
  "tags": {
    "building": "civic",
    "name": "Musée archéologique Paul Soyris",
    "operator:type": "public",
    "source": "cadastre-dgi-fr source : Direction Générale des Finances Publiques - Cadastre. Mise à jour : 2013",
    "tourism": "museum"
  }
},
{
  "type": "way",
  "id": 277812836,
  "nodes": [
    2822677728,
    2822677721,
    2822677481,
    2822677486,
    2822677480,
    2822677474,
    2822677473,
    2822677462,
    2822677461,
    2822677445,
    2822677429,
    2822677430,
    2822677404,
    2822677296,
    2822677297,
    2822677410,
    2822677298,
    2822677408,
    2822677278,
    2822677285,
    2822677274,
    2822677275,
    2822677289,
    2822677282,
    2822677402,
    1786279362,
    2822677498,
    2822677728
  ],
  "tags": {
    "building": "yes",
    "name": "Musée de l'Étang de Thau",
    "source": "cadastre-dgi-fr source : Direction Générale des Finances Publiques - Cadastre. Mise à jour : 2014",
    "tourism": "museum"
  }
},
{
  "type": "way",
  "id": 380637657,
  "nodes": [
    3839601918,
    3839601919,
    3839601920,
    3839601921,
    3839601922,
    3839601923,
    3839601924,
    3839601925,
    3839601926,
    3839601927,
    3839601928,
    3839601929,
    3839601930,
    3839601918
  ],
  "tags": {
    "addr:city": "Villetelle",
    "addr:postcode": "34400",
    "addr:street": "Chemin d'Ambrussum",
    "building": "civic",
    "email": "ambrussum@paysdelunel.fr",
    "museum": "archaeological",
    "name": "Musée du site d'Ambrussum",
    "opening_hours": "Feb-May,Oct-Dec Tu-Su 14:00-17:30; Jun,Sep Tu-Su 10:00-12:30,14:00-17:30; Jul-Aug Tu-Su 10:00-12:30,14:30-19:00; Nov 01,Nov 11,Dec 25 off",
    "phone": "+33 4 67 02 22 33",
    "tourism": "museum",
    "website": "http://www.ambrussum.fr",
    "wheelchair": "yes"
  }
},
{
  "type": "way",
  "id": 667055642,
  "nodes": [
    6245739808,
    6245739807,
    6245739794,
    6245739795,
    6245739793,
    6245739786,
    6245739785,
    6245736080,
    6245736084,
    6245739792,
    6245739796,
    6245739802,
    6245739801,
    6245736083,
    6245739804,
    6245739805,
    6252659906,
    6245739808
  ],
  "tags": {
    "name": "Musée d'Art Brut",
    "short_name": "Art Brut",
    "tourism": "museum",
    "website": "https://www.montpellier-tourisme.fr/offre/fiche/musee-d-art-brut-montpellier/PCULAR034V50X66Y"
  }
},
{
  "type": "way",
  "id": 722201929,
  "nodes": [
    6775260043,
    6775260032,
    6777778721,
    6777778723,
    900452768,
    900441506,
    900468026,
    6775260044,
    6774407916,
    6775260042,
    6775260043
  ],
  "tags": {
    "building": "yes",
    "building:levels": "1",
    "height": "6",
    "name": "Bâtiment M - Musée des moulages Empereur Antonin",
    "source": "cadastre-dgi-fr source : Direction Générale des Impôts - Cadastre. Mise à jour : 2010;survey 2019",
    "tourism": "museum"
  }
},
{
  "type": "way",
  "id": 742164185,
  "nodes": [
    6948198030,
    7056331355,
    7056331354,
    6948198026,
    781395697,
    781406236,
    6946469089,
    6948198027,
    781200460,
    781206074,
    6640480300,
    6948198028,
    781445703,
    781262434,
    6948198029,
    7056331357,
    7056331356,
    6948198030
  ],
  "tags": {
    "addr:city": "Lunel",
    "addr:housenumber": "71",
    "addr:postcode": "34400",
    "addr:street": "Place des Martyrs de la Résistance",
    "air_conditioning": "yes",
    "building": "public",
    "description": "Centre d'interprétation du livre et du patrimoine écrit",
    "email": "museemedard@ville-lunel.fr",
    "fee": "no",
    "name": "Médard",
    "opening_hours": "We-Fr 14:00-18:00; Sa 10:00-18:00; PH off",
    "operator": "ville de Lunel",
    "operator:type": "government",
    "phone": "+33 4 67 87 83 95",
    "start_date": "2013-12-13",
    "tourism": "museum",
    "website": "http://www.museemedard.fr",
    "wheelchair": "yes",
    "wikidata": "Q3166916",
    "wikipedia": "fr:Louis Médard"
  }
},
{
  "type": "relation",
  "id": 1226892,
  "members": [
    {
      "type": "way",
      "ref": 75320281,
      "role": "inner"
    },
    {
      "type": "way",
      "ref": 75320819,
      "role": "outer"
    }
  ],
  "tags": {
    "building": "civic",
    "contact:website": "http://museefabre.montpellier3m.fr/",
    "name": "Musée Fabre",
    "opening_hours": "Tu-Su 10:00-18:00",
    "operator": "Montpellier Méditerranée Métropole",
    "operator:type": "public",
    "subject": "arts",
    "tourism": "museum",
    "type": "multipolygon",
    "wikidata": "Q1519002"
  }
},
{
  "type": "node",
  "id": 1490852249,
  "lat": 43.4057360,
  "lon": 3.6647270
},
{
  "type": "node",
  "id": 1490853394,
  "lat": 43.4058340,
  "lon": 3.6647160
},
{
  "type": "node",
  "id": 1490853591,
  "lat": 43.4058600,
  "lon": 3.6645690
},
{
  "type": "node",
  "id": 1490853658,
  "lat": 43.4058660,
  "lon": 3.6647650
},
{
  "type": "node",
  "id": 1490853734,
  "lat": 43.4058750,
  "lon": 3.6645820
},
{
  "type": "node",
  "id": 1490853873,
  "lat": 43.4058930,
  "lon": 3.6646080
},
{
  "type": "node",
  "id": 1490853952,
  "lat": 43.4059020,
  "lon": 3.6646300
},
{
  "type": "node",
  "id": 1490854325,
  "lat": 43.4059450,
  "lon": 3.6646110
},
{
  "type": "node",
  "id": 1490854543,
  "lat": 43.4059590,
  "lon": 3.6645950
},
{
  "type": "node",
  "id": 1490854605,
  "lat": 43.4059650,
  "lon": 3.6646410
},
{
  "type": "node",
  "id": 1490854641,
  "lat": 43.4059710,
  "lon": 3.6650790
},
{
  "type": "node",
  "id": 1490855220,
  "lat": 43.4060260,
  "lon": 3.6650110
},
{
  "type": "node",
  "id": 1490855357,
  "lat": 43.4060380,
  "lon": 3.6650190
},
{
  "type": "node",
  "id": 1490855398,
  "lat": 43.4060400,
  "lon": 3.6650320
},
{
  "type": "node",
  "id": 1490855471,
  "lat": 43.4060470,
  "lon": 3.6650310
},
{
  "type": "node",
  "id": 1490856429,
  "lat": 43.4061050,
  "lon": 3.6649180
},
{
  "type": "node",
  "id": 1490856563,
  "lat": 43.4061200,
  "lon": 3.6649400
},
{
  "type": "node",
  "id": 1490856749,
  "lat": 43.4061420,
  "lon": 3.6648700
},
{
  "type": "node",
  "id": 1490765462,
  "lat": 43.3933300,
  "lon": 3.6917150
},
{
  "type": "node",
  "id": 1490765706,
  "lat": 43.3933930,
  "lon": 3.6915760
},
{
  "type": "node",
  "id": 1490765945,
  "lat": 43.3934650,
  "lon": 3.6916360
},
{
  "type": "node",
  "id": 1490766072,
  "lat": 43.3934850,
  "lon": 3.6915920
},
{
  "type": "node",
  "id": 1490766216,
  "lat": 43.3935080,
  "lon": 3.6917430
},
{
  "type": "node",
  "id": 1490766234,
  "lat": 43.3935130,
  "lon": 3.6916140
},
{
  "type": "node",
  "id": 1490766243,
  "lat": 43.3935150,
  "lon": 3.6917270
},
{
  "type": "node",
  "id": 1490766284,
  "lat": 43.3935250,
  "lon": 3.6915890
},
{
  "type": "node",
  "id": 1490766431,
  "lat": 43.3935550,
  "lon": 3.6917060
},
{
  "type": "node",
  "id": 1490766438,
  "lat": 43.3935560,
  "lon": 3.6917030
},
{
  "type": "node",
  "id": 1490766611,
  "lat": 43.3935830,
  "lon": 3.6916340
},
{
  "type": "node",
  "id": 1490766714,
  "lat": 43.3936030,
  "lon": 3.6919340
},
{
  "type": "node",
  "id": 1490766757,
  "lat": 43.3936130,
  "lon": 3.6918070
},
{
  "type": "node",
  "id": 1490766841,
  "lat": 43.3936290,
  "lon": 3.6917680
},
{
  "type": "node",
  "id": 1490766937,
  "lat": 43.3936400,
  "lon": 3.6918490
},
{
  "type": "node",
  "id": 1786279362,
  "lat": 43.4468070,
  "lon": 3.6619900
},
{
  "type": "node",
  "id": 2822677274,
  "lat": 43.4467550,
  "lon": 3.6618130
},
{
  "type": "node",
  "id": 2822677275,
  "lat": 43.4467560,
  "lon": 3.6619260
},
{
  "type": "node",
  "id": 2822677278,
  "lat": 43.4467580,
  "lon": 3.6617670
},
{
  "type": "node",
  "id": 2822677282,
  "lat": 43.4467610,
  "lon": 3.6619660
},
{
  "type": "node",
  "id": 2822677285,
  "lat": 43.4467670,
  "lon": 3.6617860
},
{
  "type": "node",
  "id": 2822677289,
  "lat": 43.4467710,
  "lon": 3.6619480
},
{
  "type": "node",
  "id": 2822677296,
  "lat": 43.4467860,
  "lon": 3.6615570
},
{
  "type": "node",
  "id": 2822677297,
  "lat": 43.4467870,
  "lon": 3.6616250
},
{
  "type": "node",
  "id": 2822677298,
  "lat": 43.4467870,
  "lon": 3.6616710
},
{
  "type": "node",
  "id": 2822677402,
  "lat": 43.4467940,
  "lon": 3.6620060
},
{
  "type": "node",
  "id": 2822677404,
  "lat": 43.4467970,
  "lon": 3.6615300
},
{
  "type": "node",
  "id": 2822677408,
  "lat": 43.4468010,
  "lon": 3.6616930
},
{
  "type": "node",
  "id": 2822677410,
  "lat": 43.4468020,
  "lon": 3.6616460
},
{
  "type": "node",
  "id": 2822677429,
  "lat": 43.4468330,
  "lon": 3.6614770
},
{
  "type": "node",
  "id": 2822677430,
  "lat": 43.4468330,
  "lon": 3.6615200
},
{
  "type": "node",
  "id": 2822677445,
  "lat": 43.4468570,
  "lon": 3.6614470
},
{
  "type": "node",
  "id": 2822677461,
  "lat": 43.4468870,
  "lon": 3.6614880
},
{
  "type": "node",
  "id": 2822677462,
  "lat": 43.4468900,
  "lon": 3.6616060
},
{
  "type": "node",
  "id": 2822677473,
  "lat": 43.4469090,
  "lon": 3.6616180
},
{
  "type": "node",
  "id": 2822677474,
  "lat": 43.4469090,
  "lon": 3.6618250
},
{
  "type": "node",
  "id": 2822677480,
  "lat": 43.4469180,
  "lon": 3.6618360
},
{
  "type": "node",
  "id": 2822677481,
  "lat": 43.4469180,
  "lon": 3.6618930
},
{
  "type": "node",
  "id": 2822677486,
  "lat": 43.4469230,
  "lon": 3.6618760
},
{
  "type": "node",
  "id": 2822677498,
  "lat": 43.4469370,
  "lon": 3.6621490
},
{
  "type": "node",
  "id": 2822677721,
  "lat": 43.4469720,
  "lon": 3.6619600
},
{
  "type": "node",
  "id": 2822677728,
  "lat": 43.4469790,
  "lon": 3.6620870
},
{
  "type": "node",
  "id": 2471105829,
  "lat": 43.6045370,
  "lon": 3.7373830
},
{
  "type": "node",
  "id": 2471105870,
  "lat": 43.6045940,
  "lon": 3.7374620
},
{
  "type": "node",
  "id": 2471105885,
  "lat": 43.6046230,
  "lon": 3.7374010
},
{
  "type": "node",
  "id": 2471105908,
  "lat": 43.6046450,
  "lon": 3.7373530
},
{
  "type": "node",
  "id": 2471105938,
  "lat": 43.6046590,
  "lon": 3.7371660
},
{
  "type": "node",
  "id": 2471105973,
  "lat": 43.6046670,
  "lon": 3.7371740
},
{
  "type": "node",
  "id": 2471106017,
  "lat": 43.6047110,
  "lon": 3.7372140
},
{
  "type": "node",
  "id": 910676149,
  "lat": 43.5237974,
  "lon": 3.9221179
},
{
  "type": "node",
  "id": 910677084,
  "lat": 43.5237629,
  "lon": 3.9218068
},
{
  "type": "node",
  "id": 910677445,
  "lat": 43.5237699,
  "lon": 3.9220942
},
{
  "type": "node",
  "id": 910677613,
  "lat": 43.5237496,
  "lon": 3.9221015
},
{
  "type": "node",
  "id": 910678709,
  "lat": 43.5238569,
  "lon": 3.9220641
},
{
  "type": "node",
  "id": 910679285,
  "lat": 43.5238525,
  "lon": 3.9220284
},
{
  "type": "node",
  "id": 910680460,
  "lat": 43.5237873,
  "lon": 3.9221173
},
{
  "type": "node",
  "id": 910681892,
  "lat": 43.5238710,
  "lon": 3.9220058
},
{
  "type": "node",
  "id": 910687229,
  "lat": 43.5238236,
  "lon": 3.9218876
},
{
  "type": "node",
  "id": 910687723,
  "lat": 43.5237014,
  "lon": 3.9219818
},
{
  "type": "node",
  "id": 910693847,
  "lat": 43.5237467,
  "lon": 3.9218437
},
{
  "type": "node",
  "id": 910694080,
  "lat": 43.5238253,
  "lon": 3.9218891
},
{
  "type": "node",
  "id": 910695060,
  "lat": 43.5237762,
  "lon": 3.9221090
},
{
  "type": "node",
  "id": 910700175,
  "lat": 43.5237843,
  "lon": 3.9217910
},
{
  "type": "node",
  "id": 910700940,
  "lat": 43.5237585,
  "lon": 3.9221006
},
{
  "type": "node",
  "id": 910701920,
  "lat": 43.5238705,
  "lon": 3.9219972
},
{
  "type": "node",
  "id": 910703713,
  "lat": 43.5236995,
  "lon": 3.9219989
},
{
  "type": "node",
  "id": 910705550,
  "lat": 43.5237822,
  "lon": 3.9221143
},
{
  "type": "node",
  "id": 910707072,
  "lat": 43.5238302,
  "lon": 3.9218977
},
{
  "type": "node",
  "id": 910708165,
  "lat": 43.5238544,
  "lon": 3.9220755
},
{
  "type": "node",
  "id": 910708255,
  "lat": 43.5238687,
  "lon": 3.9220129
},
{
  "type": "node",
  "id": 910709413,
  "lat": 43.5238660,
  "lon": 3.9220167
},
{
  "type": "node",
  "id": 910709874,
  "lat": 43.5237056,
  "lon": 3.9219382
},
{
  "type": "node",
  "id": 910710533,
  "lat": 43.5237424,
  "lon": 3.9220976
},
{
  "type": "node",
  "id": 910711080,
  "lat": 43.5237918,
  "lon": 3.9217854
},
{
  "type": "node",
  "id": 910715142,
  "lat": 43.5237053,
  "lon": 3.9219757
},
{
  "type": "node",
  "id": 910716131,
  "lat": 43.5238205,
  "lon": 3.9218866
},
{
  "type": "node",
  "id": 910721239,
  "lat": 43.5236989,
  "lon": 3.9219908
},
{
  "type": "node",
  "id": 910726315,
  "lat": 43.5238244,
  "lon": 3.9218691
},
{
  "type": "node",
  "id": 910726543,
  "lat": 43.5238580,
  "lon": 3.9220555
},
{
  "type": "node",
  "id": 910727903,
  "lat": 43.5238281,
  "lon": 3.9218925
},
{
  "type": "node",
  "id": 910728734,
  "lat": 43.5237704,
  "lon": 3.9218260
},
{
  "type": "node",
  "id": 910732069,
  "lat": 43.5237368,
  "lon": 3.9220922
},
{
  "type": "node",
  "id": 910733006,
  "lat": 43.5238565,
  "lon": 3.9220408
},
{
  "type": "node",
  "id": 910734984,
  "lat": 43.5237167,
  "lon": 3.9219645
},
{
  "type": "node",
  "id": 3154593923,
  "lat": 43.5237966,
  "lon": 3.9217978
},
{
  "type": "node",
  "id": 3154593927,
  "lat": 43.5238555,
  "lon": 3.9220258
},
{
  "type": "node",
  "id": 3154593928,
  "lat": 43.5238585,
  "lon": 3.9220232
},
{
  "type": "node",
  "id": 888988293,
  "lat": 43.6063456,
  "lon": 3.8794216
},
{
  "type": "node",
  "id": 888988453,
  "lat": 43.6064209,
  "lon": 3.8788603
},
{
  "type": "node",
  "id": 888989142,
  "lat": 43.6065461,
  "lon": 3.8793383
},
{
  "type": "node",
  "id": 888989361,
  "lat": 43.6063215,
  "lon": 3.8787942
},
{
  "type": "node",
  "id": 888990002,
  "lat": 43.6061685,
  "lon": 3.8791720
},
{
  "type": "node",
  "id": 888992064,
  "lat": 43.6065919,
  "lon": 3.8789382
},
{
  "type": "node",
  "id": 888992817,
  "lat": 43.6062106,
  "lon": 3.8790963
},
{
  "type": "node",
  "id": 888995062,
  "lat": 43.6064986,
  "lon": 3.8787545
},
{
  "type": "node",
  "id": 888995694,
  "lat": 43.6063730,
  "lon": 3.8793205
},
{
  "type": "node",
  "id": 888996503,
  "lat": 43.6066740,
  "lon": 3.8789987
},
{
  "type": "node",
  "id": 888999339,
  "lat": 43.6064644,
  "lon": 3.8788447
},
{
  "type": "node",
  "id": 889000986,
  "lat": 43.6064530,
  "lon": 3.8795831
},
{
  "type": "node",
  "id": 889002169,
  "lat": 43.6063731,
  "lon": 3.8789962
},
{
  "type": "node",
  "id": 889002659,
  "lat": 43.6063853,
  "lon": 3.8794501
},
{
  "type": "node",
  "id": 889002989,
  "lat": 43.6061986,
  "lon": 3.8790880
},
{
  "type": "node",
  "id": 889003811,
  "lat": 43.6063536,
  "lon": 3.8786724
},
{
  "type": "node",
  "id": 889004489,
  "lat": 43.6063645,
  "lon": 3.8786789
},
{
  "type": "node",
  "id": 889004528,
  "lat": 43.6063203,
  "lon": 3.8794886
},
{
  "type": "node",
  "id": 889004789,
  "lat": 43.6063129,
  "lon": 3.8791651
},
{
  "type": "node",
  "id": 889004852,
  "lat": 43.6064730,
  "lon": 3.8795304
},
{
  "type": "node",
  "id": 889008052,
  "lat": 43.6066599,
  "lon": 3.8790371
},
{
  "type": "node",
  "id": 889008832,
  "lat": 43.6063645,
  "lon": 3.8786879
},
{
  "type": "node",
  "id": 889009144,
  "lat": 43.6063112,
  "lon": 3.8787859
},
{
  "type": "node",
  "id": 889010127,
  "lat": 43.6063140,
  "lon": 3.8794841
},
{
  "type": "node",
  "id": 889012482,
  "lat": 43.6063605,
  "lon": 3.8795171
},
{
  "type": "node",
  "id": 889013694,
  "lat": 43.6063507,
  "lon": 3.8790578
},
{
  "type": "node",
  "id": 6581728011,
  "lat": 43.6062702,
  "lon": 3.8789355
},
{
  "type": "node",
  "id": 6581728049,
  "lat": 43.6063180,
  "lon": 3.8788038
},
{
  "type": "node",
  "id": 889414959,
  "lat": 43.6118380,
  "lon": 3.8797209
},
{
  "type": "node",
  "id": 889415521,
  "lat": 43.6116302,
  "lon": 3.8792543
},
{
  "type": "node",
  "id": 889415523,
  "lat": 43.6116389,
  "lon": 3.8796983
},
{
  "type": "node",
  "id": 889416480,
  "lat": 43.6115494,
  "lon": 3.8797033
},
{
  "type": "node",
  "id": 889416553,
  "lat": 43.6116204,
  "lon": 3.8793988
},
{
  "type": "node",
  "id": 889420161,
  "lat": 43.6116544,
  "lon": 3.8794092
},
{
  "type": "node",
  "id": 889421603,
  "lat": 43.6119125,
  "lon": 3.8797293
},
{
  "type": "node",
  "id": 889422053,
  "lat": 43.6117104,
  "lon": 3.8797137
},
{
  "type": "node",
  "id": 889422812,
  "lat": 43.6115532,
  "lon": 3.8796494
},
{
  "type": "node",
  "id": 889430354,
  "lat": 43.6116537,
  "lon": 3.8794235
},
{
  "type": "node",
  "id": 889430641,
  "lat": 43.6116625,
  "lon": 3.8792583
},
{
  "type": "node",
  "id": 889431160,
  "lat": 43.6115708,
  "lon": 3.8793972
},
{
  "type": "node",
  "id": 889431824,
  "lat": 43.6116463,
  "lon": 3.8795690
},
{
  "type": "node",
  "id": 889433222,
  "lat": 43.6115655,
  "lon": 3.8797053
},
{
  "type": "node",
  "id": 889437677,
  "lat": 43.6118374,
  "lon": 3.8797281
},
{
  "type": "node",
  "id": 889438058,
  "lat": 43.6117111,
  "lon": 3.8797047
},
{
  "type": "node",
  "id": 889443350,
  "lat": 43.6115591,
  "lon": 3.8795605
},
{
  "type": "node",
  "id": 889443948,
  "lat": 43.6115682,
  "lon": 3.8794286
},
{
  "type": "node",
  "id": 889445743,
  "lat": 43.6117716,
  "lon": 3.8797199
},
{
  "type": "node",
  "id": 900441506,
  "lat": 43.6317879,
  "lon": 3.8705188
},
{
  "type": "node",
  "id": 900452768,
  "lat": 43.6316782,
  "lon": 3.8702044
},
{
  "type": "node",
  "id": 900468026,
  "lat": 43.6318466,
  "lon": 3.8704783
},
{
  "type": "node",
  "id": 6774407916,
  "lat": 43.6320699,
  "lon": 3.8699762
},
{
  "type": "node",
  "id": 6775260032,
  "lat": 43.6320560,
  "lon": 3.8699570
},
{
  "type": "node",
  "id": 6775260042,
  "lat": 43.6320648,
  "lon": 3.8699612
},
{
  "type": "node",
  "id": 6775260043,
  "lat": 43.6320625,
  "lon": 3.8699528
},
{
  "type": "node",
  "id": 6775260044,
  "lat": 43.6321628,
  "lon": 3.8702708
},
{
  "type": "node",
  "id": 6777778721,
  "lat": 43.6318701,
  "lon": 3.8700787
},
{
  "type": "node",
  "id": 6777778723,
  "lat": 43.6316836,
  "lon": 3.8702009
},
{
  "type": "node",
  "id": 1558083786,
  "lat": 43.5648192,
  "lon": 3.9058730
},
{
  "type": "node",
  "id": 1558083790,
  "lat": 43.5650357,
  "lon": 3.9053083
},
{
  "type": "node",
  "id": 297596870,
  "lat": 43.5656957,
  "lon": 3.9049801
},
{
  "type": "node",
  "id": 297596872,
  "lat": 43.5652992,
  "lon": 3.9052913
},
{
  "type": "node",
  "id": 4974999955,
  "lat": 43.5654805,
  "lon": 3.9054812
},
{
  "type": "node",
  "id": 1558083780,
  "lat": 43.5645062,
  "lon": 3.9071157
},
{
  "type": "node",
  "id": 1558083781,
  "lat": 43.5646788,
  "lon": 3.9067726
},
{
  "type": "node",
  "id": 1558083782,
  "lat": 43.5645501,
  "lon": 3.9075028
},
{
  "type": "node",
  "id": 1558083783,
  "lat": 43.5646707,
  "lon": 3.9075754
},
{
  "type": "node",
  "id": 1558083785,
  "lat": 43.5646953,
  "lon": 3.9079486
},
{
  "type": "node",
  "id": 1558083787,
  "lat": 43.5648739,
  "lon": 3.9061735
},
{
  "type": "node",
  "id": 1558083788,
  "lat": 43.5648599,
  "lon": 3.9080551
},
{
  "type": "node",
  "id": 1558083789,
  "lat": 43.5649185,
  "lon": 3.9063252
},
{
  "type": "node",
  "id": 297596869,
  "lat": 43.5662113,
  "lon": 3.9060137
},
{
  "type": "node",
  "id": 1558083792,
  "lat": 43.5650834,
  "lon": 3.9081998
},
{
  "type": "node",
  "id": 1558083793,
  "lat": 43.5653405,
  "lon": 3.9082382
},
{
  "type": "node",
  "id": 1558083795,
  "lat": 43.5654779,
  "lon": 3.9082198
},
{
  "type": "node",
  "id": 1558083797,
  "lat": 43.5655825,
  "lon": 3.9083016
},
{
  "type": "node",
  "id": 1558083800,
  "lat": 43.5659845,
  "lon": 3.9082522
},
{
  "type": "node",
  "id": 1558083802,
  "lat": 43.5662420,
  "lon": 3.9082115
},
{
  "type": "node",
  "id": 1558083803,
  "lat": 43.5664715,
  "lon": 3.9081579
},
{
  "type": "node",
  "id": 4974999953,
  "lat": 43.5668323,
  "lon": 3.9075613
},
{
  "type": "node",
  "id": 291433254,
  "lat": 43.6101440,
  "lon": 3.8819687
},
{
  "type": "node",
  "id": 291433255,
  "lat": 43.6101003,
  "lon": 3.8823222
},
{
  "type": "node",
  "id": 291433256,
  "lat": 43.6103467,
  "lon": 3.8820161
},
{
  "type": "node",
  "id": 291433257,
  "lat": 43.6103030,
  "lon": 3.8823696
},
{
  "type": "node",
  "id": 291433258,
  "lat": 43.6102019,
  "lon": 3.8819816
},
{
  "type": "node",
  "id": 291433260,
  "lat": 43.6102857,
  "lon": 3.8820022
},
{
  "type": "node",
  "id": 291433264,
  "lat": 43.6102064,
  "lon": 3.8819459
},
{
  "type": "node",
  "id": 291433265,
  "lat": 43.6102902,
  "lon": 3.8819655
},
{
  "type": "node",
  "id": 291433266,
  "lat": 43.6101284,
  "lon": 3.8820955
},
{
  "type": "node",
  "id": 291433267,
  "lat": 43.6101165,
  "lon": 3.8821929
},
{
  "type": "node",
  "id": 291433268,
  "lat": 43.6100954,
  "lon": 3.8821880
},
{
  "type": "node",
  "id": 291433269,
  "lat": 43.6101074,
  "lon": 3.8820906
},
{
  "type": "node",
  "id": 291433270,
  "lat": 43.6103338,
  "lon": 3.8821209
},
{
  "type": "node",
  "id": 291433271,
  "lat": 43.6103171,
  "lon": 3.8822579
},
{
  "type": "node",
  "id": 291433273,
  "lat": 43.6103448,
  "lon": 3.8821221
},
{
  "type": "node",
  "id": 291433274,
  "lat": 43.6103240,
  "lon": 3.8822640
},
{
  "type": "node",
  "id": 291433275,
  "lat": 43.6103396,
  "lon": 3.8822418
},
{
  "type": "node",
  "id": 291433276,
  "lat": 43.6103512,
  "lon": 3.8821459
},
{
  "type": "node",
  "id": 291435013,
  "lat": 43.6099677,
  "lon": 3.8816755
},
{
  "type": "node",
  "id": 291435016,
  "lat": 43.6099390,
  "lon": 3.8819361
},
{
  "type": "node",
  "id": 291435019,
  "lat": 43.6100446,
  "lon": 3.8816917
},
{
  "type": "node",
  "id": 291435020,
  "lat": 43.6100159,
  "lon": 3.8819522
},
{
  "type": "node",
  "id": 2948065169,
  "lat": 43.6100095,
  "lon": 3.8816843
},
{
  "type": "node",
  "id": 4526013682,
  "lat": 43.6100187,
  "lon": 3.8816862
},
{
  "type": "node",
  "id": 6240777219,
  "lat": 43.6099771,
  "lon": 3.8819441
},
{
  "type": "node",
  "id": 6240777220,
  "lat": 43.6101014,
  "lon": 3.8821396
},
{
  "type": "node",
  "id": 60727537,
  "lat": 43.6117368,
  "lon": 3.8802154
},
{
  "type": "node",
  "id": 888831182,
  "lat": 43.6111360,
  "lon": 3.8803640
},
{
  "type": "node",
  "id": 888832160,
  "lat": 43.6111733,
  "lon": 3.8803879
},
{
  "type": "node",
  "id": 888832334,
  "lat": 43.6111811,
  "lon": 3.8805003
},
{
  "type": "node",
  "id": 888832555,
  "lat": 43.6110569,
  "lon": 3.8805794
},
{
  "type": "node",
  "id": 888832621,
  "lat": 43.6110176,
  "lon": 3.8805106
},
{
  "type": "node",
  "id": 888833138,
  "lat": 43.6110114,
  "lon": 3.8805689
},
{
  "type": "node",
  "id": 888833332,
  "lat": 43.6110286,
  "lon": 3.8804299
},
{
  "type": "node",
  "id": 888833527,
  "lat": 43.6111157,
  "lon": 3.8805928
},
{
  "type": "node",
  "id": 888834121,
  "lat": 43.6111874,
  "lon": 3.8805894
},
{
  "type": "node",
  "id": 888834283,
  "lat": 43.6111848,
  "lon": 3.8805534
},
{
  "type": "node",
  "id": 888835554,
  "lat": 43.6110231,
  "lon": 3.8804666
},
{
  "type": "node",
  "id": 888836434,
  "lat": 43.6110426,
  "lon": 3.8803402
},
{
  "type": "node",
  "id": 888836513,
  "lat": 43.6111884,
  "lon": 3.8806101
},
{
  "type": "node",
  "id": 888836894,
  "lat": 43.6111415,
  "lon": 3.8803156
},
{
  "type": "node",
  "id": 888837073,
  "lat": 43.6111692,
  "lon": 3.8803223
},
{
  "type": "node",
  "id": 888837120,
  "lat": 43.6111781,
  "lon": 3.8804500
},
{
  "type": "node",
  "id": 889416453,
  "lat": 43.6119411,
  "lon": 3.8799072
},
{
  "type": "node",
  "id": 889417139,
  "lat": 43.6117811,
  "lon": 3.8802224
},
{
  "type": "node",
  "id": 889418265,
  "lat": 43.6115775,
  "lon": 3.8800325
},
{
  "type": "node",
  "id": 889420054,
  "lat": 43.6115798,
  "lon": 3.8800335
},
{
  "type": "node",
  "id": 889422494,
  "lat": 43.6118194,
  "lon": 3.8800450
},
{
  "type": "node",
  "id": 889422600,
  "lat": 43.6119167,
  "lon": 3.8802388
},
{
  "type": "node",
  "id": 889422943,
  "lat": 43.6117083,
  "lon": 3.8797667
},
{
  "type": "node",
  "id": 889423360,
  "lat": 43.6116919,
  "lon": 3.8800288
},
{
  "type": "node",
  "id": 889426568,
  "lat": 43.6115843,
  "lon": 3.8798907
},
{
  "type": "node",
  "id": 889433002,
  "lat": 43.6118849,
  "lon": 3.8802346
},
{
  "type": "node",
  "id": 889433164,
  "lat": 43.6115722,
  "lon": 3.8801969
},
{
  "type": "node",
  "id": 889435493,
  "lat": 43.6115635,
  "lon": 3.8797367
},
{
  "type": "node",
  "id": 889436397,
  "lat": 43.6118341,
  "lon": 3.8797829
},
{
  "type": "node",
  "id": 889438440,
  "lat": 43.6119483,
  "lon": 3.8798093
},
{
  "type": "node",
  "id": 889440431,
  "lat": 43.6119062,
  "lon": 3.8798024
},
{
  "type": "node",
  "id": 889440543,
  "lat": 43.6115910,
  "lon": 3.8797740
},
{
  "type": "node",
  "id": 889440873,
  "lat": 43.6119316,
  "lon": 3.8800363
},
{
  "type": "node",
  "id": 889443980,
  "lat": 43.6115621,
  "lon": 3.8797735
},
{
  "type": "node",
  "id": 5732648020,
  "lat": 43.6111711,
  "lon": 3.8803524
},
{
  "type": "node",
  "id": 6407756175,
  "lat": 43.6110777,
  "lon": 3.8805841
},
{
  "type": "node",
  "id": 6245736080,
  "lat": 43.6185255,
  "lon": 3.8821531
},
{
  "type": "node",
  "id": 6245736083,
  "lat": 43.6183342,
  "lon": 3.8823680
},
{
  "type": "node",
  "id": 6245736084,
  "lat": 43.6184587,
  "lon": 3.8820942
},
{
  "type": "node",
  "id": 6245739785,
  "lat": 43.6185797,
  "lon": 3.8822010
},
{
  "type": "node",
  "id": 6245739786,
  "lat": 43.6185777,
  "lon": 3.8822057
},
{
  "type": "node",
  "id": 6245739792,
  "lat": 43.6184059,
  "lon": 3.8821970
},
{
  "type": "node",
  "id": 6245739793,
  "lat": 43.6185207,
  "lon": 3.8823135
},
{
  "type": "node",
  "id": 6245739794,
  "lat": 43.6184571,
  "lon": 3.8824350
},
{
  "type": "node",
  "id": 6245739795,
  "lat": 43.6185104,
  "lon": 3.8823331
},
{
  "type": "node",
  "id": 6245739796,
  "lat": 43.6183901,
  "lon": 3.8822276
},
{
  "type": "node",
  "id": 6245739801,
  "lat": 43.6183233,
  "lon": 3.8823569
},
{
  "type": "node",
  "id": 6245739802,
  "lat": 43.6183286,
  "lon": 3.8823466
},
{
  "type": "node",
  "id": 6245739804,
  "lat": 43.6183436,
  "lon": 3.8823775
},
{
  "type": "node",
  "id": 6245739805,
  "lat": 43.6184138,
  "lon": 3.8824488
},
{
  "type": "node",
  "id": 6245739807,
  "lat": 43.6184529,
  "lon": 3.8824431
},
{
  "type": "node",
  "id": 6245739808,
  "lat": 43.6184375,
  "lon": 3.8824728
},
{
  "type": "node",
  "id": 6252659906,
  "lat": 43.6184250,
  "lon": 3.8824603
},
{
  "type": "node",
  "id": 919750806,
  "lat": 43.7311718,
  "lon": 3.8098639
},
{
  "type": "node",
  "id": 919751899,
  "lat": 43.7311114,
  "lon": 3.8098225
},
{
  "type": "node",
  "id": 919754650,
  "lat": 43.7311634,
  "lon": 3.8098097
},
{
  "type": "node",
  "id": 919754811,
  "lat": 43.7311332,
  "lon": 3.8098168
},
{
  "type": "node",
  "id": 919759277,
  "lat": 43.7311013,
  "lon": 3.8098288
},
{
  "type": "node",
  "id": 919760451,
  "lat": 43.7311053,
  "lon": 3.8098775
},
{
  "type": "node",
  "id": 919760945,
  "lat": 43.7311466,
  "lon": 3.8099208
},
{
  "type": "node",
  "id": 919761849,
  "lat": 43.7311311,
  "lon": 3.8099254
},
{
  "type": "node",
  "id": 919762199,
  "lat": 43.7311402,
  "lon": 3.8098708
},
{
  "type": "node",
  "id": 919764757,
  "lat": 43.7311243,
  "lon": 3.8098738
},
{
  "type": "node",
  "id": 6329591062,
  "lat": 43.7311039,
  "lon": 3.8097972
},
{
  "type": "node",
  "id": 6329591066,
  "lat": 43.7310732,
  "lon": 3.8098206
},
{
  "type": "node",
  "id": 6329591806,
  "lat": 43.7311776,
  "lon": 3.8099272
},
{
  "type": "node",
  "id": 6329591807,
  "lat": 43.7310731,
  "lon": 3.8098256
},
{
  "type": "node",
  "id": 6329591808,
  "lat": 43.7309849,
  "lon": 3.8098607
},
{
  "type": "node",
  "id": 6329591809,
  "lat": 43.7310273,
  "lon": 3.8099852
},
{
  "type": "node",
  "id": 6329591810,
  "lat": 43.7310506,
  "lon": 3.8099755
},
{
  "type": "node",
  "id": 6329591811,
  "lat": 43.7310485,
  "lon": 3.8099677
},
{
  "type": "node",
  "id": 6834235110,
  "lat": 43.7310405,
  "lon": 3.8099797
},
{
  "type": "node",
  "id": 781200460,
  "lat": 43.6754112,
  "lon": 4.1344184
},
{
  "type": "node",
  "id": 781206074,
  "lat": 43.6754950,
  "lon": 4.1344050
},
{
  "type": "node",
  "id": 781262434,
  "lat": 43.6755195,
  "lon": 4.1342498
},
{
  "type": "node",
  "id": 781395697,
  "lat": 43.6753528,
  "lon": 4.1342491
},
{
  "type": "node",
  "id": 781406236,
  "lat": 43.6753634,
  "lon": 4.1343618
},
{
  "type": "node",
  "id": 781445703,
  "lat": 43.6755279,
  "lon": 4.1343417
},
{
  "type": "node",
  "id": 6640480300,
  "lat": 43.6754903,
  "lon": 4.1343701
},
{
  "type": "node",
  "id": 6946469089,
  "lat": 43.6753658,
  "lon": 4.1343914
},
{
  "type": "node",
  "id": 6948198026,
  "lat": 43.6753495,
  "lon": 4.1342189
},
{
  "type": "node",
  "id": 6948198027,
  "lat": 43.6753685,
  "lon": 4.1344251
},
{
  "type": "node",
  "id": 6948198028,
  "lat": 43.6754871,
  "lon": 4.1343475
},
{
  "type": "node",
  "id": 6948198029,
  "lat": 43.6755143,
  "lon": 4.1341962
},
{
  "type": "node",
  "id": 6948198030,
  "lat": 43.6754142,
  "lon": 4.1342057
},
{
  "type": "node",
  "id": 7056331354,
  "lat": 43.6753953,
  "lon": 4.1342125
},
{
  "type": "node",
  "id": 7056331355,
  "lat": 43.6753947,
  "lon": 4.1342092
},
{
  "type": "node",
  "id": 7056331356,
  "lat": 43.6754348,
  "lon": 4.1342020
},
{
  "type": "node",
  "id": 7056331357,
  "lat": 43.6754356,
  "lon": 4.1342065
},
{
  "type": "node",
  "id": 3839601918,
  "lat": 43.7191607,
  "lon": 4.1478008
},
{
  "type": "node",
  "id": 3839601919,
  "lat": 43.7192019,
  "lon": 4.1478594
},
{
  "type": "node",
  "id": 3839601920,
  "lat": 43.7191728,
  "lon": 4.1478979
},
{
  "type": "node",
  "id": 3839601921,
  "lat": 43.7192140,
  "lon": 4.1479515
},
{
  "type": "node",
  "id": 3839601922,
  "lat": 43.7192515,
  "lon": 4.1479180
},
{
  "type": "node",
  "id": 3839601923,
  "lat": 43.7192890,
  "lon": 4.1479749
},
{
  "type": "node",
  "id": 3839601924,
  "lat": 43.7192237,
  "lon": 4.1480603
},
{
  "type": "node",
  "id": 3839601925,
  "lat": 43.7192333,
  "lon": 4.1480720
},
{
  "type": "node",
  "id": 3839601926,
  "lat": 43.7191426,
  "lon": 4.1481875
},
{
  "type": "node",
  "id": 3839601927,
  "lat": 43.7191293,
  "lon": 4.1481926
},
{
  "type": "node",
  "id": 3839601928,
  "lat": 43.7190797,
  "lon": 4.1482612
},
{
  "type": "node",
  "id": 3839601929,
  "lat": 43.7190192,
  "lon": 4.1483516
},
{
  "type": "node",
  "id": 3839601930,
  "lat": 43.7188885,
  "lon": 4.1481457
},
{
  "type": "node",
  "id": 621463481,
  "lat": 43.8606270,
  "lon": 3.9059442
},
{
  "type": "node",
  "id": 621463483,
  "lat": 43.8605668,
  "lon": 3.9059057
},
{
  "type": "node",
  "id": 621463484,
  "lat": 43.8604863,
  "lon": 3.9059099
},
{
  "type": "node",
  "id": 621463485,
  "lat": 43.8604840,
  "lon": 3.9059252
},
{
  "type": "node",
  "id": 621463486,
  "lat": 43.8604362,
  "lon": 3.9059306
},
{
  "type": "node",
  "id": 621463480,
  "lat": 43.8607179,
  "lon": 3.9060520
},
{
  "type": "node",
  "id": 621463482,
  "lat": 43.8606167,
  "lon": 3.9059599
},
{
  "type": "node",
  "id": 621463487,
  "lat": 43.8604300,
  "lon": 3.9060149
},
{
  "type": "node",
  "id": 621463488,
  "lat": 43.8603997,
  "lon": 3.9060605
},
{
  "type": "node",
  "id": 621463490,
  "lat": 43.8604326,
  "lon": 3.9061070
},
{
  "type": "node",
  "id": 621463491,
  "lat": 43.8604313,
  "lon": 3.9061315
},
{
  "type": "node",
  "id": 621463492,
  "lat": 43.8604984,
  "lon": 3.9062138
},
{
  "type": "node",
  "id": 621463493,
  "lat": 43.8605861,
  "lon": 3.9062028
},
{
  "type": "node",
  "id": 621463494,
  "lat": 43.8606209,
  "lon": 3.9061512
},
{
  "type": "node",
  "id": 621463495,
  "lat": 43.8606463,
  "lon": 3.9061761
},
{
  "type": "way",
  "id": 75320819,
  "nodes": [
    889422812,
    889416480,
    889433222,
    889435493,
    889443980,
    889440543,
    889426568,
    889418265,
    889420054,
    889433164,
    60727537,
    889417139,
    889433002,
    889422600,
    889440873,
    889416453,
    889438440,
    889440431,
    889421603,
    889414959,
    889437677,
    889445743,
    889422053,
    889438058,
    889415523,
    889431824,
    889430354,
    889420161,
    889430641,
    889415521,
    889416553,
    889431160,
    889443948,
    889443350,
    889422812
  ]
},
{
  "type": "way",
  "id": 75320281,
  "nodes": [
    889422943,
    889436397,
    889422494,
    889423360,
    889422943
  ]
}

  ]
}
