{
  "version": 0.6,
  "generator": "Overpass API 0.7.55.9 ab41fea6",
  "osm3s": {
    "timestamp_osm_base": "2020-02-14T15:33:01Z",
    "copyright": "The data included in this document is from www.openstreetmap.org. The data is made available under ODbL."
  },
  "elements": [

{
  "type": "node",
  "id": 734639241,
  "lat": 47.0183655,
  "lon": 19.4331119,
  "tags": {
    "is_in": "Széktódűlő",
    "name": "Népraizi Múzeum",
    "tourism": "museum"
  }
},
{
  "type": "node",
  "id": 956716501,
  "lat": 47.1318970,
  "lon": 19.4252745,
  "tags": {
    "name": "Örkényi falumúzeum",
    "tourism": "museum"
  }
},
{
  "type": "node",
  "id": 1296409728,
  "lat": 46.9069351,
  "lon": 19.6942984,
  "tags": {
    "addr:city": "Kecskemét",
    "addr:housenumber": "1",
    "addr:postcode": "6000",
    "addr:street": "Kálvin tér",
    "name": "Ráday Múzeum",
    "opening_hours": "Tu-Su 10:00-18:00",
    "phone": "+36 76 486 226",
    "source": "http://www.radaymuzeum.hu/tartalom/mutat/Muzeum/Elerhetoseg.html",
    "tourism": "museum",
    "website": "http://www.radaymuzeum.hu/"
  }
},
{
  "type": "node",
  "id": 1304026189,
  "lat": 46.9052724,
  "lon": 19.6943694,
  "tags": {
    "addr:city": "Kecskemét",
    "addr:housenumber": "12",
    "addr:postcode": "6000",
    "addr:street": "Katona József tér",
    "charge": "500 HUF",
    "name": "Magyar Fotográfiai Múzeum",
    "name:pl": "Węgierskie Muzeum Fotografii",
    "opening_hours": "Tu-Sa 12:00-17:00",
    "phone": "+36 76 483 221",
    "source": "http://fotomuzeum.hu/",
    "tourism": "museum",
    "website": "http://fotomuzeum.hu/"
  }
},
{
  "type": "node",
  "id": 1313884386,
  "lat": 47.0421758,
  "lon": 19.7859066,
  "tags": {
    "name": "Arany János Múzeum",
    "tourism": "museum"
  }
},
{
  "type": "node",
  "id": 1855590361,
  "lat": 46.6578113,
  "lon": 19.6181083,
  "tags": {
    "name": "Bugac Puszta",
    "tourism": "museum"
  }
},
{
  "type": "node",
  "id": 2257819898,
  "lat": 46.7099980,
  "lon": 19.8557528,
  "tags": {
    "name": "Móra Ferenc szülőháza",
    "tourism": "museum"
  }
},
{
  "type": "node",
  "id": 2257819921,
  "lat": 46.7125736,
  "lon": 19.8530643,
  "tags": {
    "name": "Petőfi Sándor Emlékszoba",
    "source": "http://www.museum.hu/museum/index_hu.php?ID=128/",
    "tourism": "museum"
  }
},
{
  "type": "node",
  "id": 2381414849,
  "lat": 47.1724372,
  "lon": 19.7985161,
  "tags": {
    "fixme": "duplicated POI & multipoly",
    "mapillary": "m-HVthjEilBm_iVfl_r4WA",
    "name": "Kossuth múzeum/museum",
    "tourism": "museum"
  }
},
{
  "type": "node",
  "id": 3260067670,
  "lat": 46.6554919,
  "lon": 19.6691354,
  "tags": {
    "addr:city": "Bugac",
    "addr:housenumber": "545",
    "addr:postcode": "6114",
    "addr:street": "Felsőmonostor",
    "name": "Alföldfásítási Múzeum",
    "operator": "KEFAG Kiskunsági Erdészeti és Faipari Zrt.",
    "phone": "+36 76 575 520",
    "tourism": "museum",
    "website": "http://www.kefag.hu/index.php?option=com_content&view=article&id=50&Itemid=55&lang=hu"
  }
},
{
  "type": "node",
  "id": 3432048225,
  "lat": 47.0256970,
  "lon": 19.5627750,
  "tags": {
    "name": "Helytörténeti gyűjtemény",
    "source": "turistautak.hu",
    "tourism": "museum",
    "url": "http://turistautak.hu/poi.php?id=104242"
  }
},
{
  "type": "node",
  "id": 3432048428,
  "lat": 47.0063900,
  "lon": 19.5846900,
  "tags": {
    "name": "Tanya múzeum - zárva!",
    "source": "turistautak.hu",
    "tourism": "museum",
    "url": "http://turistautak.hu/poi.php?id=40551"
  }
},
{
  "type": "node",
  "id": 3439443289,
  "lat": 46.9060100,
  "lon": 19.7003200,
  "tags": {
    "name": "Bozsó Gyűjtemény",
    "source": "turistautak.hu",
    "source:date": "2011-06-24",
    "tourism": "museum",
    "url": "http://turistautak.hu/poi.php?id=61345"
  }
},
{
  "type": "node",
  "id": 3439443431,
  "lat": 46.9346400,
  "lon": 19.7064900,
  "tags": {
    "name": "Iskolatörténeti kiállítás",
    "source": "turistautak.hu",
    "source:date": "2013-03-12",
    "tourism": "museum",
    "url": "http://turistautak.hu/poi.php?id=41314"
  }
},
{
  "type": "node",
  "id": 3439443510,
  "lat": 46.9047300,
  "lon": 19.6951800,
  "tags": {
    "name": "Katona József Emlékház",
    "source": "turistautak.hu",
    "source:date": "2011-06-24",
    "tourism": "museum",
    "url": "http://turistautak.hu/poi.php?id=61346"
  }
},
{
  "type": "node",
  "id": 3439443548,
  "lat": 46.8923170,
  "lon": 19.6853830,
  "tags": {
    "name": "Kisvasúti járműskanzen - Felszámolva!",
    "source": "turistautak.hu",
    "source:date": "2013-11-13",
    "tourism": "museum",
    "url": "http://turistautak.hu/poi.php?id=6976"
  }
},
{
  "type": "node",
  "id": 3439443864,
  "lat": 46.9107200,
  "lon": 19.6872600,
  "tags": {
    "name": "Nemzetközi Kerámia Stúdió Galériája és Múzeuma",
    "source": "turistautak.hu",
    "source:date": "2011-07-11",
    "tourism": "museum",
    "url": "http://turistautak.hu/poi.php?id=42121"
  }
},
{
  "type": "node",
  "id": 3439443874,
  "lat": 46.9526210,
  "lon": 19.5646020,
  "tags": {
    "name": "Nyíri erdészház - 1848-as gyűjtemény",
    "source": "turistautak.hu",
    "source:date": "2014-03-14",
    "tourism": "museum",
    "url": "http://turistautak.hu/poi.php?id=40890"
  }
},
{
  "type": "node",
  "id": 3439443878,
  "lat": 46.9025000,
  "lon": 19.6810280,
  "tags": {
    "fixme": "resurvey (source was old)",
    "name": "Népi Iparművészeti Gyűjtemény",
    "source": "turistautak.hu",
    "source:date": "2008-11-10",
    "tourism": "museum",
    "url": "http://turistautak.hu/poi.php?id=10714"
  }
},
{
  "type": "node",
  "id": 3439443886,
  "lat": 46.9067420,
  "lon": 19.6876620,
  "tags": {
    "name": "Orvos és Gyógyszerészet-történeti Múzeum",
    "source": "turistautak.hu",
    "source:date": "2011-06-24",
    "tourism": "museum",
    "url": "http://turistautak.hu/poi.php?id=36692"
  }
},
{
  "type": "node",
  "id": 3439444125,
  "lat": 46.9118420,
  "lon": 19.6823020,
  "tags": {
    "name": "Rendszámtábla-gyűjtemény",
    "source": "turistautak.hu",
    "source:date": "2012-10-15",
    "tourism": "museum",
    "url": "http://turistautak.hu/poi.php?id=121101"
  }
},
{
  "type": "node",
  "id": 3454581444,
  "lat": 47.1723000,
  "lon": 19.7953000,
  "tags": {
    "name": "Ceglédi Sportmúzeum",
    "source": "turistautak.hu",
    "source:date": "2018-12-30",
    "tourism": "museum",
    "url": "http://turistautak.hu/poi.php?id=23169"
  }
},
{
  "type": "node",
  "id": 3454581481,
  "lat": 47.1820330,
  "lon": 19.7884430,
  "tags": {
    "name": "Veterán Jármű Szalon",
    "source": "turistautak.hu",
    "source:date": "2016-02-29",
    "tourism": "museum",
    "url": "http://veteranszalon.hu"
  }
},
{
  "type": "node",
  "id": 3454581608,
  "lat": 47.1161500,
  "lon": 19.6856000,
  "tags": {
    "name": "Jawa Motorkerékpár Múzeum",
    "source": "turistautak.hu",
    "source:date": "2011-06-24",
    "tourism": "museum",
    "url": "http://turistautak.hu/poi.php?id=29651"
  }
},
{
  "type": "node",
  "id": 3459945514,
  "lat": 46.9363100,
  "lon": 19.4765090,
  "tags": {
    "name": "Balatoni Farkas János Helytörténeti Gyűjtemény",
    "source": "turistautak.hu",
    "source:date": "2011-06-24",
    "tourism": "museum",
    "url": "http://turistautak.hu/poi.php?id=103469"
  }
},
{
  "type": "node",
  "id": 3459946870,
  "lat": 47.0667700,
  "lon": 19.4964100,
  "tags": {
    "name": "Tájház",
    "source": "turistautak.hu",
    "source:date": "2011-06-24",
    "tourism": "museum",
    "url": "http://turistautak.hu/poi.php?id=63104"
  }
},
{
  "type": "node",
  "id": 3461941820,
  "lat": 46.8758660,
  "lon": 19.2215950,
  "tags": {
    "name": "Helytörténeti Gyűjtemény",
    "source": "turistautak.hu",
    "source:date": "2014-06-09",
    "tourism": "museum",
    "url": "http://turistautak.hu/poi.php?id=169138"
  }
},
{
  "type": "node",
  "id": 3461941888,
  "lat": 47.0243910,
  "lon": 19.2892460,
  "tags": {
    "description": "A központ előzetes egyeztetéssel, csoportosan látogatható.",
    "name": "Rákosivipera-védelmi és Oktató Központ",
    "source": "turistautak.hu",
    "source:date": "2014-09-01",
    "tourism": "museum",
    "url": "http://turistautak.hu/poi.php?id=171438"
  }
},
{
  "type": "node",
  "id": 3474965058,
  "lat": 46.8091450,
  "lon": 19.3493250,
  "tags": {
    "name": "Pálinka Múzeum",
    "source": "turistautak.hu",
    "source:date": "2014-06-09",
    "tourism": "museum",
    "url": "http://turistautak.hu/poi.php?id=169142"
  }
},
{
  "type": "node",
  "id": 3488383767,
  "lat": 46.8235500,
  "lon": 19.9901300,
  "tags": {
    "name": "Természetrajzi és helytörténeti kiállítás",
    "name:en": "Natural & Local History Exhibition",
    "source": "turistautak.hu",
    "source:date": "2010-05-06",
    "tourism": "museum",
    "url": "http://turistautak.hu/poi.php?id=23139"
  }
},
{
  "type": "node",
  "id": 4076135483,
  "lat": 46.9102374,
  "lon": 19.6986528,
  "tags": {
    "addr:city": "Kecskemét",
    "addr:country": "HU",
    "addr:housenumber": "15",
    "addr:postcode": "6000",
    "addr:street": "Rákóczi út",
    "name": "Leskowsky Hangszergyűjtemény",
    "name:en": "\"Leskowsky\" Collection of Musical Instruments",
    "tourism": "museum"
  }
},
{
  "type": "node",
  "id": 4579451191,
  "lat": 46.7632090,
  "lon": 19.7525481,
  "tags": {
    "name": "Gyöngyösi Mátyás helytörténeti gyüjtemény",
    "name:hu": "Gyöngyösi Mátyás helytörténeti gyüjtemény",
    "tourism": "museum"
  }
},
{
  "type": "node",
  "id": 4687134795,
  "lat": 46.8938638,
  "lon": 19.6908505,
  "tags": {
    "addr:city": "Kecskemét",
    "addr:housenumber": "2",
    "addr:postcode": "6000",
    "addr:street": "Matkói út",
    "email": "bevizp@zwackunicum.hu",
    "name": "Zwack Kecskeméti Pálinka Manufaktúra",
    "name:en": "Zwack Kecskeméti Pálinka Factory and Museum",
    "name:ru": "Цвак Кечкеметская Палинка Завод и Музей",
    "phone": "+36 76 487711",
    "tourism": "museum",
    "website": "https://zwackunicum.hu/en/zwack-muzeumok/zwack-kecskemeti-palinkamanufaktura/bemutato/#tartalom"
  }
},
{
  "type": "node",
  "id": 5653330436,
  "lat": 47.1698972,
  "lon": 19.7986990,
  "tags": {
    "name": "Dobmúzeum",
    "tourism": "museum"
  }
},
{
  "type": "node",
  "id": 5709348332,
  "lat": 46.9374696,
  "lon": 19.4218084,
  "tags": {
    "addr:city": "Kerekegyháza",
    "addr:housenumber": "81",
    "addr:postcode": "6041",
    "addr:street": "Kunpuszta",
    "email": "olga.rendek@gmail.com",
    "is_in": "Kunpuszta",
    "name": "Rendek Ökogazdaság és Tanyamúzeum",
    "operator": "Kiskunsági Hagyományőrző, Kézműves és Turisztikai Egyesület",
    "phone": "+36 76 - 710-962",
    "start_date": "1995",
    "tourism": "museum",
    "url": "http://www.biotanya.hu/",
    "website": "https://www.okomuzeum.hu/"
  }
},
{
  "type": "node",
  "id": 6297640295,
  "lat": 46.9089889,
  "lon": 19.6901928,
  "tags": {
    "name": "Ortodox Egyháztörténeti Gyűjtemény (Ikonmúzeum)",
    "opening_hours": "Tu-Fr 10:00-16:00; Sa 10:00-12:00",
    "tourism": "museum"
  }
},
{
  "type": "way",
  "id": 193627757,
  "nodes": [
    2041532770,
    2041532744,
    2041532752,
    2041532774,
    2041532756,
    2041532739,
    2041532750,
    2041532736,
    2041532737,
    2041532749,
    2041532727,
    2041532755,
    2041532770
  ],
  "tags": {
    "addr:city": "Kecskemét",
    "addr:housenumber": "1",
    "addr:postcode": "6000",
    "addr:street": "Rákóczi út",
    "building": "public",
    "name": "Cifrapalota",
    "operator": "Katona József Múzeum",
    "phone": "+36 76 480 776",
    "source": "http://muzeum.kecskemet.hu/cifra/",
    "tourism": "museum",
    "website": "http://muzeum.kecskemet.hu/cifra/",
    "wikidata": "Q735822",
    "wikipedia": "hu:Cifrapalota"
  }
},
{
  "type": "way",
  "id": 234757645,
  "nodes": [
    2428979322,
    2428979328,
    2428979347,
    2428979344,
    2428979326,
    2428979342,
    2428979322
  ],
  "tags": {
    "building": "public",
    "name": "Kiskun Múzeum",
    "tourism": "museum"
  }
},
{
  "type": "way",
  "id": 313292400,
  "nodes": [
    3192016741,
    3192016742,
    3192016740,
    3192016738,
    3192016736,
    3192016734,
    3192016733,
    3192016735,
    3192016737,
    3192016739,
    3192016741
  ],
  "tags": {
    "building": "yes",
    "name": "Pásztormúzeum",
    "name:de": "Hirtenmuseum",
    "tourism": "museum"
  }
},
{
  "type": "way",
  "id": 553073179,
  "nodes": [
    5339155301,
    5339155298,
    5339155299,
    5339155300,
    5339155301
  ],
  "tags": {
    "addr:city": "Kerekegyháza",
    "addr:country": "HU",
    "addr:place": "Kunpuszta tanya",
    "addr:postcode": "6041",
    "building": "yes",
    "heritage": "2",
    "is_in": "Kondor-tó; Kiskunsági Nemzeti Park; Fülöpházi buckavidék",
    "name": "Halásztanya",
    "operator": "Kiskunsági Nemzeti Park",
    "tourism": "museum",
    "url": "http://www.kerekegyhaza.hu/viewpage.php?page_id=4",
    "website": "http://www.bacskiskun.hu/latnivalok/halasz-tanya"
  }
},
{
  "type": "way",
  "id": 599447795,
  "nodes": [
    5703058039,
    5703058038,
    5703058037,
    5703058033,
    5703058034,
    5703058032,
    5703058035,
    5703058036,
    5703058039
  ],
  "tags": {
    "building": "yes",
    "fixme": "duplicated POI & multipoly",
    "mapillary": "GKOHWcFfv_aw1RLoDp27kg",
    "name": "Kossuth múzeum",
    "tourism": "museum"
  }
},
{
  "type": "way",
  "id": 616009311,
  "nodes": [
    5824477582,
    5824477579,
    5824477601,
    5824477589,
    5824477584,
    5824477590,
    5824477604,
    5824477605,
    5824477613,
    5824477598,
    5824477603,
    5824477593,
    5824477609,
    5824477615,
    5824477606,
    5824477622,
    5824477616,
    5824477617,
    5824477607,
    5824477620,
    5824477583,
    5824477585,
    5824477582
  ],
  "tags": {
    "building": "yes",
    "contact:website": "http://www.kulturmuvek.hu",
    "description": "Régészeti kiállítás a pár méterre keletre kiásott egykori árpád-kori felsőalpári templomról",
    "name": "Archeum",
    "note": "Should be resurveyed",
    "tourism": "museum"
  }
},
{
  "type": "way",
  "id": 616130625,
  "nodes": [
    5825482461,
    5825482460,
    5825482459,
    5825482458,
    5825482457,
    5825482456,
    5825482461
  ],
  "tags": {
    "description": "A bemutatóhelyen a kora középkorra jellemző veremházak, kemencék, gabonatárolók, cserény és kút láthatók.",
    "fee": "no",
    "landuse": "grass",
    "name": "Árpád-kori falurekonstrukció",
    "name:en": "Medieval village",
    "operator": "Kiskunsági Nemzeti Park",
    "source": "turistautak.hu",
    "source:date": "2014-09-01",
    "tourism": "museum",
    "url": "http://turistautak.hu/poi.php?id=11491"
  }
},
{
  "type": "way",
  "id": 668990541,
  "nodes": [
    6264613571,
    6264613572,
    6264613573,
    6264613574,
    6264613575,
    6264613576,
    6264613577,
    6264613578,
    6264613579,
    6264613580,
    6264613581,
    6264613798,
    6264613583,
    6264613582,
    6264613571
  ],
  "tags": {
    "addr:city": "Kecskemét",
    "addr:housenumber": "11",
    "addr:postcode": "6000",
    "addr:street": "Gáspár András körút",
    "building": "public",
    "name": "Szórakaténusz Játékmúzeum és Műhely",
    "phone": "+36 76 481 469",
    "tourism": "museum",
    "website": "http://www.szorakatenusz.hu/"
  }
},
{
  "type": "way",
  "id": 668990543,
  "nodes": [
    6264613788,
    6264613797,
    6264613789,
    6264613790,
    6264613791,
    6264613792,
    6264613793,
    6264613794,
    6264613557,
    6264613795,
    6264613796,
    6264613788
  ],
  "tags": {
    "addr:city": "Kecskemét",
    "addr:housenumber": "11",
    "addr:postcode": "6000",
    "addr:street": "Gáspár András körút",
    "alt_name": "Bánó-ház",
    "building": "public",
    "name": "Magyar Naiv Művészek Múzeuma",
    "phone": "+36 76 324 767",
    "tourism": "museum"
  }
},
{
  "type": "way",
  "id": 687045046,
  "nodes": [
    6440442238,
    6440442235,
    6440442236,
    6440442237,
    6440442238
  ],
  "tags": {
    "building": "yes",
    "tourism": "museum"
  }
},
{
  "type": "node",
  "id": 3192016733,
  "lat": 46.6594143,
  "lon": 19.6157349
},
{
  "type": "node",
  "id": 3192016734,
  "lat": 46.6594157,
  "lon": 19.6158145
},
{
  "type": "node",
  "id": 3192016735,
  "lat": 46.6594453,
  "lon": 19.6156693
},
{
  "type": "node",
  "id": 3192016736,
  "lat": 46.6594489,
  "lon": 19.6158777
},
{
  "type": "node",
  "id": 3192016737,
  "lat": 46.6594968,
  "lon": 19.6156427
},
{
  "type": "node",
  "id": 3192016738,
  "lat": 46.6595013,
  "lon": 19.6159003
},
{
  "type": "node",
  "id": 3192016739,
  "lat": 46.6595492,
  "lon": 19.6156654
},
{
  "type": "node",
  "id": 3192016740,
  "lat": 46.6595528,
  "lon": 19.6158738
},
{
  "type": "node",
  "id": 3192016741,
  "lat": 46.6595824,
  "lon": 19.6157286
},
{
  "type": "node",
  "id": 3192016742,
  "lat": 46.6595838,
  "lon": 19.6158082
},
{
  "type": "node",
  "id": 5339155298,
  "lat": 46.9150978,
  "lon": 19.4175537
},
{
  "type": "node",
  "id": 5339155299,
  "lat": 46.9150373,
  "lon": 19.4174545
},
{
  "type": "node",
  "id": 5339155300,
  "lat": 46.9150779,
  "lon": 19.4174016
},
{
  "type": "node",
  "id": 5339155301,
  "lat": 46.9151383,
  "lon": 19.4175008
},
{
  "type": "node",
  "id": 6264613557,
  "lat": 46.9061967,
  "lon": 19.6866577
},
{
  "type": "node",
  "id": 6264613571,
  "lat": 46.9057533,
  "lon": 19.6865334
},
{
  "type": "node",
  "id": 6264613572,
  "lat": 46.9057041,
  "lon": 19.6865654
},
{
  "type": "node",
  "id": 6264613573,
  "lat": 46.9056849,
  "lon": 19.6866335
},
{
  "type": "node",
  "id": 6264613574,
  "lat": 46.9057109,
  "lon": 19.6867135
},
{
  "type": "node",
  "id": 6264613575,
  "lat": 46.9057492,
  "lon": 19.6867235
},
{
  "type": "node",
  "id": 6264613576,
  "lat": 46.9058147,
  "lon": 19.6869286
},
{
  "type": "node",
  "id": 6264613577,
  "lat": 46.9059191,
  "lon": 19.6868571
},
{
  "type": "node",
  "id": 6264613578,
  "lat": 46.9058830,
  "lon": 19.6867441
},
{
  "type": "node",
  "id": 6264613579,
  "lat": 46.9058447,
  "lon": 19.6867704
},
{
  "type": "node",
  "id": 6264613580,
  "lat": 46.9058176,
  "lon": 19.6866855
},
{
  "type": "node",
  "id": 6264613581,
  "lat": 46.9058367,
  "lon": 19.6866295
},
{
  "type": "node",
  "id": 6264613582,
  "lat": 46.9057943,
  "lon": 19.6865414
},
{
  "type": "node",
  "id": 6264613583,
  "lat": 46.9058713,
  "lon": 19.6864880
},
{
  "type": "node",
  "id": 6264613790,
  "lat": 46.9060688,
  "lon": 19.6869578
},
{
  "type": "node",
  "id": 6264613791,
  "lat": 46.9061372,
  "lon": 19.6869350
},
{
  "type": "node",
  "id": 6264613792,
  "lat": 46.9061329,
  "lon": 19.6869075
},
{
  "type": "node",
  "id": 6264613793,
  "lat": 46.9061691,
  "lon": 19.6868954
},
{
  "type": "node",
  "id": 6264613794,
  "lat": 46.9061388,
  "lon": 19.6867006
},
{
  "type": "node",
  "id": 6264613795,
  "lat": 46.9062270,
  "lon": 19.6869260
},
{
  "type": "node",
  "id": 6264613796,
  "lat": 46.9061983,
  "lon": 19.6869492
},
{
  "type": "node",
  "id": 6264613798,
  "lat": 46.9059023,
  "lon": 19.6865840
},
{
  "type": "node",
  "id": 6264613788,
  "lat": 46.9062071,
  "lon": 19.6870160
},
{
  "type": "node",
  "id": 6264613789,
  "lat": 46.9060895,
  "lon": 19.6870905
},
{
  "type": "node",
  "id": 6264613797,
  "lat": 46.9061888,
  "lon": 19.6870574
},
{
  "type": "node",
  "id": 2041532727,
  "lat": 46.9085306,
  "lon": 19.6950849
},
{
  "type": "node",
  "id": 2041532736,
  "lat": 46.9084608,
  "lon": 19.6948907
},
{
  "type": "node",
  "id": 2041532737,
  "lat": 46.9085190,
  "lon": 19.6950054
},
{
  "type": "node",
  "id": 2041532739,
  "lat": 46.9083626,
  "lon": 19.6948519
},
{
  "type": "node",
  "id": 2041532744,
  "lat": 46.9086563,
  "lon": 19.6950531
},
{
  "type": "node",
  "id": 2041532749,
  "lat": 46.9085019,
  "lon": 19.6950370
},
{
  "type": "node",
  "id": 2041532750,
  "lat": 46.9084205,
  "lon": 19.6949509
},
{
  "type": "node",
  "id": 2041532752,
  "lat": 46.9086571,
  "lon": 19.6950099
},
{
  "type": "node",
  "id": 2041532755,
  "lat": 46.9085111,
  "lon": 19.6951148
},
{
  "type": "node",
  "id": 2041532756,
  "lat": 46.9084762,
  "lon": 19.6946802
},
{
  "type": "node",
  "id": 2041532770,
  "lat": 46.9085748,
  "lon": 19.6952098
},
{
  "type": "node",
  "id": 2041532774,
  "lat": 46.9085056,
  "lon": 19.6946802
},
{
  "type": "node",
  "id": 2428979322,
  "lat": 46.7153213,
  "lon": 19.8500097
},
{
  "type": "node",
  "id": 2428979326,
  "lat": 46.7152621,
  "lon": 19.8494839
},
{
  "type": "node",
  "id": 2428979328,
  "lat": 46.7152070,
  "lon": 19.8496690
},
{
  "type": "node",
  "id": 2428979342,
  "lat": 46.7154148,
  "lon": 19.8499426
},
{
  "type": "node",
  "id": 2428979344,
  "lat": 46.7145323,
  "lon": 19.8497924
},
{
  "type": "node",
  "id": 2428979347,
  "lat": 46.7145725,
  "lon": 19.8499587
},
{
  "type": "node",
  "id": 5825482456,
  "lat": 46.8254063,
  "lon": 19.9887845
},
{
  "type": "node",
  "id": 5825482457,
  "lat": 46.8258064,
  "lon": 19.9889293
},
{
  "type": "node",
  "id": 5825482458,
  "lat": 46.8258449,
  "lon": 19.9887013
},
{
  "type": "node",
  "id": 5825482459,
  "lat": 46.8256687,
  "lon": 19.9886450
},
{
  "type": "node",
  "id": 5825482460,
  "lat": 46.8256577,
  "lon": 19.9887013
},
{
  "type": "node",
  "id": 5825482461,
  "lat": 46.8254338,
  "lon": 19.9886155
},
{
  "type": "node",
  "id": 5824477579,
  "lat": 46.8676687,
  "lon": 19.9993682
},
{
  "type": "node",
  "id": 5824477582,
  "lat": 46.8678065,
  "lon": 19.9996931
},
{
  "type": "node",
  "id": 5824477583,
  "lat": 46.8678521,
  "lon": 19.9996696
},
{
  "type": "node",
  "id": 5824477584,
  "lat": 46.8677292,
  "lon": 19.9990928
},
{
  "type": "node",
  "id": 5824477585,
  "lat": 46.8678395,
  "lon": 19.9996743
},
{
  "type": "node",
  "id": 5824477589,
  "lat": 46.8676896,
  "lon": 19.9991246
},
{
  "type": "node",
  "id": 5824477590,
  "lat": 46.8677582,
  "lon": 19.9991699
},
{
  "type": "node",
  "id": 5824477593,
  "lat": 46.8678653,
  "lon": 19.9993328
},
{
  "type": "node",
  "id": 5824477598,
  "lat": 46.8678918,
  "lon": 19.9992113
},
{
  "type": "node",
  "id": 5824477601,
  "lat": 46.8677550,
  "lon": 19.9992989
},
{
  "type": "node",
  "id": 5824477603,
  "lat": 46.8678365,
  "lon": 19.9992558
},
{
  "type": "node",
  "id": 5824477604,
  "lat": 46.8678877,
  "lon": 19.9990659
},
{
  "type": "node",
  "id": 5824477605,
  "lat": 46.8679564,
  "lon": 19.9992490
},
{
  "type": "node",
  "id": 5824477606,
  "lat": 46.8679970,
  "lon": 19.9994654
},
{
  "type": "node",
  "id": 5824477607,
  "lat": 46.8679571,
  "lon": 19.9997691
},
{
  "type": "node",
  "id": 5824477609,
  "lat": 46.8679084,
  "lon": 19.9993159
},
{
  "type": "node",
  "id": 5824477613,
  "lat": 46.8679176,
  "lon": 19.9992801
},
{
  "type": "node",
  "id": 5824477615,
  "lat": 46.8679258,
  "lon": 19.9994110
},
{
  "type": "node",
  "id": 5824477616,
  "lat": 46.8680420,
  "lon": 19.9995825
},
{
  "type": "node",
  "id": 5824477617,
  "lat": 46.8680263,
  "lon": 19.9997169
},
{
  "type": "node",
  "id": 5824477620,
  "lat": 46.8678940,
  "lon": 19.9997190
},
{
  "type": "node",
  "id": 5824477622,
  "lat": 46.8680194,
  "lon": 19.9994996
},
{
  "type": "node",
  "id": 6440442235,
  "lat": 47.0667917,
  "lon": 19.4964041
},
{
  "type": "node",
  "id": 6440442236,
  "lat": 47.0667196,
  "lon": 19.4962942
},
{
  "type": "node",
  "id": 6440442237,
  "lat": 47.0667694,
  "lon": 19.4962236
},
{
  "type": "node",
  "id": 6440442238,
  "lat": 47.0668416,
  "lon": 19.4963336
},
{
  "type": "node",
  "id": 5703058032,
  "lat": 47.1723353,
  "lon": 19.7983912
},
{
  "type": "node",
  "id": 5703058035,
  "lat": 47.1723680,
  "lon": 19.7984135
},
{
  "type": "node",
  "id": 5703058036,
  "lat": 47.1724344,
  "lon": 19.7982030
},
{
  "type": "node",
  "id": 5703058039,
  "lat": 47.1725284,
  "lon": 19.7982672
},
{
  "type": "node",
  "id": 5703058033,
  "lat": 47.1722754,
  "lon": 19.7984601
},
{
  "type": "node",
  "id": 5703058034,
  "lat": 47.1723068,
  "lon": 19.7984815
},
{
  "type": "node",
  "id": 5703058037,
  "lat": 47.1722362,
  "lon": 19.7985844
},
{
  "type": "node",
  "id": 5703058038,
  "lat": 47.1723944,
  "lon": 19.7986923
}

  ]
}
