{
  "version": 0.6,
  "generator": "Overpass API 0.7.55.1011 6c2efc30",
  "osm3s": {
    "timestamp_osm_base": "2020-02-14T12:43:02Z",
    "copyright": "The data included in this document is from www.openstreetmap.org. The data is made available under ODbL."
  },
  "elements": [

{
  "type": "node",
  "id": 34505703,
  "lat": 43.5254678,
  "lon": 5.4526102,
  "tags": {
    "addr:city": "Aix-en-Provence",
    "name": "Musée Granet",
    "opening_hours": "Tu-Su 12:00-18:00",
    "toilets:wheelchair": "yes",
    "tourism": "museum",
    "wheelchair": "yes",
    "wikidata": "Q965780",
    "wikipedia": "fr:Musée Granet"
  }
},
{
  "type": "node",
  "id": 894166170,
  "lat": 43.5384030,
  "lon": 5.4462542,
  "tags": {
    "name": "Atelier Cézanne",
    "opening_hours": "Mo-Su 10:00-12:30, 14:00-17:00",
    "tourism": "museum",
    "wikidata": "Q754053"
  }
},
{
  "type": "node",
  "id": 1080264128,
  "lat": 43.4312442,
  "lon": 5.5385545,
  "tags": {
    "name": "Musée de la Mine Hely d'Oissel",
    "tourism": "museum"
  }
},
{
  "type": "node",
  "id": 1503699114,
  "lat": 43.2731794,
  "lon": 5.3931148,
  "tags": {
    "name": "Palais des arts",
    "tourism": "museum"
  }
},
{
  "type": "node",
  "id": 1674650507,
  "lat": 43.3263892,
  "lon": 5.3583200,
  "tags": {
    "name": "Exposition sur la réparation navale",
    "tourism": "museum"
  }
},
{
  "type": "node",
  "id": 1727170210,
  "lat": 43.3054903,
  "lon": 5.3947811,
  "tags": {
    "name": "Observatoire de Marseille - Planétarium",
    "source": "http://www.andromede13.info/",
    "tourism": "museum"
  }
},
{
  "type": "node",
  "id": 1842394629,
  "lat": 43.3212920,
  "lon": 5.3898574,
  "tags": {
    "name": "Musée du savon de Marselle",
    "opening_hours": "we 14:00-17:00; fr 09:00-12:00",
    "tourism": "museum"
  }
},
{
  "type": "node",
  "id": 1864065398,
  "lat": 43.4412009,
  "lon": 5.3788631,
  "tags": {
    "name": "Musée Edgar Mélik",
    "tourism": "museum"
  }
},
{
  "type": "node",
  "id": 1979261200,
  "lat": 43.2977936,
  "lon": 5.3784437,
  "tags": {
    "name": "Mémorial de La Marseillaise",
    "tourism": "museum",
    "website": "http://www.marseille.fr/siteculture/les-lieux-culturels/le-memorial-de-la-marseillaise",
    "wheelchair": "yes",
    "wikidata": "Q41180",
    "wikipedia": "fr:La Marseillaise"
  }
},
{
  "type": "node",
  "id": 2272845968,
  "lat": 43.4059012,
  "lon": 5.0546126,
  "tags": {
    "name": "Maritima",
    "tourism": "museum"
  }
},
{
  "type": "node",
  "id": 2365711963,
  "lat": 43.2572605,
  "lon": 5.3820342,
  "tags": {
    "entrance": "main",
    "name": "Musée des arts décoratifs, de la faïence et de la mode",
    "tourism": "museum",
    "wheelchair": "yes",
    "wikidata": "Q16928705"
  }
},
{
  "type": "node",
  "id": 2375892958,
  "lat": 43.2925937,
  "lon": 5.3737030,
  "tags": {
    "name": "Maison de l'Artisanat et des Métiers d'Art",
    "operator": "Ville de Marseille",
    "tourism": "museum",
    "website": "http://www.maisondelartisanat.org/descriptif.htm"
  }
},
{
  "type": "node",
  "id": 2411223529,
  "lat": 43.2842567,
  "lon": 5.3711900,
  "tags": {
    "name": "Musée de Notre-Dame de la Garde",
    "opening_hours": "24/7",
    "tourism": "museum"
  }
},
{
  "type": "node",
  "id": 2459869469,
  "lat": 43.1712010,
  "lon": 5.6955128,
  "tags": {
    "name": "Musée gallo-romain de Taurœntum",
    "tourism": "museum",
    "website": "https://museedetauroentumsaintcyrsurmer.fr/",
    "wikidata": "Q33100680"
  }
},
{
  "type": "node",
  "id": 2499522058,
  "lat": 43.2975573,
  "lon": 5.3756864,
  "tags": {
    "contact:housenumber": "2",
    "contact:street": "rue Henri-Barbusse",
    "level": "-1",
    "name": "Musée d'histoire de Marseille",
    "name:en": "Marseille History Museum",
    "name:sv": "Marseilles historiska museum",
    "operator": "Ville de Marseille",
    "tourism": "museum",
    "wikidata": "Q3329666",
    "wikipedia": "fr:Musée d'histoire de Marseille"
  }
},
{
  "type": "node",
  "id": 2598867528,
  "lat": 43.3521050,
  "lon": 5.4386437,
  "tags": {
    "addr:housenumber": "5",
    "addr:street": "Place des Héros",
    "name": "Musée des Arts et Traditions populaires du terroir marseillais",
    "start_date": "1928",
    "tourism": "museum",
    "website": "https://www.espace-pignol.com/"
  }
},
{
  "type": "node",
  "id": 2733901821,
  "lat": 43.4056973,
  "lon": 5.0482380,
  "tags": {
    "name": "Musée d'histoire de Martigues",
    "tourism": "museum",
    "wheelchair": "yes"
  }
},
{
  "type": "node",
  "id": 3049694609,
  "lat": 43.2927904,
  "lon": 5.5663618,
  "tags": {
    "name": "Maison natale de Marcel Pagnol",
    "tourism": "museum"
  }
},
{
  "type": "node",
  "id": 3835992226,
  "lat": 43.4173170,
  "lon": 5.2155507,
  "tags": {
    "name": "musée d’Histoire, d’Art et de Traditions populaires",
    "tourism": "museum"
  }
},
{
  "type": "node",
  "id": 3835994425,
  "lat": 43.4163799,
  "lon": 5.2167127,
  "tags": {
    "addr:city": "Marignane",
    "addr:postcode": "13700",
    "addr:street": "Cours Mirabeau",
    "name": "Musée Raimu",
    "source": "survey 2017",
    "tourism": "museum"
  }
},
{
  "type": "node",
  "id": 4425058138,
  "lat": 43.2927712,
  "lon": 5.3694744,
  "tags": {
    "addr:city": "Marseille",
    "addr:housenumber": "25",
    "addr:street": "Quai de Rive-Neuve",
    "name": "Le Musée du Savon",
    "tourism": "museum"
  }
},
{
  "type": "node",
  "id": 4540234591,
  "lat": 43.5212070,
  "lon": 5.4398754,
  "tags": {
    "addr:housenumber": "109",
    "addr:postcode": "13617",
    "addr:street": "Avenue Du Petit Barthélémy",
    "email": "contact@3bisf.com",
    "name": "3 bis f",
    "phone": "+33442161775",
    "tourism": "museum",
    "website": "http://www.3bisf.com"
  }
},
{
  "type": "node",
  "id": 4540240792,
  "lat": 43.2608478,
  "lon": 5.3962644,
  "tags": {
    "addr:postcode": "13008",
    "name": "Cellule 516",
    "phone": "+33953504465",
    "tourism": "museum"
  }
},
{
  "type": "node",
  "id": 4945717658,
  "lat": 43.3010090,
  "lon": 5.3681139,
  "tags": {
    "contact:email": "dgac-maaoa@marseille.fr",
    "contact:housenumber": "2",
    "contact:phone": "+33 4 91145838",
    "contact:place": "Centre de la Vieille Charité",
    "contact:street": "Rue de la Charité",
    "description": "Le MAAOA présente des œuvres provenant d'Afrique (masques et reliquaires), d'Océanie (crânes et de masques de danse) et d'Amérique (statuettes, poupées et masques)",
    "level": "2",
    "name": "Musée des Arts Africains, Océaniens, Amérindiens",
    "name:en": "Museum of African, Native American and Oceanian Arts",
    "opening_hours": "May 16-Sep 17 Tu-Mo 13:00-19:00;Sep 18-May 15 Tu-Mo 13:00-18:00;Jan 01 off;May 01 off;Nov 01 off;Nov 11 off;Dec 25-26 off",
    "operator": "Ville de Marseille, Direction des musées",
    "short_name": "MAAOA",
    "source": "survey",
    "tourism": "museum",
    "wheelchair": "yes",
    "wikidata": "Q3330157",
    "wikipedia": "fr:Musée des arts africains, océaniens et amérindiens"
  }
},
{
  "type": "node",
  "id": 4945719803,
  "lat": 43.3005836,
  "lon": 5.3682814,
  "tags": {
    "contact:email": "dgac-museearcheologie@marseille.fr",
    "contact:housenumber": "2",
    "contact:phone": "+33 4 91145859",
    "contact:place": "Centre de la Vieille Charité",
    "contact:street": "Rue de la Charité",
    "description": "Le musée d'archéologie méditerranéenne présente des collections d’antiquités égyptiennes et d’antiquités classiques (civilisations étrusques et romaines, civilisation grecque, civilisations du Proche et Moyen-Orient)",
    "level": "1",
    "name": "Musée d'Archéologie Méditerranéenne",
    "name:en": "Museum of Mediterranean Archaeology",
    "opening_hours": "May 16-Sep 17 Tu-Mo 13:00-19:00;Sep 18-May 15 Tu-Mo 13:00-18:00;Jan 01 off;May 01 off;Nov 01 off;Nov 11 off;Dec 25-26 off",
    "operator": "Ville de Marseille, Direction des musées",
    "source": "survey",
    "tourism": "museum",
    "wheelchair": "yes",
    "wikidata": "Q1795927",
    "wikipedia": "fr:Musée d'archéologie méditerranéenne"
  }
},
{
  "type": "node",
  "id": 5295680900,
  "lat": 43.2929959,
  "lon": 5.5710601,
  "tags": {
    "addr:city": "Aubagne",
    "addr:postcode": "13400",
    "addr:street": "Cours de Clastres",
    "name": "La cité de l'art santonnier Thèrese Neveu",
    "tourism": "museum"
  }
},
{
  "type": "node",
  "id": 5295819003,
  "lat": 43.3309586,
  "lon": 5.0388918,
  "tags": {
    "description": "Visite gratuite et sans réservation",
    "fee": "no",
    "name": "Petit Musée de Carro",
    "phone": "+33 6 78 89 85 45",
    "tourism": "museum"
  }
},
{
  "type": "node",
  "id": 5758111374,
  "lat": 43.2976342,
  "lon": 5.3738903,
  "tags": {
    "name": "MuSaMa",
    "tourism": "museum",
    "wikipedia": "fr:MuSaMa"
  }
},
{
  "type": "node",
  "id": 5951899865,
  "lat": 43.5260015,
  "lon": 5.4491471,
  "tags": {
    "addr:city": "Aix-en-Provence",
    "addr:postcode": "13100",
    "email": "message@caumont-centredart.com",
    "name": "Hôtel de Caumont - Centre d'Art",
    "phone": "+33 4 42 20 70 01",
    "tourism": "museum",
    "website": "https://www.caumont-centredart.com/"
  }
},
{
  "type": "node",
  "id": 6345209974,
  "lat": 43.2917990,
  "lon": 5.3758261,
  "tags": {
    "addr:city": "Marseille",
    "addr:housenumber": "53",
    "addr:postcode": "13006",
    "addr:street": "Rue Grignan",
    "name": "David Pluskwa Contemporary Art",
    "tourism": "museum"
  }
},
{
  "type": "node",
  "id": 6481595914,
  "lat": 43.3806451,
  "lon": 5.1634392,
  "tags": {
    "name": "Castrum vetus",
    "tourism": "museum"
  }
},
{
  "type": "node",
  "id": 6691730808,
  "lat": 43.2930621,
  "lon": 5.5711512,
  "tags": {
    "name": "Le Petit Monde de Marcel Pagnol",
    "source": "cadastre-dgi-fr source : Direction Générale des Impôts - Cadastre. Mise à jour : 2018",
    "tourism": "museum",
    "website": "http://www.tourisme-paysdaubagne.fr/fr/petit-monde-de-marcel-pagnol"
  }
},
{
  "type": "node",
  "id": 6858411362,
  "lat": 43.5269484,
  "lon": 5.4432668,
  "tags": {
    "name": "Maison Darius Milhaud",
    "tourism": "museum"
  }
},
{
  "type": "way",
  "id": 59529750,
  "nodes": [
    738231439,
    738231441,
    738231442,
    738231443,
    738231444,
    738231445,
    738231446,
    738231447,
    738231449,
    738231450,
    738231451,
    738231453,
    738231448,
    738231437,
    738231438,
    738231432,
    738231427,
    738231433,
    738231439
  ],
  "tags": {
    "addr:city": "Aix-en-Provence",
    "addr:country": "FR",
    "addr:housenumber": "8",
    "addr:postcode": "13090",
    "building": "yes",
    "source": "cadastre-dgi-fr source : Direction Générale des Impôts - Cadastre ; mise à jour : 2010",
    "tourism": "museum"
  }
},
{
  "type": "way",
  "id": 67708610,
  "nodes": [
    817564396,
    817607666,
    817573470,
    817586076,
    817556497,
    817585313,
    817597818,
    817618961,
    817558624,
    817564396
  ],
  "tags": {
    "building": "yes",
    "name": "Musée Grobet-Labadié",
    "operator": "Ville de Marseille",
    "source": "cadastre-dgi-fr source : Direction Générale des Impôts - Cadastre. Mise à jour : 2010",
    "tourism": "museum",
    "wheelchair": "no",
    "wikidata": "Q3329184",
    "wikipedia": "fr:Musée Grobet-Labadié"
  }
},
{
  "type": "way",
  "id": 67715218,
  "nodes": [
    817729363,
    817719825,
    817697563,
    817706600,
    817738574,
    2120589476,
    1903777374,
    1903777375,
    817729363
  ],
  "tags": {
    "building": "yes",
    "name": "Musée Regards de Provence",
    "operator": "Fondation Regards de Provence",
    "source": "cadastre-dgi-fr source : Direction Générale des Impôts - Cadastre. Mise à jour : 2010",
    "toilets:wheelchair": "yes",
    "tourism": "museum",
    "website": "http://www.museeregardsdeprovence.com/",
    "wheelchair": "yes"
  }
},
{
  "type": "way",
  "id": 67715872,
  "nodes": [
    817736993,
    817703719,
    817712221,
    817717599,
    817746789,
    4253158807,
    817724134,
    817707086,
    4253156256,
    817727238,
    817736993
  ],
  "tags": {
    "addr:city": "Marseille",
    "addr:postcode": "13002",
    "addr:street": "Avenue Vaudoyer",
    "building": "bunker",
    "fee": "no",
    "museum_type": "municipal",
    "name": "Mémorial des déportations",
    "old_name": "Mémorial des camps de la mort",
    "opening_hours": "Tu-Fr 11:00-18:00; Sa-Su 09:30-18:00",
    "source": "cadastre-dgi-fr source : Direction Générale des Impôts - Cadastre. Mise à jour : 2010",
    "subject": "history",
    "tourism": "museum",
    "website": "https://www.musee-histoire-marseille-voie-historique.fr/",
    "wheelchair": "yes",
    "wikidata": "Q3333155",
    "wikipedia": "fr:Mémorial des déportations"
  }
},
{
  "type": "way",
  "id": 68976388,
  "nodes": [
    4061626051,
    827809845,
    827824355,
    827830867,
    827975125,
    827862734,
    827893916,
    827784479,
    827886150,
    828019068,
    827969994,
    827955716,
    827843176,
    827928479,
    4393568681,
    827780839,
    827944589,
    827815967,
    827819868,
    827794759,
    828018428,
    827960858,
    4393568837,
    4393568688,
    827786568,
    827780959,
    827974663,
    827966546,
    827966119,
    827788861,
    827928094,
    828011185,
    827950462,
    827779727,
    827956151,
    827814651,
    827875093,
    827842091,
    827811630,
    827975801,
    827898360,
    827931052,
    827806939,
    828006631,
    828013465,
    828000430,
    827803011,
    827785420,
    827808925,
    827972534,
    827946811,
    827800937,
    827961171,
    827965687,
    828019232,
    827885024,
    827913347,
    827970822,
    827853716,
    827797841,
    827804756,
    827932195,
    827847563,
    827790974,
    827787010,
    4061626068,
    827931617,
    827975796,
    827864348,
    827781140,
    827951566,
    828015891,
    827903515,
    827790582,
    827781218,
    827820443,
    4061626067,
    827818441,
    827830362,
    827780844,
    828000786,
    827788229,
    827957358,
    4061626051
  ],
  "tags": {
    "building": "museum",
    "flickr": "https://www.flickr.com/photos/kristenlanum/9410106994/in/photolist-fkxfY3-fki5cB-fkiCLM-acMRNx-pwWvz4-azWmY6-gLCiYf-BG1fe-azWmyK-o3hqg5-irLVbR-9nPYtd-eLoAAr-phErCW-pfxWNh-7oQCwq-ov9Ce9-7oLzna-fCCSLV-6C3Ts3-6BYK7g-gUvBdE-azZ2PS-dY1qds-6vjTEw-gWL7rP-o5k6Pj-",
    "level": "3",
    "name": "Musée des Beaux-Arts",
    "name:oc": "Musèu dei Bèleis Arts",
    "source:building": "cadastre-dgi-fr source : Direction Générale des Impôts - Cadastre. Mise à jour : 2010",
    "tourism": "museum",
    "website": "http://musee-des-beaux-arts.marseille.fr/",
    "wheelchair": "no",
    "wikidata": "Q83013",
    "wikipedia": "fr:Musée des beaux-arts de Marseille"
  }
},
{
  "type": "way",
  "id": 68977335,
  "nodes": [
    827894993,
    827998708,
    827859947,
    828017425,
    828013492,
    827808315,
    827832677,
    827953069,
    827920620,
    827954776,
    827848975,
    827805613,
    827929638,
    827899894,
    828007442,
    827980302,
    828006487,
    827781617,
    828003091,
    827828761,
    827804093,
    827949567,
    827912919,
    827908008,
    827791333,
    827825740,
    827827317,
    827791026,
    827864376,
    827965431,
    828007130,
    827834950,
    827930296,
    827787269,
    827806024,
    827892569,
    827868380,
    827807753,
    827946042,
    827890214,
    827968059,
    827911478,
    827814488,
    827778348,
    827903511,
    827809306,
    827980696,
    827866395,
    827783096,
    827780915,
    827833126,
    827775811,
    828006761,
    827823810,
    827800375,
    827858178,
    827971135,
    827930745,
    827977678,
    827818332,
    827948421,
    827920094,
    827793465,
    827792647,
    827976546,
    827980045,
    827858475,
    827884534,
    4061626050,
    828020097,
    827870602,
    827972350,
    827786148,
    827782323,
    828014106,
    827792251,
    827808650,
    827799570,
    827776763,
    4394745560,
    827894993
  ],
  "tags": {
    "building": "yes",
    "level": "3",
    "name": "Muséum d'Histoire Naturelle",
    "name:oc": "Museom d’Istòria Naturala",
    "source": "cadastre-dgi-fr source : Direction Générale des Impôts - Cadastre. Mise à jour : 2010",
    "tourism": "museum",
    "website": "http://www.museum-marseille.org/",
    "wheelchair": "no",
    "wikidata": "Q3330887",
    "wikipedia": "fr:Muséum d'histoire naturelle de Marseille"
  }
},
{
  "type": "way",
  "id": 69139913,
  "nodes": [
    829194640,
    829217127,
    829143117,
    829235576,
    829214418,
    829171908,
    829196266,
    829157557,
    829186176,
    829193138,
    829147253,
    829159762,
    829194640
  ],
  "tags": {
    "building": "yes",
    "name": "Musée Cantini",
    "opening_hours": "Tu-Su 10:00-17:00",
    "source": "cadastre-dgi-fr source : Direction Générale des Impôts - Cadastre. Mise à jour : 2010",
    "tourism": "museum",
    "wheelchair": "yes",
    "wikidata": "Q3086101",
    "wikipedia": "fr:Musée Cantini"
  }
},
{
  "type": "way",
  "id": 69637223,
  "nodes": [
    832910784,
    833114808,
    833076451,
    832991082,
    832910784
  ],
  "tags": {
    "building": "public",
    "name": "Musée Monticelli",
    "source": "survey 2015",
    "source:building": "cadastre-dgi-fr source : Direction Générale des Impôts - Cadastre. Mise à jour : 2010",
    "tourism": "museum"
  }
},
{
  "type": "way",
  "id": 76026764,
  "nodes": [
    897135832,
    897141961,
    897134115,
    897134310,
    897140186,
    897133905,
    897134223,
    897139312,
    897135046,
    897138058,
    897140736,
    897135811,
    897139755,
    897141698,
    897142184,
    897135183,
    897141106,
    897139053,
    897135832
  ],
  "tags": {
    "addr:city": "Cassis",
    "addr:postcode": "13260",
    "addr:street": "Place Baragnon",
    "building": "yes",
    "name": "Musée d'Arts et Traditions populaires",
    "opening_hours": "Oct-May: We-Sa 10:00-12:30,14:30-17:30;Jun-Sep: We-Sa 10:00-12:30,14:00-18:00",
    "operator": "Ville de Cassis",
    "source": "v1 cadastre-dgi-fr: 2010",
    "tourism": "museum",
    "website": "https://www.cassis.fr/culture-festivites/le-musee/"
  }
},
{
  "type": "way",
  "id": 88612425,
  "nodes": [
    1028972637,
    1028973449,
    1028980746,
    1028968686,
    1028978270,
    1028972730,
    1028970754,
    1028970035,
    1028980255,
    1028979945,
    1028978689,
    1028969967,
    1028978361,
    1028973461,
    1028977449,
    1028983280,
    1028980411,
    1028972637
  ],
  "tags": {
    "addr:city": "Aix-en-Provence",
    "addr:country": "FR",
    "addr:housenumber": "2a",
    "addr:postcode": "13090",
    "addr:street": "Rue du 4 Septembre",
    "building": "yes",
    "contact:website": "http://www.aixenprovencetourism.com/a-voir-que-faire/activites-et-loisirs/culture/musees-et-centres-dart/?detail=2706",
    "heritage": "2",
    "heritage:operator": "mhs",
    "historic": "building",
    "mhs:inscription_date": "1989-11-23",
    "name": "Hôtel Paul Arbaud",
    "note": "En travaux de rénovation actuellement",
    "ref:mhs": "PA00081094",
    "source": "cadastre-dgi-fr source : Direction Générale des Impôts - Cadastre ; mise à jour : 2010",
    "source:heritage": "data.gouv.fr, Ministère de la Culture - 2016",
    "start_date": "C18",
    "tourism": "museum",
    "wikidata": "Q22999521",
    "wikipedia": "fr:Hôtel Paul Arbaud"
  }
},
{
  "type": "way",
  "id": 88612731,
  "nodes": [
    1028976839,
    1028971711,
    1028982527,
    1028966796,
    1028977925,
    1028974360,
    1028974342,
    1028976892,
    1028981407,
    1028977220,
    1028976839
  ],
  "tags": {
    "addr:city": "Aix-en-Provence",
    "addr:housenumber": "52",
    "addr:postcode": "13100",
    "addr:street": "Rue Cardinale",
    "building": "yes",
    "name": "Gallifet Art Center",
    "source": "cadastre-dgi-fr source : Direction Générale des Impôts - Cadastre. Mise à jour : 2010",
    "tourism": "museum"
  }
},
{
  "type": "way",
  "id": 88613051,
  "nodes": [
    1028968210,
    1028983156,
    1028968171,
    1028967645,
    1028972911,
    1028967111,
    1028976133,
    1028978488,
    1028980072,
    1028983186,
    1028967707,
    1028978915,
    1028980314,
    1028981431,
    1028969599,
    1028978560,
    1028982022,
    1028975561,
    1028977839,
    1028967970,
    1028968908,
    1028972777,
    1028967828,
    1028969956,
    1028967758,
    1028983048,
    1028980498,
    1028971820,
    1028968210
  ],
  "tags": {
    "building": "yes",
    "name": "Musée Granet",
    "opening_hours": "Tu-Su 12:00-18:00",
    "source": "cadastre-dgi-fr source : Direction Générale des Impôts - Cadastre. Mise à jour : 2010",
    "tourism": "museum",
    "wikidata": "Q965780",
    "wikipedia": "fr:Musée Granet"
  }
},
{
  "type": "way",
  "id": 88613461,
  "nodes": [
    1028974732,
    1028972386,
    1028974471,
    1028976936,
    1028979184,
    1028977708,
    1028974935,
    1028973138,
    1028968603,
    1028967343,
    1028980647,
    1028977795,
    1028976176,
    1028969280,
    1028972733,
    1028967919,
    1028969951,
    1028975930,
    1028979114,
    1028976268,
    1028971063,
    1028973427,
    1028977023,
    1028971874,
    1028967087,
    1028980736,
    1028973766,
    1028968824,
    1028974696,
    1028976072,
    1028972457,
    1028968917,
    1028967403,
    1028970091,
    1028974782,
    1028972786,
    1028969445,
    1028974732
  ],
  "tags": {
    "addr:city": "Aix-en-Provence",
    "addr:postcode": "13100",
    "addr:street": "Place Jean Boyer",
    "building": "chapel",
    "heritage": "3",
    "heritage:operator": "mhs",
    "mhs:inscription_date": "1951",
    "name": "Granet XXème - Collection Planque",
    "phone": "+33442528797",
    "ref:mhs": "PA00080984",
    "religion": "christian",
    "source": "cadastre-dgi-fr source : Direction Générale des Impôts - Cadastre. Mise à jour : 2010",
    "source:heritage": "data.gouv.fr:Ministère de la Culture - 08/2011",
    "toilets:wheelchair": "yes",
    "tourism": "museum",
    "website": "http://www.museegranet-aixenprovence.fr/nc/accueil.html",
    "wheelchair": "yes",
    "wheelchair:description": "Le fonds d’art moderne du musée Granet s’est élargi en 2010 avec le dépôt de la collection de Jean Planque. Afin de présenter l’essentiel de cette magnifique collection, la Ville d’Aix-en-Provence a rénové la chapelle des Pénitents Blancs.",
    "wikidata": "Q22999317",
    "wikipedia": "fr:Chapelle des Pénitents Blancs des Carmes"
  }
},
{
  "type": "way",
  "id": 88613610,
  "nodes": [
    1028969247,
    1028973957,
    1028977677,
    1028969525,
    1028975391,
    1028982853,
    1028980702,
    1028979246,
    1028982318,
    1028977917,
    1028967309,
    1028971602,
    1028969766,
    1028977233,
    1028975985,
    1028983663,
    1028971436,
    1028980594,
    1028967939,
    1028980034,
    1028967105,
    1028971890,
    1028983378,
    1028980256,
    1028969247
  ],
  "tags": {
    "addr:city": "Aix-en-Provence",
    "addr:housenumber": "3",
    "addr:postcode": "13100",
    "addr:street": "Rue Joseph Cabassol",
    "building": "yes",
    "name": "Caumont Centre d'Art",
    "old_name": "Hotel de Caumont",
    "source": "cadastre-dgi-fr source : Direction Générale des Impôts - Cadastre. Mise à jour : 2010",
    "tourism": "museum",
    "wikidata": "Q3145788",
    "wikipedia": "fr:Hôtel de Caumont (Aix-en-Provence)"
  }
},
{
  "type": "way",
  "id": 88614075,
  "nodes": [
    1028979958,
    1028975871,
    1028975118,
    1028976722,
    1028970360,
    1028970380,
    1028967637,
    1028974180,
    1028972709,
    1028980033,
    1028980711,
    1028967591,
    1028971379,
    1028979958
  ],
  "tags": {
    "alt_name": "Musée du Vieil Aix",
    "building": "yes",
    "heritage": "2",
    "heritage:operator": "mhs",
    "historic": "building",
    "mhs:inscription_date": "1937-03-22",
    "name": "Hôtel d'Estienne de Saint-Jean",
    "ref:mhs": "PA00081031",
    "source": "cadastre-dgi-fr source : Direction Générale des Impôts - Cadastre. Mise à jour : 2010",
    "source:heritage": "data.gouv.fr, Ministère de la Culture - 2016",
    "start_date": "C17",
    "tourism": "museum",
    "wikidata": "Q3145725",
    "wikipedia": "fr:Hôtel d'Estienne-de-Saint-Jean"
  }
},
{
  "type": "way",
  "id": 88771262,
  "nodes": [
    1030176115,
    1030179811,
    5728566236,
    1030169739,
    2578068747,
    1030219425,
    1030241028,
    1030220789,
    1030230464,
    1030252170,
    1030242732,
    1030252918,
    1030260300,
    1030242722,
    1030236117,
    1030197009,
    1030234200,
    1030249513,
    1030259147,
    1030193235,
    1030180410,
    1030223468,
    1030231435,
    1030223770,
    1030222656,
    1030256550,
    1030192075,
    1030261757,
    1030198309,
    1030245206,
    1030209522,
    1030251474,
    1030245902,
    5728566234,
    5728566235,
    1030176115
  ],
  "tags": {
    "addr:city": "Aix-en-Provence",
    "addr:country": "FR",
    "addr:housenumber": "40",
    "addr:postcode": "13547",
    "addr:street": "Chemin de la Badesse",
    "building": "yes",
    "email": "contact@campdesmilles.org",
    "name": "Site-Mémorial du Camp des Milles",
    "opening_hours": "Tu-Su 10:00-19:00; Mo off; Jan 1 off; May 1 off; Dec 25 off",
    "phone": "+33 4 42 39 17 11",
    "source": "cadastre-dgi-fr source : Direction Générale des Impôts - Cadastre. Mise à jour : 2010",
    "tourism": "museum",
    "website": "http://www.campdesmilles.org/",
    "wheelchair": "yes"
  }
},
{
  "type": "way",
  "id": 92555867,
  "nodes": [
    1073911183,
    1074276516,
    1074183559,
    1074339214,
    1074245849,
    1074156149,
    1074052936,
    1073933344,
    1074314587,
    1074221171,
    1074130879,
    1074029493,
    1073904439,
    1074290384,
    1074196623,
    1074096357,
    1073925907,
    1073979552,
    1074359189,
    1074261987,
    1074061427,
    1073942419,
    1074324988,
    1074231492,
    1074303092,
    1073911183
  ],
  "tags": {
    "building": "yes",
    "name": "La cité de l'art santonnier Thèrese Neveu",
    "source": "cadastre-dgi-fr source : Direction Générale des Impôts - Cadastre. Mise à jour : 2010",
    "tourism": "museum"
  }
},
{
  "type": "way",
  "id": 92601358,
  "nodes": [
    1074278031,
    1074184411,
    1073952337,
    1074334465,
    1074242304,
    4577444050,
    4577444266,
    4577444267,
    4577448255,
    4577448254,
    4577444268,
    4577444049,
    1074152267,
    1074048182,
    1073926655,
    1074310273,
    1074215472,
    1074124777,
    1074016819,
    1074278031
  ],
  "tags": {
    "building": "yes",
    "name": "Musée de la Legion etrangère",
    "source": "cadastre-dgi-fr source : Direction Générale des Impôts - Cadastre. Mise à jour : 2016",
    "tourism": "museum",
    "wikidata": "Q3329911"
  }
},
{
  "type": "way",
  "id": 99102499,
  "nodes": [
    1146408910,
    1146518450,
    1146145899,
    1146492076,
    1146408910
  ],
  "tags": {
    "building": "yes",
    "name": "Espace Cinéma Prosper Gnidzaz",
    "tourism": "museum"
  }
},
{
  "type": "way",
  "id": 99114044,
  "nodes": [
    1146358917,
    1146093686,
    1145917913,
    1146094072,
    1146405570,
    1145885398,
    1146263104,
    1146178804,
    1146358917
  ],
  "tags": {
    "building": "yes",
    "name": "Musée Ziem",
    "source": "cadastre-dgi-fr source : Direction Générale des Impôts - Cadastre. Mise à jour : 2010",
    "tourism": "museum",
    "wikidata": "Q3329400",
    "wikipedia": "fr:Musée Ziem"
  }
},
{
  "type": "way",
  "id": 101053564,
  "nodes": [
    1166654284,
    1166833859,
    1166838669,
    1166732036,
    1166654284
  ],
  "tags": {
    "addr:place": "Valabre",
    "addr:street": "Chemin de Roman",
    "building": "yes",
    "contact:phone": "+334 42 65 42 10",
    "name": "Écomusée de la Forêt",
    "source": "BDOrtho IGN 2018",
    "tourism": "museum",
    "website": "http://ecomusee-foret.org/",
    "wheelchair": "yes"
  }
},
{
  "type": "way",
  "id": 112815005,
  "nodes": [
    2046213577,
    2046213575,
    1281287646,
    1281547582,
    2046213577
  ],
  "tags": {
    "addr:city": "Marseille",
    "addr:country": "FR",
    "addr:housenumber": "18",
    "addr:postcode": "13013",
    "addr:street": "traverse Saint-Paul",
    "building": "yes",
    "name": "Musée de la Moto",
    "source": "cadastre-dgi-fr source : Direction Générale des Impôts - Cadastre. Mise à jour : 2011",
    "tourism": "museum"
  }
},
{
  "type": "way",
  "id": 129059817,
  "nodes": [
    1424664279,
    1424664280,
    1424664285,
    1424664281,
    1424664279
  ],
  "tags": {
    "building": "yes",
    "name": "La Ferme de Noé",
    "source": "cadastre-dgi-fr source : Direction Générale des Impôts - Cadastre. Mise à jour : 2011",
    "tourism": "museum",
    "website": "https://www.lafermedenoe.com/"
  }
},
{
  "type": "way",
  "id": 130617902,
  "nodes": [
    1438048391,
    1438048520,
    1438048560,
    1438048397,
    1438048391
  ],
  "tags": {
    "building": "yes",
    "name": "Musée Provençal des Transports CPPVA",
    "name:fr": "Musée Provençal des Transports CPPVA",
    "operator": "Conservatoire Provençal du Patrimoine de Véhicules Anciens",
    "source": "cadastre-dgi-fr source : Direction Générale des Impôts - Cadastre. Mise à jour : 2012",
    "tourism": "museum"
  }
},
{
  "type": "way",
  "id": 145061565,
  "nodes": [
    1546036772,
    1546036738,
    1546036725,
    1545448082,
    1546036666,
    1546036695,
    1546036755,
    1546036731,
    1546036761,
    1546036816,
    1546036802,
    1545448142,
    1546036772
  ],
  "tags": {
    "building": "church",
    "name": "Museum of Ricard Advertising Objects",
    "source": "©IGN 2010 dans le cadre de la cartographie réglementaire",
    "tourism": "museum"
  }
},
{
  "type": "way",
  "id": 145062184,
  "nodes": [
    1546037030,
    1545448186,
    1545448160,
    1545448179,
    1546036845,
    1545448242,
    1546036979,
    1546037005,
    1545448276,
    1545448283,
    1545448308,
    1545448300,
    1545448309,
    1545448281,
    1546037030
  ],
  "tags": {
    "building": "yes",
    "name": "Wines and Spirits Museum",
    "source": "cadastre-dgi-fr source : Direction Générale des Impôts - Cadastre. Mise à jour : 2012",
    "tourism": "museum"
  }
},
{
  "type": "way",
  "id": 145062763,
  "nodes": [
    1546036999,
    1545448180,
    1546036786,
    1546036904,
    1546036872,
    1545448193,
    1546036888,
    1546036895,
    1546036929,
    1545448216,
    1545448241,
    1545448246,
    1545448266,
    1546037002,
    1545448286,
    1545448264,
    1546036999
  ],
  "tags": {
    "building": "yes",
    "name": "Art gallery",
    "source": "cadastre-dgi-fr source : Direction Générale des Impôts - Cadastre. Mise à jour : 2012",
    "tourism": "museum"
  }
},
{
  "type": "way",
  "id": 154486608,
  "nodes": [
    1670099358,
    1670099464,
    1670099376,
    1670099415,
    1670099240,
    1670098993,
    1670098957,
    1670098826,
    1670099128,
    1670099138,
    1670099358
  ],
  "tags": {
    "addr:city": "Marseille",
    "addr:housenumber": "69",
    "addr:postcode": "13008",
    "addr:street": "Avenue d'Haïfa",
    "alt_name": "mac",
    "building": "yes",
    "flickr": "https://www.flickr.com/photos/lesoliviers/3365188084/in/photolist-68ntbd-f45Bp6-2F65P-eKMcw9-eKzLg6-feEECw-eb5cmf-2F5Xh-7TveJt-7TvfPg-7Tyv47-7TveJx-r2J7Zc-eaYzhg-skBY3b-d22wG-eKMbxo-s4cYZy-skJM2P-s2s7na-7jsB7B-2F62V-7jsnd4-7jwe1q-2F6eD-oEXM6e-CkBRnf-roYm6",
    "name": "Musée d'art contemporain de Marseille",
    "source": "cadastre-dgi-fr source : Direction Générale des Impôts - Cadastre. Mise à jour : 2010",
    "tourism": "museum",
    "website": "http://mac.marseille.fr",
    "wikidata": "Q3329581"
  }
},
{
  "type": "way",
  "id": 157955528,
  "nodes": [
    1701634363,
    1701634244,
    1701634144,
    1701634088,
    1701634011,
    1701634053,
    1701634112,
    1701634207,
    1701634247,
    1701634146,
    1701634067,
    1701634032,
    1701634085,
    1701634132,
    1701634231,
    1701634312,
    1701634421,
    1701634441,
    1701634977,
    1701634941,
    1701634831,
    1701634612,
    1701634340,
    1701634363
  ],
  "tags": {
    "building": "yes",
    "name": "Musée Martin Duby",
    "source": "cadastre-dgi-fr source : Direction Générale des Impôts - Cadastre. Mise à jour : 2012",
    "tourism": "museum"
  }
},
{
  "type": "way",
  "id": 168685672,
  "nodes": [
    3508604740,
    3508604756,
    6572277084,
    3508604758,
    1903777342,
    6572342385,
    3508604740
  ],
  "tags": {
    "addr:city": "Marseille",
    "addr:housename": "Villa Méditerranée",
    "addr:postcode": "13002",
    "addr:street": "Esplanade J4",
    "building": "yes",
    "building:part": "no",
    "name": "Villa Méditerranée",
    "opening_hours": "Tu-Th 12:00-19:00;Fr 12:00-22:00;Sa-Su 10:00-19:00;PH 10:00-19:00;Mo off",
    "phone": "+33 4 95 09 42 52",
    "short_name": "CeReM",
    "source": "cadastre-dgi-fr source : Direction Générale des Impôts - Cadastre. Mise à jour : 2013",
    "tourism": "museum",
    "website": "http://www.villa-mediterranee.org",
    "wheelchair": "yes",
    "wikipedia": "fr:Villa Méditerranée"
  }
},
{
  "type": "way",
  "id": 168685674,
  "nodes": [
    3508604772,
    2366910968,
    3508604765,
    3508604762,
    6572174063,
    3889445892,
    6572174062,
    3508604763,
    6572174067,
    6572174061,
    6572174066,
    6572174060,
    3508604764,
    3508604768,
    2109283977,
    1799127111,
    3508604772
  ],
  "tags": {
    "addr:housename": "MUCEM",
    "addr:housenumber": "1",
    "addr:postcode": "13002",
    "addr:street": "Esplanade du J4",
    "alt_name": "MuCEM",
    "architect": "Rudy Ricciotti",
    "building": "yes",
    "email": "reservation@mucem.org",
    "height": "19",
    "name": "Musée des Civilisations de l'Europe et de la Méditerranée",
    "name:en": "Museum of Civilizations of Europe and the Mediterranean",
    "opening_hours": "May-Oct Mo-Sa 11:00-19:00; Nov-Apr Mo-Sa 11:00-18:00; Tu off; Fr 11:00-22:00",
    "phone": "+33 4 84 35 13 13",
    "short_name": "MuCEM",
    "source": "cadastre-dgi-fr source : Direction Générale des Finances Publiques - Cadastre. Mise à jour : 2017",
    "toilets:wheelchair": "yes",
    "tourism": "museum",
    "website": "http://www.mucem.org/",
    "wheelchair": "yes",
    "wheelchair:description": "Rollstuhlgerechtetoiletten im UG",
    "wikidata": "Q2808698",
    "wikipedia": "fr:Mucem"
  }
},
{
  "type": "way",
  "id": 174459203,
  "nodes": [
    817695523,
    2121337828,
    1851433860,
    1851433859,
    2121215129,
    1851433856,
    2121215372,
    1851452457,
    817730754,
    817712084,
    817713749,
    2262985109,
    817697294,
    2262985113,
    2262985111,
    817700592,
    817724454,
    817689912,
    817698379,
    817695523
  ],
  "tags": {
    "addr:housenumber": "20",
    "addr:postcode": "13002",
    "addr:street": "Boulevard de Dunkerque",
    "building": "yes",
    "email": "infos@fracpaca.org",
    "name": "Fonds Régional d'Art Comtemporain PACA",
    "opening_hours": "Tu-Sa 12:00-19:00; Su 14:00-18:00",
    "phone": "+33 4 91 91 27 55",
    "short_name": "FRAC",
    "tourism": "museum",
    "website": "http://www.fracpaca.org/",
    "wheelchair": "yes"
  }
},
{
  "type": "way",
  "id": 178605520,
  "nodes": [
    817755250,
    1889510827,
    1889510825,
    817728203,
    817742241,
    817723382,
    817755250
  ],
  "tags": {
    "name": "Préau des Accoules",
    "source": "cadastre-dgi-fr source : Direction Générale des Impôts - Cadastre. Mise à jour : 2012",
    "tourism": "museum"
  }
},
{
  "type": "way",
  "id": 178808268,
  "nodes": [
    1891636460,
    1891636482,
    2120000101,
    817701078,
    1891636467,
    817699904,
    1891636460
  ],
  "tags": {
    "alt_name": "Vestiges des docks romains",
    "heritage": "2",
    "heritage:operator": "mhs",
    "historic": "monument",
    "mhs:inscription_date": "1959-10-22",
    "name": "Musée des Docks romains",
    "ref:mhs": "PA00081335",
    "source": "cadastre-dgi-fr source : Direction Générale des Impôts - Cadastre. Mise à jour : 2012",
    "source:heritage": "data.gouv.fr:Ministère de la Culture - 04/2015",
    "tourism": "museum",
    "wikidata": "Q3330242",
    "wikipedia": "fr:Musée des Docks romains"
  }
},
{
  "type": "way",
  "id": 179225756,
  "nodes": [
    1895787821,
    1895787799,
    1895787750,
    1895786473,
    1895786479,
    1895786798,
    1895786877,
    1895787142,
    1895787496,
    1895787673,
    1895787821
  ],
  "tags": {
    "building": "public",
    "name": "Musée de l'Aviation",
    "source": "cadastre-dgi-fr source : Direction Générale des Impôts - Cadastre. Mise à jour : 2012",
    "tourism": "museum"
  }
},
{
  "type": "way",
  "id": 258967941,
  "nodes": [
    2642672788,
    2642672800,
    2642672825,
    2642672858,
    2642672876,
    2642672891,
    2642672897,
    2642672924,
    2642672963,
    2642672954,
    2642672917,
    2642672907,
    2642672898,
    2642672873,
    2642672865,
    2642672821,
    2642672813,
    2642672810,
    2642672789,
    2642672793,
    2642672788
  ],
  "tags": {
    "addr:city": "La Cadière-d'Azur",
    "addr:housenumber": "155",
    "addr:postcode": "83740",
    "addr:street": "Avenue Henri Jansoulin",
    "building": "public",
    "building:levels": "3",
    "name": "Maison du Terroir et du Patrimoine - Communauté de Communes Sud Sainte-Baume",
    "source": "cadastre-dgi-fr source : Direction Générale des Finances Publiques - Cadastre. Mise à jour : 2014",
    "tourism": "museum"
  }
},
{
  "type": "way",
  "id": 474434330,
  "nodes": [
    4683933926,
    4683933927,
    4683933928,
    4683933929,
    4683933926
  ],
  "tags": {
    "building": "yes",
    "name": "Musée du Calisson",
    "tourism": "museum"
  }
},
{
  "type": "relation",
  "id": 3934665,
  "members": [
    {
      "type": "way",
      "ref": 295843622,
      "role": "outer"
    },
    {
      "type": "way",
      "ref": 295843765,
      "role": "inner"
    }
  ],
  "tags": {
    "addr:city": "Aix-en-Provence",
    "addr:housenumber": "1",
    "addr:postcode": "13090",
    "addr:street": "Avenue Marcel Pagnol",
    "amenity": "arts_centre",
    "contact:website": "http://www.fondationvasarely.fr",
    "heritage": "2",
    "heritage:operator": "mhs",
    "mhs:inscription_date": "2013-11-25",
    "name": "Fondation Vasarely",
    "opening_hours": "Mo-Su 10:00-18:00",
    "ref:mhs": "PA13000046",
    "source:heritage": "data.gouv.fr, Ministère de la Culture - 2016",
    "start_date": "C20",
    "tourism": "museum",
    "type": "multipolygon",
    "wikidata": "Q3075583",
    "wikipedia": "fr:Fondation Vasarely"
  }
},
{
  "type": "node",
  "id": 897133905,
  "lat": 43.2143801,
  "lon": 5.5398550
},
{
  "type": "node",
  "id": 897134115,
  "lat": 43.2143815,
  "lon": 5.5398292
},
{
  "type": "node",
  "id": 897134223,
  "lat": 43.2143780,
  "lon": 5.5398602
},
{
  "type": "node",
  "id": 897134310,
  "lat": 43.2143825,
  "lon": 5.5398381
},
{
  "type": "node",
  "id": 897135046,
  "lat": 43.2143669,
  "lon": 5.5398738
},
{
  "type": "node",
  "id": 897135183,
  "lat": 43.2144078,
  "lon": 5.5400906
},
{
  "type": "node",
  "id": 897135811,
  "lat": 43.2143490,
  "lon": 5.5401045
},
{
  "type": "node",
  "id": 897135832,
  "lat": 43.2143785,
  "lon": 5.5398191
},
{
  "type": "node",
  "id": 897138058,
  "lat": 43.2143436,
  "lon": 5.5400973
},
{
  "type": "node",
  "id": 897139053,
  "lat": 43.2144362,
  "lon": 5.5397993
},
{
  "type": "node",
  "id": 897139312,
  "lat": 43.2143739,
  "lon": 5.5398670
},
{
  "type": "node",
  "id": 897139755,
  "lat": 43.2143518,
  "lon": 5.5401047
},
{
  "type": "node",
  "id": 897140186,
  "lat": 43.2143823,
  "lon": 5.5398439
},
{
  "type": "node",
  "id": 897140736,
  "lat": 43.2143455,
  "lon": 5.5401020
},
{
  "type": "node",
  "id": 897141106,
  "lat": 43.2144391,
  "lon": 5.5398129
},
{
  "type": "node",
  "id": 897141698,
  "lat": 43.2143786,
  "lon": 5.5400970
},
{
  "type": "node",
  "id": 897141961,
  "lat": 43.2143792,
  "lon": 5.5398215
},
{
  "type": "node",
  "id": 897142184,
  "lat": 43.2143797,
  "lon": 5.5400847
},
{
  "type": "node",
  "id": 1545448082,
  "lat": 43.1277641,
  "lon": 5.7516308
},
{
  "type": "node",
  "id": 1545448142,
  "lat": 43.1278871,
  "lon": 5.7518108
},
{
  "type": "node",
  "id": 1545448160,
  "lat": 43.1279251,
  "lon": 5.7494418
},
{
  "type": "node",
  "id": 1545448179,
  "lat": 43.1279581,
  "lon": 5.7494678
},
{
  "type": "node",
  "id": 1545448180,
  "lat": 43.1279641,
  "lon": 5.7499438
},
{
  "type": "node",
  "id": 1545448186,
  "lat": 43.1279741,
  "lon": 5.7493168
},
{
  "type": "node",
  "id": 1545448193,
  "lat": 43.1279941,
  "lon": 5.7504268
},
{
  "type": "node",
  "id": 1545448216,
  "lat": 43.1280371,
  "lon": 5.7503928
},
{
  "type": "node",
  "id": 1545448241,
  "lat": 43.1280871,
  "lon": 5.7502968
},
{
  "type": "node",
  "id": 1545448242,
  "lat": 43.1280881,
  "lon": 5.7496528
},
{
  "type": "node",
  "id": 1545448246,
  "lat": 43.1280951,
  "lon": 5.7503048
},
{
  "type": "node",
  "id": 1545448264,
  "lat": 43.1281461,
  "lon": 5.7500528
},
{
  "type": "node",
  "id": 1545448266,
  "lat": 43.1281481,
  "lon": 5.7502028
},
{
  "type": "node",
  "id": 1545448276,
  "lat": 43.1281671,
  "lon": 5.7496218
},
{
  "type": "node",
  "id": 1545448281,
  "lat": 43.1281781,
  "lon": 5.7494288
},
{
  "type": "node",
  "id": 1545448283,
  "lat": 43.1281871,
  "lon": 5.7496368
},
{
  "type": "node",
  "id": 1545448286,
  "lat": 43.1281921,
  "lon": 5.7500978
},
{
  "type": "node",
  "id": 1545448300,
  "lat": 43.1282121,
  "lon": 5.7495148
},
{
  "type": "node",
  "id": 1545448308,
  "lat": 43.1282311,
  "lon": 5.7495288
},
{
  "type": "node",
  "id": 1545448309,
  "lat": 43.1282321,
  "lon": 5.7494648
},
{
  "type": "node",
  "id": 1546036666,
  "lat": 43.1277621,
  "lon": 5.7516818
},
{
  "type": "node",
  "id": 1546036695,
  "lat": 43.1277931,
  "lon": 5.7516688
},
{
  "type": "node",
  "id": 1546036725,
  "lat": 43.1278121,
  "lon": 5.7516118
},
{
  "type": "node",
  "id": 1546036731,
  "lat": 43.1278161,
  "lon": 5.7518298
},
{
  "type": "node",
  "id": 1546036738,
  "lat": 43.1278211,
  "lon": 5.7516518
},
{
  "type": "node",
  "id": 1546036755,
  "lat": 43.1278291,
  "lon": 5.7518238
},
{
  "type": "node",
  "id": 1546036761,
  "lat": 43.1278361,
  "lon": 5.7519168
},
{
  "type": "node",
  "id": 1546036772,
  "lat": 43.1278501,
  "lon": 5.7516398
},
{
  "type": "node",
  "id": 1546036786,
  "lat": 43.1278591,
  "lon": 5.7501478
},
{
  "type": "node",
  "id": 1546036802,
  "lat": 43.1278761,
  "lon": 5.7518158
},
{
  "type": "node",
  "id": 1546036816,
  "lat": 43.1278931,
  "lon": 5.7518928
},
{
  "type": "node",
  "id": 1546036845,
  "lat": 43.1279321,
  "lon": 5.7495298
},
{
  "type": "node",
  "id": 1546036872,
  "lat": 43.1279671,
  "lon": 5.7503928
},
{
  "type": "node",
  "id": 1546036888,
  "lat": 43.1279921,
  "lon": 5.7504328
},
{
  "type": "node",
  "id": 1546036895,
  "lat": 43.1280021,
  "lon": 5.7504468
},
{
  "type": "node",
  "id": 1546036904,
  "lat": 43.1280161,
  "lon": 5.7503038
},
{
  "type": "node",
  "id": 1546036929,
  "lat": 43.1280321,
  "lon": 5.7503878
},
{
  "type": "node",
  "id": 1546036979,
  "lat": 43.1280931,
  "lon": 5.7496398
},
{
  "type": "node",
  "id": 1546036999,
  "lat": 43.1281261,
  "lon": 5.7500928
},
{
  "type": "node",
  "id": 1546037002,
  "lat": 43.1281411,
  "lon": 5.7501948
},
{
  "type": "node",
  "id": 1546037005,
  "lat": 43.1281441,
  "lon": 5.7496788
},
{
  "type": "node",
  "id": 1546037030,
  "lat": 43.1281651,
  "lon": 5.7494588
},
{
  "type": "node",
  "id": 2642672788,
  "lat": 43.1975690,
  "lon": 5.7548990
},
{
  "type": "node",
  "id": 2642672789,
  "lat": 43.1975730,
  "lon": 5.7548260
},
{
  "type": "node",
  "id": 2642672793,
  "lat": 43.1975800,
  "lon": 5.7548360
},
{
  "type": "node",
  "id": 2642672800,
  "lat": 43.1975990,
  "lon": 5.7549100
},
{
  "type": "node",
  "id": 2642672810,
  "lat": 43.1976220,
  "lon": 5.7545970
},
{
  "type": "node",
  "id": 2642672813,
  "lat": 43.1976320,
  "lon": 5.7545990
},
{
  "type": "node",
  "id": 2642672821,
  "lat": 43.1976500,
  "lon": 5.7545570
},
{
  "type": "node",
  "id": 2642672825,
  "lat": 43.1976560,
  "lon": 5.7549340
},
{
  "type": "node",
  "id": 2642672858,
  "lat": 43.1976840,
  "lon": 5.7547910
},
{
  "type": "node",
  "id": 2642672865,
  "lat": 43.1976970,
  "lon": 5.7545460
},
{
  "type": "node",
  "id": 2642672873,
  "lat": 43.1977030,
  "lon": 5.7545470
},
{
  "type": "node",
  "id": 2642672876,
  "lat": 43.1977030,
  "lon": 5.7547010
},
{
  "type": "node",
  "id": 2642672891,
  "lat": 43.1977090,
  "lon": 5.7546740
},
{
  "type": "node",
  "id": 2642672897,
  "lat": 43.1977140,
  "lon": 5.7546540
},
{
  "type": "node",
  "id": 2642672898,
  "lat": 43.1977160,
  "lon": 5.7545500
},
{
  "type": "node",
  "id": 2642672907,
  "lat": 43.1977280,
  "lon": 5.7545560
},
{
  "type": "node",
  "id": 2642672917,
  "lat": 43.1977390,
  "lon": 5.7545710
},
{
  "type": "node",
  "id": 2642672924,
  "lat": 43.1977410,
  "lon": 5.7546670
},
{
  "type": "node",
  "id": 2642672954,
  "lat": 43.1977480,
  "lon": 5.7545990
},
{
  "type": "node",
  "id": 2642672963,
  "lat": 43.1977540,
  "lon": 5.7546240
},
{
  "type": "node",
  "id": 1145885398,
  "lat": 43.4086517,
  "lon": 5.0540515
},
{
  "type": "node",
  "id": 1145917913,
  "lat": 43.4087661,
  "lon": 5.0542577
},
{
  "type": "node",
  "id": 1146093686,
  "lat": 43.4086966,
  "lon": 5.0543835
},
{
  "type": "node",
  "id": 1146094072,
  "lat": 43.4087993,
  "lon": 5.0541991
},
{
  "type": "node",
  "id": 1146145899,
  "lat": 43.4082033,
  "lon": 5.0549368
},
{
  "type": "node",
  "id": 1146178804,
  "lat": 43.4086046,
  "lon": 5.0541377
},
{
  "type": "node",
  "id": 1146263104,
  "lat": 43.4086179,
  "lon": 5.0541140
},
{
  "type": "node",
  "id": 1146358917,
  "lat": 43.4085497,
  "lon": 5.0542377
},
{
  "type": "node",
  "id": 1146405570,
  "lat": 43.4086551,
  "lon": 5.0540537
},
{
  "type": "node",
  "id": 1146408910,
  "lat": 43.4081339,
  "lon": 5.0547690
},
{
  "type": "node",
  "id": 1146492076,
  "lat": 43.4081945,
  "lon": 5.0547710
},
{
  "type": "node",
  "id": 1146518450,
  "lat": 43.4081448,
  "lon": 5.0549367
},
{
  "type": "node",
  "id": 1895786473,
  "lat": 43.4204770,
  "lon": 5.2358760
},
{
  "type": "node",
  "id": 1895786479,
  "lat": 43.4204790,
  "lon": 5.2359020
},
{
  "type": "node",
  "id": 1895786798,
  "lat": 43.4205650,
  "lon": 5.2358880
},
{
  "type": "node",
  "id": 1895786877,
  "lat": 43.4205850,
  "lon": 5.2361220
},
{
  "type": "node",
  "id": 1895787142,
  "lat": 43.4206710,
  "lon": 5.2361030
},
{
  "type": "node",
  "id": 1895787496,
  "lat": 43.4207780,
  "lon": 5.2360820
},
{
  "type": "node",
  "id": 1895787673,
  "lat": 43.4209010,
  "lon": 5.2360580
},
{
  "type": "node",
  "id": 1895787750,
  "lat": 43.4209660,
  "lon": 5.2357990
},
{
  "type": "node",
  "id": 1895787799,
  "lat": 43.4210200,
  "lon": 5.2357880
},
{
  "type": "node",
  "id": 1895787821,
  "lat": 43.4210400,
  "lon": 5.2360290
},
{
  "type": "node",
  "id": 1670098826,
  "lat": 43.2500162,
  "lon": 5.3898215
},
{
  "type": "node",
  "id": 1670098957,
  "lat": 43.2501113,
  "lon": 5.3896851
},
{
  "type": "node",
  "id": 1670098993,
  "lat": 43.2501311,
  "lon": 5.3897105
},
{
  "type": "node",
  "id": 1670099128,
  "lat": 43.2501717,
  "lon": 5.3900266
},
{
  "type": "node",
  "id": 1670099138,
  "lat": 43.2501785,
  "lon": 5.3900184
},
{
  "type": "node",
  "id": 1670099240,
  "lat": 43.2502317,
  "lon": 5.3895694
},
{
  "type": "node",
  "id": 1670099358,
  "lat": 43.2502723,
  "lon": 5.3898884
},
{
  "type": "node",
  "id": 1670099376,
  "lat": 43.2502850,
  "lon": 5.3897092
},
{
  "type": "node",
  "id": 1670099415,
  "lat": 43.2503116,
  "lon": 5.3896708
},
{
  "type": "node",
  "id": 1670099464,
  "lat": 43.2503439,
  "lon": 5.3897851
},
{
  "type": "node",
  "id": 817703719,
  "lat": 43.2956132,
  "lon": 5.3623650
},
{
  "type": "node",
  "id": 817707086,
  "lat": 43.2956814,
  "lon": 5.3625316
},
{
  "type": "node",
  "id": 817712221,
  "lat": 43.2954768,
  "lon": 5.3624198
},
{
  "type": "node",
  "id": 817717599,
  "lat": 43.2954973,
  "lon": 5.3625134
},
{
  "type": "node",
  "id": 817724134,
  "lat": 43.2954862,
  "lon": 5.3626106
},
{
  "type": "node",
  "id": 817727238,
  "lat": 43.2956636,
  "lon": 5.3624477
},
{
  "type": "node",
  "id": 817736993,
  "lat": 43.2956334,
  "lon": 5.3624597
},
{
  "type": "node",
  "id": 817746789,
  "lat": 43.2954683,
  "lon": 5.3625257
},
{
  "type": "node",
  "id": 1799127111,
  "lat": 43.2963077,
  "lon": 5.3608838
},
{
  "type": "node",
  "id": 4253156256,
  "lat": 43.2956765,
  "lon": 5.3625086
},
{
  "type": "node",
  "id": 4253158807,
  "lat": 43.2954805,
  "lon": 5.3625835
},
{
  "type": "node",
  "id": 829143117,
  "lat": 43.2920997,
  "lon": 5.3781229
},
{
  "type": "node",
  "id": 829147253,
  "lat": 43.2922644,
  "lon": 5.3781281
},
{
  "type": "node",
  "id": 829157557,
  "lat": 43.2922887,
  "lon": 5.3782315
},
{
  "type": "node",
  "id": 829159762,
  "lat": 43.2922584,
  "lon": 5.3781041
},
{
  "type": "node",
  "id": 829171908,
  "lat": 43.2922676,
  "lon": 5.3783136
},
{
  "type": "node",
  "id": 829186176,
  "lat": 43.2922726,
  "lon": 5.3782374
},
{
  "type": "node",
  "id": 829193138,
  "lat": 43.2922491,
  "lon": 5.3781346
},
{
  "type": "node",
  "id": 829194640,
  "lat": 43.2922498,
  "lon": 5.3780610
},
{
  "type": "node",
  "id": 829196266,
  "lat": 43.2923043,
  "lon": 5.3782981
},
{
  "type": "node",
  "id": 829214418,
  "lat": 43.2921528,
  "lon": 5.3783599
},
{
  "type": "node",
  "id": 829217127,
  "lat": 43.2921657,
  "lon": 5.3780966
},
{
  "type": "node",
  "id": 829235576,
  "lat": 43.2921364,
  "lon": 5.3782881
},
{
  "type": "node",
  "id": 2366910968,
  "lat": 43.2968394,
  "lon": 5.3604781
},
{
  "type": "node",
  "id": 3508604772,
  "lat": 43.2968254,
  "lon": 5.3604469
},
{
  "type": "node",
  "id": 817697563,
  "lat": 43.2978812,
  "lon": 5.3634585
},
{
  "type": "node",
  "id": 817706600,
  "lat": 43.2973621,
  "lon": 5.3633030
},
{
  "type": "node",
  "id": 817719825,
  "lat": 43.2980389,
  "lon": 5.3635061
},
{
  "type": "node",
  "id": 817723382,
  "lat": 43.2975524,
  "lon": 5.3665622
},
{
  "type": "node",
  "id": 817728203,
  "lat": 43.2975916,
  "lon": 5.3667091
},
{
  "type": "node",
  "id": 817729363,
  "lat": 43.2980157,
  "lon": 5.3636831
},
{
  "type": "node",
  "id": 817738574,
  "lat": 43.2973443,
  "lon": 5.3633343
},
{
  "type": "node",
  "id": 817742241,
  "lat": 43.2975488,
  "lon": 5.3667077
},
{
  "type": "node",
  "id": 817755250,
  "lat": 43.2977027,
  "lon": 5.3665703
},
{
  "type": "node",
  "id": 1889510825,
  "lat": 43.2975891,
  "lon": 5.3667975
},
{
  "type": "node",
  "id": 1889510827,
  "lat": 43.2976961,
  "lon": 5.3668017
},
{
  "type": "node",
  "id": 1903777342,
  "lat": 43.2968127,
  "lon": 5.3619986
},
{
  "type": "node",
  "id": 1903777374,
  "lat": 43.2978492,
  "lon": 5.3638236
},
{
  "type": "node",
  "id": 1903777375,
  "lat": 43.2978839,
  "lon": 5.3636421
},
{
  "type": "node",
  "id": 2109283977,
  "lat": 43.2964565,
  "lon": 5.3612139
},
{
  "type": "node",
  "id": 2120589476,
  "lat": 43.2978372,
  "lon": 5.3638119
},
{
  "type": "node",
  "id": 3508604740,
  "lat": 43.2972601,
  "lon": 5.3616140
},
{
  "type": "node",
  "id": 3508604756,
  "lat": 43.2974549,
  "lon": 5.3620418
},
{
  "type": "node",
  "id": 3508604758,
  "lat": 43.2970074,
  "lon": 5.3624264
},
{
  "type": "node",
  "id": 3508604762,
  "lat": 43.2971354,
  "lon": 5.3611389
},
{
  "type": "node",
  "id": 3508604763,
  "lat": 43.2971355,
  "lon": 5.3611623
},
{
  "type": "node",
  "id": 3508604764,
  "lat": 43.2971227,
  "lon": 5.3611898
},
{
  "type": "node",
  "id": 3508604765,
  "lat": 43.2971337,
  "lon": 5.3611321
},
{
  "type": "node",
  "id": 3508604768,
  "lat": 43.2966321,
  "lon": 5.3616041
},
{
  "type": "node",
  "id": 3889445892,
  "lat": 43.2971364,
  "lon": 5.3611525
},
{
  "type": "node",
  "id": 6572174060,
  "lat": 43.2971261,
  "lon": 5.3611855
},
{
  "type": "node",
  "id": 6572174061,
  "lat": 43.2971318,
  "lon": 5.3611754
},
{
  "type": "node",
  "id": 6572174062,
  "lat": 43.2971362,
  "lon": 5.3611577
},
{
  "type": "node",
  "id": 6572174063,
  "lat": 43.2971362,
  "lon": 5.3611458
},
{
  "type": "node",
  "id": 6572174066,
  "lat": 43.2971289,
  "lon": 5.3611814
},
{
  "type": "node",
  "id": 6572174067,
  "lat": 43.2971339,
  "lon": 5.3611692
},
{
  "type": "node",
  "id": 6572277084,
  "lat": 43.2971495,
  "lon": 5.3623043
},
{
  "type": "node",
  "id": 6572342385,
  "lat": 43.2969547,
  "lon": 5.3618765
},
{
  "type": "node",
  "id": 817699904,
  "lat": 43.2967675,
  "lon": 5.3681846
},
{
  "type": "node",
  "id": 817701078,
  "lat": 43.2968808,
  "lon": 5.3681619
},
{
  "type": "node",
  "id": 1891636460,
  "lat": 43.2967397,
  "lon": 5.3679272
},
{
  "type": "node",
  "id": 1891636467,
  "lat": 43.2968125,
  "lon": 5.3681758
},
{
  "type": "node",
  "id": 1891636482,
  "lat": 43.2968543,
  "lon": 5.3679052
},
{
  "type": "node",
  "id": 2120000101,
  "lat": 43.2968689,
  "lon": 5.3680481
},
{
  "type": "node",
  "id": 817689912,
  "lat": 43.3056450,
  "lon": 5.3676359
},
{
  "type": "node",
  "id": 817695523,
  "lat": 43.3056790,
  "lon": 5.3675118
},
{
  "type": "node",
  "id": 817697294,
  "lat": 43.3056172,
  "lon": 5.3676950
},
{
  "type": "node",
  "id": 817698379,
  "lat": 43.3056586,
  "lon": 5.3676283
},
{
  "type": "node",
  "id": 817700592,
  "lat": 43.3056267,
  "lon": 5.3676334
},
{
  "type": "node",
  "id": 817712084,
  "lat": 43.3051217,
  "lon": 5.3675963
},
{
  "type": "node",
  "id": 817713749,
  "lat": 43.3054332,
  "lon": 5.3676937
},
{
  "type": "node",
  "id": 817724454,
  "lat": 43.3056268,
  "lon": 5.3676307
},
{
  "type": "node",
  "id": 817730754,
  "lat": 43.3051103,
  "lon": 5.3676613
},
{
  "type": "node",
  "id": 1851433856,
  "lat": 43.3050452,
  "lon": 5.3680772
},
{
  "type": "node",
  "id": 1851433859,
  "lat": 43.3057787,
  "lon": 5.3676648
},
{
  "type": "node",
  "id": 1851433860,
  "lat": 43.3057973,
  "lon": 5.3675467
},
{
  "type": "node",
  "id": 1851452457,
  "lat": 43.3050830,
  "lon": 5.3678281
},
{
  "type": "node",
  "id": 2121215129,
  "lat": 43.3055284,
  "lon": 5.3678055
},
{
  "type": "node",
  "id": 2121215372,
  "lat": 43.3050767,
  "lon": 5.3678786
},
{
  "type": "node",
  "id": 2121337828,
  "lat": 43.3057545,
  "lon": 5.3675339
},
{
  "type": "node",
  "id": 2262985109,
  "lat": 43.3055526,
  "lon": 5.3677313
},
{
  "type": "node",
  "id": 2262985111,
  "lat": 43.3056093,
  "lon": 5.3676291
},
{
  "type": "node",
  "id": 2262985113,
  "lat": 43.3056109,
  "lon": 5.3676601
},
{
  "type": "node",
  "id": 817556497,
  "lat": 43.3032138,
  "lon": 5.3929660
},
{
  "type": "node",
  "id": 817558624,
  "lat": 43.3034095,
  "lon": 5.3930013
},
{
  "type": "node",
  "id": 817564396,
  "lat": 43.3033849,
  "lon": 5.3929504
},
{
  "type": "node",
  "id": 817573470,
  "lat": 43.3033391,
  "lon": 5.3928563
},
{
  "type": "node",
  "id": 817585313,
  "lat": 43.3032815,
  "lon": 5.3931133
},
{
  "type": "node",
  "id": 817586076,
  "lat": 43.3032545,
  "lon": 5.3929291
},
{
  "type": "node",
  "id": 817597818,
  "lat": 43.3033000,
  "lon": 5.3930997
},
{
  "type": "node",
  "id": 817607666,
  "lat": 43.3033630,
  "lon": 5.3929057
},
{
  "type": "node",
  "id": 817618961,
  "lat": 43.3034087,
  "lon": 5.3930047
},
{
  "type": "node",
  "id": 827788229,
  "lat": 43.3045617,
  "lon": 5.3935613
},
{
  "type": "node",
  "id": 827809845,
  "lat": 43.3045423,
  "lon": 5.3935558
},
{
  "type": "node",
  "id": 827824355,
  "lat": 43.3045443,
  "lon": 5.3935607
},
{
  "type": "node",
  "id": 827830867,
  "lat": 43.3045102,
  "lon": 5.3935920
},
{
  "type": "node",
  "id": 827862734,
  "lat": 43.3044958,
  "lon": 5.3935918
},
{
  "type": "node",
  "id": 827893916,
  "lat": 43.3044965,
  "lon": 5.3935964
},
{
  "type": "node",
  "id": 827957358,
  "lat": 43.3045555,
  "lon": 5.3935459
},
{
  "type": "node",
  "id": 827975125,
  "lat": 43.3045074,
  "lon": 5.3935842
},
{
  "type": "node",
  "id": 828000786,
  "lat": 43.3045593,
  "lon": 5.3935631
},
{
  "type": "node",
  "id": 4061626051,
  "lat": 43.3045513,
  "lon": 5.3935490
},
{
  "type": "node",
  "id": 827775811,
  "lat": 43.3035815,
  "lon": 5.3945575
},
{
  "type": "node",
  "id": 827776763,
  "lat": 43.3040371,
  "lon": 5.3949027
},
{
  "type": "node",
  "id": 827778348,
  "lat": 43.3035819,
  "lon": 5.3943895
},
{
  "type": "node",
  "id": 827779727,
  "lat": 43.3044299,
  "lon": 5.3941731
},
{
  "type": "node",
  "id": 827780839,
  "lat": 43.3043959,
  "lon": 5.3938442
},
{
  "type": "node",
  "id": 827780844,
  "lat": 43.3046060,
  "lon": 5.3936612
},
{
  "type": "node",
  "id": 827780915,
  "lat": 43.3035341,
  "lon": 5.3944606
},
{
  "type": "node",
  "id": 827780959,
  "lat": 43.3044278,
  "lon": 5.3940252
},
{
  "type": "node",
  "id": 827781140,
  "lat": 43.3047492,
  "lon": 5.3940955
},
{
  "type": "node",
  "id": 827781218,
  "lat": 43.3046024,
  "lon": 5.3936805
},
{
  "type": "node",
  "id": 827781617,
  "lat": 43.3039862,
  "lon": 5.3945403
},
{
  "type": "node",
  "id": 827782323,
  "lat": 43.3038470,
  "lon": 5.3950740
},
{
  "type": "node",
  "id": 827783096,
  "lat": 43.3035250,
  "lon": 5.3944468
},
{
  "type": "node",
  "id": 827784479,
  "lat": 43.3044004,
  "lon": 5.3936817
},
{
  "type": "node",
  "id": 827785420,
  "lat": 43.3045905,
  "lon": 5.3942602
},
{
  "type": "node",
  "id": 827786148,
  "lat": 43.3038487,
  "lon": 5.3950782
},
{
  "type": "node",
  "id": 827786568,
  "lat": 43.3044296,
  "lon": 5.3940282
},
{
  "type": "node",
  "id": 827787010,
  "lat": 43.3047936,
  "lon": 5.3940555
},
{
  "type": "node",
  "id": 827787269,
  "lat": 43.3037475,
  "lon": 5.3942745
},
{
  "type": "node",
  "id": 827788861,
  "lat": 43.3043953,
  "lon": 5.3940981
},
{
  "type": "node",
  "id": 827790582,
  "lat": 43.3045670,
  "lon": 5.3937110
},
{
  "type": "node",
  "id": 827790974,
  "lat": 43.3048007,
  "lon": 5.3940709
},
{
  "type": "node",
  "id": 827791026,
  "lat": 43.3038650,
  "lon": 5.3945131
},
{
  "type": "node",
  "id": 827791333,
  "lat": 43.3038999,
  "lon": 5.3944882
},
{
  "type": "node",
  "id": 827792251,
  "lat": 43.3040215,
  "lon": 5.3949275
},
{
  "type": "node",
  "id": 827792647,
  "lat": 43.3037754,
  "lon": 5.3949518
},
{
  "type": "node",
  "id": 827793465,
  "lat": 43.3037789,
  "lon": 5.3949531
},
{
  "type": "node",
  "id": 827794759,
  "lat": 43.3044623,
  "lon": 5.3939875
},
{
  "type": "node",
  "id": 827797841,
  "lat": 43.3048559,
  "lon": 5.3941874
},
{
  "type": "node",
  "id": 827799570,
  "lat": 43.3040274,
  "lon": 5.3949112
},
{
  "type": "node",
  "id": 827800375,
  "lat": 43.3035985,
  "lon": 5.3945640
},
{
  "type": "node",
  "id": 827800937,
  "lat": 43.3046502,
  "lon": 5.3943689
},
{
  "type": "node",
  "id": 827803011,
  "lat": 43.3045864,
  "lon": 5.3942637
},
{
  "type": "node",
  "id": 827804093,
  "lat": 43.3039549,
  "lon": 5.3944631
},
{
  "type": "node",
  "id": 827804756,
  "lat": 43.3048483,
  "lon": 5.3941709
},
{
  "type": "node",
  "id": 827805613,
  "lat": 43.3039600,
  "lon": 5.3946044
},
{
  "type": "node",
  "id": 827806024,
  "lat": 43.3037504,
  "lon": 5.3942720
},
{
  "type": "node",
  "id": 827806939,
  "lat": 43.3045165,
  "lon": 5.3941211
},
{
  "type": "node",
  "id": 827807753,
  "lat": 43.3037324,
  "lon": 5.3942720
},
{
  "type": "node",
  "id": 827808315,
  "lat": 43.3039758,
  "lon": 5.3947771
},
{
  "type": "node",
  "id": 827808650,
  "lat": 43.3040311,
  "lon": 5.3949192
},
{
  "type": "node",
  "id": 827808925,
  "lat": 43.3046356,
  "lon": 5.3943588
},
{
  "type": "node",
  "id": 827809306,
  "lat": 43.3035753,
  "lon": 5.3944071
},
{
  "type": "node",
  "id": 827811630,
  "lat": 43.3044795,
  "lon": 5.3941486
},
{
  "type": "node",
  "id": 827814488,
  "lat": 43.3035850,
  "lon": 5.3943917
},
{
  "type": "node",
  "id": 827814651,
  "lat": 43.3044360,
  "lon": 5.3941770
},
{
  "type": "node",
  "id": 827815967,
  "lat": 43.3043993,
  "lon": 5.3938638
},
{
  "type": "node",
  "id": 827818332,
  "lat": 43.3038224,
  "lon": 5.3949112
},
{
  "type": "node",
  "id": 827818441,
  "lat": 43.3046156,
  "lon": 5.3936746
},
{
  "type": "node",
  "id": 827819868,
  "lat": 43.3044021,
  "lon": 5.3938613
},
{
  "type": "node",
  "id": 827820443,
  "lat": 43.3046038,
  "lon": 5.3936843
},
{
  "type": "node",
  "id": 827823810,
  "lat": 43.3035862,
  "lon": 5.3945746
},
{
  "type": "node",
  "id": 827825740,
  "lat": 43.3039015,
  "lon": 5.3944917
},
{
  "type": "node",
  "id": 827827317,
  "lat": 43.3038683,
  "lon": 5.3945203
},
{
  "type": "node",
  "id": 827828761,
  "lat": 43.3039624,
  "lon": 5.3944794
},
{
  "type": "node",
  "id": 827830362,
  "lat": 43.3046099,
  "lon": 5.3936586
},
{
  "type": "node",
  "id": 827832677,
  "lat": 43.3039163,
  "lon": 5.3946484
},
{
  "type": "node",
  "id": 827833126,
  "lat": 43.3035379,
  "lon": 5.3944584
},
{
  "type": "node",
  "id": 827834950,
  "lat": 43.3037953,
  "lon": 5.3943701
},
{
  "type": "node",
  "id": 827842091,
  "lat": 43.3044417,
  "lon": 5.3941830
},
{
  "type": "node",
  "id": 827843176,
  "lat": 43.3043536,
  "lon": 5.3937232
},
{
  "type": "node",
  "id": 827847563,
  "lat": 43.3047979,
  "lon": 5.3940732
},
{
  "type": "node",
  "id": 827848975,
  "lat": 43.3039546,
  "lon": 5.3946090
},
{
  "type": "node",
  "id": 827853716,
  "lat": 43.3048442,
  "lon": 5.3941976
},
{
  "type": "node",
  "id": 827858178,
  "lat": 43.3035961,
  "lon": 5.3945598
},
{
  "type": "node",
  "id": 827858475,
  "lat": 43.3037758,
  "lon": 5.3949710
},
{
  "type": "node",
  "id": 827859947,
  "lat": 43.3039818,
  "lon": 5.3947905
},
{
  "type": "node",
  "id": 827864348,
  "lat": 43.3047504,
  "lon": 5.3940980
},
{
  "type": "node",
  "id": 827864376,
  "lat": 43.3038594,
  "lon": 5.3945179
},
{
  "type": "node",
  "id": 827866395,
  "lat": 43.3035379,
  "lon": 5.3944356
},
{
  "type": "node",
  "id": 827868380,
  "lat": 43.3037309,
  "lon": 5.3942689
},
{
  "type": "node",
  "id": 827870602,
  "lat": 43.3038344,
  "lon": 5.3950804
},
{
  "type": "node",
  "id": 827875093,
  "lat": 43.3044395,
  "lon": 5.3941847
},
{
  "type": "node",
  "id": 827884534,
  "lat": 43.3038220,
  "lon": 5.3950715
},
{
  "type": "node",
  "id": 827885024,
  "lat": 43.3048352,
  "lon": 5.3942114
},
{
  "type": "node",
  "id": 827886150,
  "lat": 43.3043975,
  "lon": 5.3936765
},
{
  "type": "node",
  "id": 827890214,
  "lat": 43.3036919,
  "lon": 5.3942941
},
{
  "type": "node",
  "id": 827892569,
  "lat": 43.3037439,
  "lon": 5.3942577
},
{
  "type": "node",
  "id": 827894993,
  "lat": 43.3040306,
  "lon": 5.3948885
},
{
  "type": "node",
  "id": 827898360,
  "lat": 43.3044807,
  "lon": 5.3941424
},
{
  "type": "node",
  "id": 827899894,
  "lat": 43.3039975,
  "lon": 5.3945619
},
{
  "type": "node",
  "id": 827903511,
  "lat": 43.3035714,
  "lon": 5.3943986
},
{
  "type": "node",
  "id": 827903515,
  "lat": 43.3045691,
  "lon": 5.3937147
},
{
  "type": "node",
  "id": 827908008,
  "lat": 43.3039441,
  "lon": 5.3944501
},
{
  "type": "node",
  "id": 827911478,
  "lat": 43.3036819,
  "lon": 5.3943078
},
{
  "type": "node",
  "id": 827912919,
  "lat": 43.3039465,
  "lon": 5.3944554
},
{
  "type": "node",
  "id": 827913347,
  "lat": 43.3048369,
  "lon": 5.3942151
},
{
  "type": "node",
  "id": 827920094,
  "lat": 43.3038142,
  "lon": 5.3949228
},
{
  "type": "node",
  "id": 827920620,
  "lat": 43.3039178,
  "lon": 5.3946357
},
{
  "type": "node",
  "id": 827928094,
  "lat": 43.3043983,
  "lon": 5.3940955
},
{
  "type": "node",
  "id": 827928479,
  "lat": 43.3043428,
  "lon": 5.3937329
},
{
  "type": "node",
  "id": 827929638,
  "lat": 43.3039992,
  "lon": 5.3945697
},
{
  "type": "node",
  "id": 827930296,
  "lat": 43.3037924,
  "lon": 5.3943726
},
{
  "type": "node",
  "id": 827930745,
  "lat": 43.3036346,
  "lon": 5.3945317
},
{
  "type": "node",
  "id": 827931052,
  "lat": 43.3045135,
  "lon": 5.3941142
},
{
  "type": "node",
  "id": 827931617,
  "lat": 43.3047837,
  "lon": 5.3940641
},
{
  "type": "node",
  "id": 827932195,
  "lat": 43.3048446,
  "lon": 5.3941741
},
{
  "type": "node",
  "id": 827944589,
  "lat": 43.3043917,
  "lon": 5.3938479
},
{
  "type": "node",
  "id": 827946042,
  "lat": 43.3036961,
  "lon": 5.3943034
},
{
  "type": "node",
  "id": 827946811,
  "lat": 43.3046405,
  "lon": 5.3943779
},
{
  "type": "node",
  "id": 827948421,
  "lat": 43.3038148,
  "lon": 5.3949178
},
{
  "type": "node",
  "id": 827949567,
  "lat": 43.3039515,
  "lon": 5.3944661
},
{
  "type": "node",
  "id": 827950462,
  "lat": 43.3044221,
  "lon": 5.3941561
},
{
  "type": "node",
  "id": 827951566,
  "lat": 43.3047383,
  "lon": 5.3941050
},
{
  "type": "node",
  "id": 827953069,
  "lat": 43.3039216,
  "lon": 5.3946438
},
{
  "type": "node",
  "id": 827954776,
  "lat": 43.3039528,
  "lon": 5.3946052
},
{
  "type": "node",
  "id": 827955716,
  "lat": 43.3043553,
  "lon": 5.3937267
},
{
  "type": "node",
  "id": 827956151,
  "lat": 43.3044330,
  "lon": 5.3941704
},
{
  "type": "node",
  "id": 827960858,
  "lat": 43.3044613,
  "lon": 5.3939999
},
{
  "type": "node",
  "id": 827961171,
  "lat": 43.3046544,
  "lon": 5.3943774
},
{
  "type": "node",
  "id": 827965431,
  "lat": 43.3038001,
  "lon": 5.3943880
},
{
  "type": "node",
  "id": 827965687,
  "lat": 43.3046650,
  "lon": 5.3943675
},
{
  "type": "node",
  "id": 827966119,
  "lat": 43.3043891,
  "lon": 5.3940844
},
{
  "type": "node",
  "id": 827966546,
  "lat": 43.3043933,
  "lon": 5.3940807
},
{
  "type": "node",
  "id": 827968059,
  "lat": 43.3036802,
  "lon": 5.3943042
},
{
  "type": "node",
  "id": 827969994,
  "lat": 43.3043874,
  "lon": 5.3936942
},
{
  "type": "node",
  "id": 827970822,
  "lat": 43.3048479,
  "lon": 5.3942056
},
{
  "type": "node",
  "id": 827971135,
  "lat": 43.3036325,
  "lon": 5.3945271
},
{
  "type": "node",
  "id": 827972350,
  "lat": 43.3038379,
  "lon": 5.3950874
},
{
  "type": "node",
  "id": 827972534,
  "lat": 43.3046325,
  "lon": 5.3943616
},
{
  "type": "node",
  "id": 827974663,
  "lat": 43.3043892,
  "lon": 5.3940718
},
{
  "type": "node",
  "id": 827975796,
  "lat": 43.3047853,
  "lon": 5.3940677
},
{
  "type": "node",
  "id": 827975801,
  "lat": 43.3044830,
  "lon": 5.3941456
},
{
  "type": "node",
  "id": 827976546,
  "lat": 43.3037665,
  "lon": 5.3949596
},
{
  "type": "node",
  "id": 827977678,
  "lat": 43.3036443,
  "lon": 5.3945246
},
{
  "type": "node",
  "id": 827980045,
  "lat": 43.3037729,
  "lon": 5.3949735
},
{
  "type": "node",
  "id": 827980302,
  "lat": 43.3039972,
  "lon": 5.3945529
},
{
  "type": "node",
  "id": 827980696,
  "lat": 43.3035395,
  "lon": 5.3944388
},
{
  "type": "node",
  "id": 827998708,
  "lat": 43.3040280,
  "lon": 5.3948907
},
{
  "type": "node",
  "id": 828000430,
  "lat": 43.3045790,
  "lon": 5.3942473
},
{
  "type": "node",
  "id": 828003091,
  "lat": 43.3039593,
  "lon": 5.3944821
},
{
  "type": "node",
  "id": 828006487,
  "lat": 43.3039899,
  "lon": 5.3945370
},
{
  "type": "node",
  "id": 828006631,
  "lat": 43.3045240,
  "lon": 5.3941179
},
{
  "type": "node",
  "id": 828006761,
  "lat": 43.3035790,
  "lon": 5.3945603
},
{
  "type": "node",
  "id": 828007130,
  "lat": 43.3038025,
  "lon": 5.3943859
},
{
  "type": "node",
  "id": 828007442,
  "lat": 43.3039945,
  "lon": 5.3945553
},
{
  "type": "node",
  "id": 828011185,
  "lat": 43.3044249,
  "lon": 5.3941537
},
{
  "type": "node",
  "id": 828013465,
  "lat": 43.3045827,
  "lon": 5.3942441
},
{
  "type": "node",
  "id": 828013492,
  "lat": 43.3039787,
  "lon": 5.3947746
},
{
  "type": "node",
  "id": 828014106,
  "lat": 43.3040198,
  "lon": 5.3949236
},
{
  "type": "node",
  "id": 828015891,
  "lat": 43.3045577,
  "lon": 5.3937243
},
{
  "type": "node",
  "id": 828017425,
  "lat": 43.3039848,
  "lon": 5.3947879
},
{
  "type": "node",
  "id": 828018428,
  "lat": 43.3044575,
  "lon": 5.3939919
},
{
  "type": "node",
  "id": 828019068,
  "lat": 43.3043846,
  "lon": 5.3936874
},
{
  "type": "node",
  "id": 828019232,
  "lat": 43.3046636,
  "lon": 5.3943647
},
{
  "type": "node",
  "id": 828020097,
  "lat": 43.3038259,
  "lon": 5.3950868
},
{
  "type": "node",
  "id": 4061626050,
  "lat": 43.3038190,
  "lon": 5.3950746
},
{
  "type": "node",
  "id": 4061626067,
  "lat": 43.3046121,
  "lon": 5.3936780
},
{
  "type": "node",
  "id": 4061626068,
  "lat": 43.3047916,
  "lon": 5.3940573
},
{
  "type": "node",
  "id": 4393568681,
  "lat": 43.3043487,
  "lon": 5.3937452
},
{
  "type": "node",
  "id": 4393568688,
  "lat": 43.3044506,
  "lon": 5.3940095
},
{
  "type": "node",
  "id": 4393568837,
  "lat": 43.3044570,
  "lon": 5.3940038
},
{
  "type": "node",
  "id": 4394745560,
  "lat": 43.3040354,
  "lon": 5.3948990
},
{
  "type": "node",
  "id": 832910784,
  "lat": 43.3563035,
  "lon": 5.2870408
},
{
  "type": "node",
  "id": 832991082,
  "lat": 43.3562904,
  "lon": 5.2871828
},
{
  "type": "node",
  "id": 833076451,
  "lat": 43.3561113,
  "lon": 5.2871558
},
{
  "type": "node",
  "id": 833114808,
  "lat": 43.3561244,
  "lon": 5.2870163
},
{
  "type": "node",
  "id": 1281287646,
  "lat": 43.3280148,
  "lon": 5.4041138
},
{
  "type": "node",
  "id": 1281547582,
  "lat": 43.3281223,
  "lon": 5.4041947
},
{
  "type": "node",
  "id": 2046213575,
  "lat": 43.3281362,
  "lon": 5.4038445
},
{
  "type": "node",
  "id": 2046213577,
  "lat": 43.3282406,
  "lon": 5.4039327
},
{
  "type": "node",
  "id": 1166654284,
  "lat": 43.4708860,
  "lon": 5.4517113
},
{
  "type": "node",
  "id": 1166732036,
  "lat": 43.4710530,
  "lon": 5.4516408
},
{
  "type": "node",
  "id": 1166833859,
  "lat": 43.4709352,
  "lon": 5.4519191
},
{
  "type": "node",
  "id": 1166838669,
  "lat": 43.4711032,
  "lon": 5.4518513
},
{
  "type": "node",
  "id": 1030169739,
  "lat": 43.5042290,
  "lon": 5.3809725
},
{
  "type": "node",
  "id": 1030176115,
  "lat": 43.5044206,
  "lon": 5.3811666
},
{
  "type": "node",
  "id": 1030179811,
  "lat": 43.5042618,
  "lon": 5.3812068
},
{
  "type": "node",
  "id": 1030180410,
  "lat": 43.5041915,
  "lon": 5.3816722
},
{
  "type": "node",
  "id": 1030192075,
  "lat": 43.5041982,
  "lon": 5.3818658
},
{
  "type": "node",
  "id": 1030193235,
  "lat": 43.5041229,
  "lon": 5.3816177
},
{
  "type": "node",
  "id": 1030197009,
  "lat": 43.5037446,
  "lon": 5.3820887
},
{
  "type": "node",
  "id": 1030198309,
  "lat": 43.5042262,
  "lon": 5.3819200
},
{
  "type": "node",
  "id": 1030209522,
  "lat": 43.5044273,
  "lon": 5.3818854
},
{
  "type": "node",
  "id": 1030219425,
  "lat": 43.5035033,
  "lon": 5.3811605
},
{
  "type": "node",
  "id": 1030220789,
  "lat": 43.5035412,
  "lon": 5.3814458
},
{
  "type": "node",
  "id": 1030222656,
  "lat": 43.5042092,
  "lon": 5.3818047
},
{
  "type": "node",
  "id": 1030223468,
  "lat": 43.5041919,
  "lon": 5.3816744
},
{
  "type": "node",
  "id": 1030223770,
  "lat": 43.5041748,
  "lon": 5.3818148
},
{
  "type": "node",
  "id": 1030230464,
  "lat": 43.5035654,
  "lon": 5.3814398
},
{
  "type": "node",
  "id": 1030231435,
  "lat": 43.5041557,
  "lon": 5.3816847
},
{
  "type": "node",
  "id": 1030234200,
  "lat": 43.5041403,
  "lon": 5.3819865
},
{
  "type": "node",
  "id": 1030236117,
  "lat": 43.5036717,
  "lon": 5.3821084
},
{
  "type": "node",
  "id": 1030241028,
  "lat": 43.5035319,
  "lon": 5.3813751
},
{
  "type": "node",
  "id": 1030242722,
  "lat": 43.5036661,
  "lon": 5.3820680
},
{
  "type": "node",
  "id": 1030242732,
  "lat": 43.5035637,
  "lon": 5.3817656
},
{
  "type": "node",
  "id": 1030245206,
  "lat": 43.5042297,
  "lon": 5.3819383
},
{
  "type": "node",
  "id": 1030245902,
  "lat": 43.5045082,
  "lon": 5.3818084
},
{
  "type": "node",
  "id": 1030249513,
  "lat": 43.5041355,
  "lon": 5.3819475
},
{
  "type": "node",
  "id": 1030251474,
  "lat": 43.5044199,
  "lon": 5.3818326
},
{
  "type": "node",
  "id": 1030252170,
  "lat": 43.5036069,
  "lon": 5.3817546
},
{
  "type": "node",
  "id": 1030252918,
  "lat": 43.5035763,
  "lon": 5.3818618
},
{
  "type": "node",
  "id": 1030256550,
  "lat": 43.5042173,
  "lon": 5.3818615
},
{
  "type": "node",
  "id": 1030259147,
  "lat": 43.5041677,
  "lon": 5.3819385
},
{
  "type": "node",
  "id": 1030260300,
  "lat": 43.5036055,
  "lon": 5.3820836
},
{
  "type": "node",
  "id": 1030261757,
  "lat": 43.5042064,
  "lon": 5.3819245
},
{
  "type": "node",
  "id": 2578068747,
  "lat": 43.5038855,
  "lon": 5.3810615
},
{
  "type": "node",
  "id": 5728566234,
  "lat": 43.5045003,
  "lon": 5.3817503
},
{
  "type": "node",
  "id": 5728566235,
  "lat": 43.5044229,
  "lon": 5.3811831
},
{
  "type": "node",
  "id": 5728566236,
  "lat": 43.5042571,
  "lon": 5.3811736
},
{
  "type": "node",
  "id": 258829616,
  "lat": 43.5212784,
  "lon": 5.4246827
},
{
  "type": "node",
  "id": 2996021634,
  "lat": 43.5210155,
  "lon": 5.4250377
},
{
  "type": "node",
  "id": 2996021635,
  "lat": 43.5210225,
  "lon": 5.4248587
},
{
  "type": "node",
  "id": 2996021636,
  "lat": 43.5210355,
  "lon": 5.4249957
},
{
  "type": "node",
  "id": 2996021637,
  "lat": 43.5210495,
  "lon": 5.4251347
},
{
  "type": "node",
  "id": 2996021638,
  "lat": 43.5210535,
  "lon": 5.4249937
},
{
  "type": "node",
  "id": 2996021639,
  "lat": 43.5210555,
  "lon": 5.4249527
},
{
  "type": "node",
  "id": 2996021640,
  "lat": 43.5210665,
  "lon": 5.4247697
},
{
  "type": "node",
  "id": 2996021641,
  "lat": 43.5211185,
  "lon": 5.4251457
},
{
  "type": "node",
  "id": 2996021642,
  "lat": 43.5211455,
  "lon": 5.4247787
},
{
  "type": "node",
  "id": 2996021643,
  "lat": 43.5211515,
  "lon": 5.4252457
},
{
  "type": "node",
  "id": 2996021644,
  "lat": 43.5211895,
  "lon": 5.4246977
},
{
  "type": "node",
  "id": 2996021645,
  "lat": 43.5212295,
  "lon": 5.4252567
},
{
  "type": "node",
  "id": 2996021646,
  "lat": 43.5212260,
  "lon": 5.4248790
},
{
  "type": "node",
  "id": 2996021647,
  "lat": 43.5212665,
  "lon": 5.4247067
},
{
  "type": "node",
  "id": 2996021648,
  "lat": 43.5212735,
  "lon": 5.4251637
},
{
  "type": "node",
  "id": 2996021649,
  "lat": 43.5212560,
  "lon": 5.4249740
},
{
  "type": "node",
  "id": 2996021650,
  "lat": 43.5212680,
  "lon": 5.4247920
},
{
  "type": "node",
  "id": 2996021651,
  "lat": 43.5213075,
  "lon": 5.4246237
},
{
  "type": "node",
  "id": 2996021652,
  "lat": 43.5213505,
  "lon": 5.4251747
},
{
  "type": "node",
  "id": 2996021653,
  "lat": 43.5213330,
  "lon": 5.4249850
},
{
  "type": "node",
  "id": 2996021654,
  "lat": 43.5213440,
  "lon": 5.4248030
},
{
  "type": "node",
  "id": 2996021655,
  "lat": 43.5213865,
  "lon": 5.4246347
},
{
  "type": "node",
  "id": 2996021656,
  "lat": 43.5213905,
  "lon": 5.4250937
},
{
  "type": "node",
  "id": 2996021657,
  "lat": 43.5213750,
  "lon": 5.4248970
},
{
  "type": "node",
  "id": 2996021658,
  "lat": 43.5214305,
  "lon": 5.4245477
},
{
  "type": "node",
  "id": 2996021659,
  "lat": 43.5214675,
  "lon": 5.4251027
},
{
  "type": "node",
  "id": 2996021660,
  "lat": 43.5215055,
  "lon": 5.4245567
},
{
  "type": "node",
  "id": 2996021661,
  "lat": 43.5215115,
  "lon": 5.4250167
},
{
  "type": "node",
  "id": 2996021662,
  "lat": 43.5215495,
  "lon": 5.4244717
},
{
  "type": "node",
  "id": 2996021663,
  "lat": 43.5215905,
  "lon": 5.4250277
},
{
  "type": "node",
  "id": 2996021664,
  "lat": 43.5216285,
  "lon": 5.4244827
},
{
  "type": "node",
  "id": 2996021665,
  "lat": 43.5216345,
  "lon": 5.4249417
},
{
  "type": "node",
  "id": 2996021666,
  "lat": 43.5216605,
  "lon": 5.4245767
},
{
  "type": "node",
  "id": 2996021667,
  "lat": 43.5217165,
  "lon": 5.4249547
},
{
  "type": "node",
  "id": 2996021668,
  "lat": 43.5217265,
  "lon": 5.4247777
},
{
  "type": "node",
  "id": 2996021669,
  "lat": 43.5217395,
  "lon": 5.4245897
},
{
  "type": "node",
  "id": 2996021670,
  "lat": 43.5217565,
  "lon": 5.4248717
},
{
  "type": "node",
  "id": 2996021671,
  "lat": 43.5217715,
  "lon": 5.4246847
},
{
  "type": "node",
  "id": 3611214097,
  "lat": 43.5212900,
  "lon": 5.4246593
},
{
  "type": "node",
  "id": 3611214098,
  "lat": 43.5213330,
  "lon": 5.4246272
},
{
  "type": "node",
  "id": 3611214099,
  "lat": 43.5213497,
  "lon": 5.4246294
},
{
  "type": "node",
  "id": 1028966796,
  "lat": 43.5253963,
  "lon": 5.4481482
},
{
  "type": "node",
  "id": 1028967707,
  "lat": 43.5253991,
  "lon": 5.4524280
},
{
  "type": "node",
  "id": 1028971711,
  "lat": 43.5253698,
  "lon": 5.4478897
},
{
  "type": "node",
  "id": 1028974342,
  "lat": 43.5255433,
  "lon": 5.4480717
},
{
  "type": "node",
  "id": 1028974360,
  "lat": 43.5255488,
  "lon": 5.4481228
},
{
  "type": "node",
  "id": 1028975561,
  "lat": 43.5251325,
  "lon": 5.4525208
},
{
  "type": "node",
  "id": 1028976839,
  "lat": 43.5255186,
  "lon": 5.4478602
},
{
  "type": "node",
  "id": 1028976892,
  "lat": 43.5255448,
  "lon": 5.4480713
},
{
  "type": "node",
  "id": 1028977220,
  "lat": 43.5255381,
  "lon": 5.4480270
},
{
  "type": "node",
  "id": 1028977925,
  "lat": 43.5253980,
  "lon": 5.4481479
},
{
  "type": "node",
  "id": 1028978915,
  "lat": 43.5253819,
  "lon": 5.4524339
},
{
  "type": "node",
  "id": 1028980072,
  "lat": 43.5254513,
  "lon": 5.4524142
},
{
  "type": "node",
  "id": 1028980314,
  "lat": 43.5253810,
  "lon": 5.4524291
},
{
  "type": "node",
  "id": 1028981407,
  "lat": 43.5255399,
  "lon": 5.4480269
},
{
  "type": "node",
  "id": 1028981431,
  "lat": 43.5253129,
  "lon": 5.4524543
},
{
  "type": "node",
  "id": 1028982022,
  "lat": 43.5251965,
  "lon": 5.4524952
},
{
  "type": "node",
  "id": 1028982527,
  "lat": 43.5253664,
  "lon": 5.4478902
},
{
  "type": "node",
  "id": 1028983186,
  "lat": 43.5254504,
  "lon": 5.4524098
},
{
  "type": "node",
  "id": 738231427,
  "lat": 43.5276710,
  "lon": 5.4486979
},
{
  "type": "node",
  "id": 738231432,
  "lat": 43.5276737,
  "lon": 5.4487032
},
{
  "type": "node",
  "id": 738231433,
  "lat": 43.5277101,
  "lon": 5.4486564
},
{
  "type": "node",
  "id": 738231437,
  "lat": 43.5276680,
  "lon": 5.4487764
},
{
  "type": "node",
  "id": 738231438,
  "lat": 43.5276962,
  "lon": 5.4487473
},
{
  "type": "node",
  "id": 738231439,
  "lat": 43.5277358,
  "lon": 5.4487066
},
{
  "type": "node",
  "id": 738231441,
  "lat": 43.5277330,
  "lon": 5.4487120
},
{
  "type": "node",
  "id": 738231442,
  "lat": 43.5277314,
  "lon": 5.4487195
},
{
  "type": "node",
  "id": 738231443,
  "lat": 43.5277298,
  "lon": 5.4487297
},
{
  "type": "node",
  "id": 738231444,
  "lat": 43.5277301,
  "lon": 5.4487375
},
{
  "type": "node",
  "id": 738231445,
  "lat": 43.5277349,
  "lon": 5.4487531
},
{
  "type": "node",
  "id": 738231446,
  "lat": 43.5277415,
  "lon": 5.4487712
},
{
  "type": "node",
  "id": 738231447,
  "lat": 43.5277440,
  "lon": 5.4487691
},
{
  "type": "node",
  "id": 738231448,
  "lat": 43.5276992,
  "lon": 5.4488265
},
{
  "type": "node",
  "id": 738231449,
  "lat": 43.5277806,
  "lon": 5.4488738
},
{
  "type": "node",
  "id": 738231450,
  "lat": 43.5277784,
  "lon": 5.4488752
},
{
  "type": "node",
  "id": 738231451,
  "lat": 43.5276449,
  "lon": 5.4489561
},
{
  "type": "node",
  "id": 738231453,
  "lat": 43.5276207,
  "lon": 5.4488885
},
{
  "type": "node",
  "id": 1028967105,
  "lat": 43.5261435,
  "lon": 5.4492670
},
{
  "type": "node",
  "id": 1028967309,
  "lat": 43.5259905,
  "lon": 5.4490073
},
{
  "type": "node",
  "id": 1028967591,
  "lat": 43.5309005,
  "lon": 5.4473964
},
{
  "type": "node",
  "id": 1028967637,
  "lat": 43.5306466,
  "lon": 5.4473537
},
{
  "type": "node",
  "id": 1028967939,
  "lat": 43.5260201,
  "lon": 5.4492894
},
{
  "type": "node",
  "id": 1028968686,
  "lat": 43.5260898,
  "lon": 5.4497365
},
{
  "type": "node",
  "id": 1028969247,
  "lat": 43.5261103,
  "lon": 5.4489861
},
{
  "type": "node",
  "id": 1028969525,
  "lat": 43.5260572,
  "lon": 5.4489927
},
{
  "type": "node",
  "id": 1028969766,
  "lat": 43.5259764,
  "lon": 5.4490052
},
{
  "type": "node",
  "id": 1028969967,
  "lat": 43.5262306,
  "lon": 5.4499490
},
{
  "type": "node",
  "id": 1028970035,
  "lat": 43.5261937,
  "lon": 5.4499569
},
{
  "type": "node",
  "id": 1028970360,
  "lat": 43.5307378,
  "lon": 5.4472704
},
{
  "type": "node",
  "id": 1028970380,
  "lat": 43.5306406,
  "lon": 5.4473226
},
{
  "type": "node",
  "id": 1028970754,
  "lat": 43.5261198,
  "lon": 5.4499722
},
{
  "type": "node",
  "id": 1028971379,
  "lat": 43.5309011,
  "lon": 5.4473934
},
{
  "type": "node",
  "id": 1028971436,
  "lat": 43.5258975,
  "lon": 5.4490582
},
{
  "type": "node",
  "id": 1028971602,
  "lat": 43.5259898,
  "lon": 5.4490026
},
{
  "type": "node",
  "id": 1028971890,
  "lat": 43.5261444,
  "lon": 5.4492670
},
{
  "type": "node",
  "id": 1028972637,
  "lat": 43.5261047,
  "lon": 5.4496681
},
{
  "type": "node",
  "id": 1028972709,
  "lat": 43.5307202,
  "lon": 5.4473874
},
{
  "type": "node",
  "id": 1028972730,
  "lat": 43.5261195,
  "lon": 5.4499684
},
{
  "type": "node",
  "id": 1028973449,
  "lat": 43.5260947,
  "lon": 5.4496696
},
{
  "type": "node",
  "id": 1028973461,
  "lat": 43.5262265,
  "lon": 5.4499289
},
{
  "type": "node",
  "id": 1028973957,
  "lat": 43.5261128,
  "lon": 5.4489862
},
{
  "type": "node",
  "id": 1028974180,
  "lat": 43.5307009,
  "lon": 5.4473164
},
{
  "type": "node",
  "id": 1028975118,
  "lat": 43.5307006,
  "lon": 5.4471558
},
{
  "type": "node",
  "id": 1028975391,
  "lat": 43.5260377,
  "lon": 5.4489964
},
{
  "type": "node",
  "id": 1028975871,
  "lat": 43.5306975,
  "lon": 5.4471430
},
{
  "type": "node",
  "id": 1028975985,
  "lat": 43.5258960,
  "lon": 5.4490237
},
{
  "type": "node",
  "id": 1028976722,
  "lat": 43.5307148,
  "lon": 5.4472104
},
{
  "type": "node",
  "id": 1028977233,
  "lat": 43.5259767,
  "lon": 5.4490087
},
{
  "type": "node",
  "id": 1028977449,
  "lat": 43.5261943,
  "lon": 5.4496520
},
{
  "type": "node",
  "id": 1028977677,
  "lat": 43.5261123,
  "lon": 5.4489816
},
{
  "type": "node",
  "id": 1028977917,
  "lat": 43.5260164,
  "lon": 5.4490022
},
{
  "type": "node",
  "id": 1028978270,
  "lat": 43.5260903,
  "lon": 5.4497398
},
{
  "type": "node",
  "id": 1028978361,
  "lat": 43.5262277,
  "lon": 5.4499291
},
{
  "type": "node",
  "id": 1028978689,
  "lat": 43.5262187,
  "lon": 5.4499520
},
{
  "type": "node",
  "id": 1028979246,
  "lat": 43.5260298,
  "lon": 5.4489948
},
{
  "type": "node",
  "id": 1028979945,
  "lat": 43.5262182,
  "lon": 5.4499491
},
{
  "type": "node",
  "id": 1028979958,
  "lat": 43.5307963,
  "lon": 5.4470845
},
{
  "type": "node",
  "id": 1028980033,
  "lat": 43.5307719,
  "lon": 5.4473608
},
{
  "type": "node",
  "id": 1028980034,
  "lat": 43.5260540,
  "lon": 5.4492833
},
{
  "type": "node",
  "id": 1028980255,
  "lat": 43.5261933,
  "lon": 5.4499539
},
{
  "type": "node",
  "id": 1028980256,
  "lat": 43.5261411,
  "lon": 5.4492528
},
{
  "type": "node",
  "id": 1028980411,
  "lat": 43.5261856,
  "lon": 5.4496566
},
{
  "type": "node",
  "id": 1028980594,
  "lat": 43.5259301,
  "lon": 5.4493073
},
{
  "type": "node",
  "id": 1028980702,
  "lat": 43.5260304,
  "lon": 5.4489967
},
{
  "type": "node",
  "id": 1028980711,
  "lat": 43.5308030,
  "lon": 5.4474579
},
{
  "type": "node",
  "id": 1028980746,
  "lat": 43.5261025,
  "lon": 5.4497328
},
{
  "type": "node",
  "id": 1028982318,
  "lat": 43.5260165,
  "lon": 5.4489972
},
{
  "type": "node",
  "id": 1028982853,
  "lat": 43.5260359,
  "lon": 5.4489955
},
{
  "type": "node",
  "id": 1028983280,
  "lat": 43.5261855,
  "lon": 5.4496534
},
{
  "type": "node",
  "id": 1028983378,
  "lat": 43.5261425,
  "lon": 5.4492524
},
{
  "type": "node",
  "id": 1028983663,
  "lat": 43.5259003,
  "lon": 5.4490576
},
{
  "type": "node",
  "id": 4683933926,
  "lat": 43.5812305,
  "lon": 5.3786549
},
{
  "type": "node",
  "id": 4683933927,
  "lat": 43.5816697,
  "lon": 5.3779397
},
{
  "type": "node",
  "id": 4683933928,
  "lat": 43.5820811,
  "lon": 5.3784212
},
{
  "type": "node",
  "id": 4683933929,
  "lat": 43.5816419,
  "lon": 5.3791364
},
{
  "type": "node",
  "id": 1073926655,
  "lat": 43.2935560,
  "lon": 5.5529450
},
{
  "type": "node",
  "id": 1073952337,
  "lat": 43.2933051,
  "lon": 5.5533979
},
{
  "type": "node",
  "id": 1074016819,
  "lat": 43.2933510,
  "lon": 5.5528880
},
{
  "type": "node",
  "id": 1074048182,
  "lat": 43.2934870,
  "lon": 5.5529660
},
{
  "type": "node",
  "id": 1074124777,
  "lat": 43.2934660,
  "lon": 5.5528590
},
{
  "type": "node",
  "id": 1074152267,
  "lat": 43.2934900,
  "lon": 5.5529810
},
{
  "type": "node",
  "id": 1074184411,
  "lat": 43.2932080,
  "lon": 5.5527870
},
{
  "type": "node",
  "id": 1074215472,
  "lat": 43.2934710,
  "lon": 5.5528740
},
{
  "type": "node",
  "id": 1074242304,
  "lat": 43.2935560,
  "lon": 5.5534843
},
{
  "type": "node",
  "id": 1074278031,
  "lat": 43.2933310,
  "lon": 5.5527530
},
{
  "type": "node",
  "id": 1074310273,
  "lat": 43.2935410,
  "lon": 5.5528520
},
{
  "type": "node",
  "id": 1074334465,
  "lat": 43.2933723,
  "lon": 5.5533783
},
{
  "type": "node",
  "id": 4577444049,
  "lat": 43.2934904,
  "lon": 5.5530065
},
{
  "type": "node",
  "id": 4577444050,
  "lat": 43.2935805,
  "lon": 5.5533867
},
{
  "type": "node",
  "id": 4577444266,
  "lat": 43.2936020,
  "lon": 5.5532512
},
{
  "type": "node",
  "id": 4577444267,
  "lat": 43.2936088,
  "lon": 5.5531151
},
{
  "type": "node",
  "id": 4577444268,
  "lat": 43.2936347,
  "lon": 5.5529602
},
{
  "type": "node",
  "id": 4577448254,
  "lat": 43.2936444,
  "lon": 5.5530340
},
{
  "type": "node",
  "id": 4577448255,
  "lat": 43.2936500,
  "lon": 5.5531175
},
{
  "type": "node",
  "id": 1073904439,
  "lat": 43.2929580,
  "lon": 5.5709820
},
{
  "type": "node",
  "id": 1073911183,
  "lat": 43.2930930,
  "lon": 5.5709910
},
{
  "type": "node",
  "id": 1073925907,
  "lat": 43.2929360,
  "lon": 5.5710760
},
{
  "type": "node",
  "id": 1073933344,
  "lat": 43.2930050,
  "lon": 5.5709520
},
{
  "type": "node",
  "id": 1073942419,
  "lat": 43.2930700,
  "lon": 5.5711660
},
{
  "type": "node",
  "id": 1073979552,
  "lat": 43.2930310,
  "lon": 5.5711720
},
{
  "type": "node",
  "id": 1074029493,
  "lat": 43.2929690,
  "lon": 5.5709680
},
{
  "type": "node",
  "id": 1074052936,
  "lat": 43.2930200,
  "lon": 5.5709510
},
{
  "type": "node",
  "id": 1074061427,
  "lat": 43.2930620,
  "lon": 5.5711700
},
{
  "type": "node",
  "id": 1074096357,
  "lat": 43.2929340,
  "lon": 5.5710590
},
{
  "type": "node",
  "id": 1074130879,
  "lat": 43.2929780,
  "lon": 5.5709630
},
{
  "type": "node",
  "id": 1074156149,
  "lat": 43.2930340,
  "lon": 5.5709520
},
{
  "type": "node",
  "id": 1074183559,
  "lat": 43.2930710,
  "lon": 5.5709680
},
{
  "type": "node",
  "id": 1074196623,
  "lat": 43.2929350,
  "lon": 5.5710360
},
{
  "type": "node",
  "id": 1074221171,
  "lat": 43.2929850,
  "lon": 5.5709590
},
{
  "type": "node",
  "id": 1074231492,
  "lat": 43.2930620,
  "lon": 5.5710630
},
{
  "type": "node",
  "id": 1074245849,
  "lat": 43.2930460,
  "lon": 5.5709530
},
{
  "type": "node",
  "id": 1074261987,
  "lat": 43.2930500,
  "lon": 5.5711720
},
{
  "type": "node",
  "id": 1074276516,
  "lat": 43.2930810,
  "lon": 5.5709780
},
{
  "type": "node",
  "id": 1074290384,
  "lat": 43.2929420,
  "lon": 5.5710100
},
{
  "type": "node",
  "id": 1074303092,
  "lat": 43.2930850,
  "lon": 5.5710080
},
{
  "type": "node",
  "id": 1074314587,
  "lat": 43.2929910,
  "lon": 5.5709560
},
{
  "type": "node",
  "id": 1074324988,
  "lat": 43.2931070,
  "lon": 5.5710990
},
{
  "type": "node",
  "id": 1074339214,
  "lat": 43.2930600,
  "lon": 5.5709600
},
{
  "type": "node",
  "id": 1074359189,
  "lat": 43.2930420,
  "lon": 5.5711730
},
{
  "type": "node",
  "id": 1701634011,
  "lat": 43.3700880,
  "lon": 5.6323690
},
{
  "type": "node",
  "id": 1701634032,
  "lat": 43.3700910,
  "lon": 5.6324100
},
{
  "type": "node",
  "id": 1701634053,
  "lat": 43.3700930,
  "lon": 5.6323790
},
{
  "type": "node",
  "id": 1701634067,
  "lat": 43.3700940,
  "lon": 5.6323990
},
{
  "type": "node",
  "id": 1701634085,
  "lat": 43.3700970,
  "lon": 5.6324210
},
{
  "type": "node",
  "id": 1701634088,
  "lat": 43.3700980,
  "lon": 5.6323550
},
{
  "type": "node",
  "id": 1701634112,
  "lat": 43.3701030,
  "lon": 5.6323690
},
{
  "type": "node",
  "id": 1701634132,
  "lat": 43.3701050,
  "lon": 5.6324270
},
{
  "type": "node",
  "id": 1701634144,
  "lat": 43.3701060,
  "lon": 5.6323530
},
{
  "type": "node",
  "id": 1701634146,
  "lat": 43.3701060,
  "lon": 5.6324120
},
{
  "type": "node",
  "id": 1701634207,
  "lat": 43.3701120,
  "lon": 5.6323680
},
{
  "type": "node",
  "id": 1701634231,
  "lat": 43.3701140,
  "lon": 5.6324260
},
{
  "type": "node",
  "id": 1701634244,
  "lat": 43.3701150,
  "lon": 5.6323560
},
{
  "type": "node",
  "id": 1701634247,
  "lat": 43.3701150,
  "lon": 5.6324100
},
{
  "type": "node",
  "id": 1701634312,
  "lat": 43.3701200,
  "lon": 5.6324220
},
{
  "type": "node",
  "id": 1701634340,
  "lat": 43.3701230,
  "lon": 5.6323390
},
{
  "type": "node",
  "id": 1701634363,
  "lat": 43.3701250,
  "lon": 5.6323660
},
{
  "type": "node",
  "id": 1701634421,
  "lat": 43.3701290,
  "lon": 5.6324100
},
{
  "type": "node",
  "id": 1701634441,
  "lat": 43.3701310,
  "lon": 5.6324390
},
{
  "type": "node",
  "id": 1701634612,
  "lat": 43.3701520,
  "lon": 5.6323230
},
{
  "type": "node",
  "id": 1701634831,
  "lat": 43.3701860,
  "lon": 5.6323200
},
{
  "type": "node",
  "id": 1701634941,
  "lat": 43.3701960,
  "lon": 5.6323830
},
{
  "type": "node",
  "id": 1701634977,
  "lat": 43.3702040,
  "lon": 5.6324430
},
{
  "type": "node",
  "id": 1438048391,
  "lat": 43.4699710,
  "lon": 5.5482310
},
{
  "type": "node",
  "id": 1438048397,
  "lat": 43.4700010,
  "lon": 5.5479290
},
{
  "type": "node",
  "id": 1438048520,
  "lat": 43.4701160,
  "lon": 5.5482600
},
{
  "type": "node",
  "id": 1438048560,
  "lat": 43.4701460,
  "lon": 5.5479570
},
{
  "type": "node",
  "id": 1028967111,
  "lat": 43.5254995,
  "lon": 5.4528443
},
{
  "type": "node",
  "id": 1028967645,
  "lat": 43.5254768,
  "lon": 5.4528685
},
{
  "type": "node",
  "id": 1028967758,
  "lat": 43.5253351,
  "lon": 5.4531477
},
{
  "type": "node",
  "id": 1028967828,
  "lat": 43.5252975,
  "lon": 5.4530235
},
{
  "type": "node",
  "id": 1028967970,
  "lat": 43.5251785,
  "lon": 5.4529279
},
{
  "type": "node",
  "id": 1028968171,
  "lat": 43.5254737,
  "lon": 5.4528544
},
{
  "type": "node",
  "id": 1028968210,
  "lat": 43.5254115,
  "lon": 5.4528801
},
{
  "type": "node",
  "id": 1028968908,
  "lat": 43.5252685,
  "lon": 5.4528919
},
{
  "type": "node",
  "id": 1028969599,
  "lat": 43.5253729,
  "lon": 5.4527498
},
{
  "type": "node",
  "id": 1028969956,
  "lat": 43.5253069,
  "lon": 5.4530208
},
{
  "type": "node",
  "id": 1028971820,
  "lat": 43.5255133,
  "lon": 5.4533082
},
{
  "type": "node",
  "id": 1028972777,
  "lat": 43.5252776,
  "lon": 5.4529332
},
{
  "type": "node",
  "id": 1028972911,
  "lat": 43.5255024,
  "lon": 5.4528575
},
{
  "type": "node",
  "id": 1028976133,
  "lat": 43.5255396,
  "lon": 5.4528271
},
{
  "type": "node",
  "id": 1028977839,
  "lat": 43.5251716,
  "lon": 5.4529306
},
{
  "type": "node",
  "id": 1028978488,
  "lat": 43.5255275,
  "lon": 5.4527712
},
{
  "type": "node",
  "id": 1028978560,
  "lat": 43.5252645,
  "lon": 5.4527953
},
{
  "type": "node",
  "id": 1028980498,
  "lat": 43.5254421,
  "lon": 5.4533414
},
{
  "type": "node",
  "id": 1028983048,
  "lat": 43.5253906,
  "lon": 5.4531266
},
{
  "type": "node",
  "id": 1028983156,
  "lat": 43.5254624,
  "lon": 5.4528590
},
{
  "type": "node",
  "id": 1028967087,
  "lat": 43.5261551,
  "lon": 5.4538599
},
{
  "type": "node",
  "id": 1028967343,
  "lat": 43.5263221,
  "lon": 5.4538785
},
{
  "type": "node",
  "id": 1028967403,
  "lat": 43.5263027,
  "lon": 5.4540934
},
{
  "type": "node",
  "id": 1028967919,
  "lat": 43.5262544,
  "lon": 5.4539126
},
{
  "type": "node",
  "id": 1028968603,
  "lat": 43.5263264,
  "lon": 5.4538792
},
{
  "type": "node",
  "id": 1028968824,
  "lat": 43.5260793,
  "lon": 5.4541678
},
{
  "type": "node",
  "id": 1028968917,
  "lat": 43.5262560,
  "lon": 5.4540902
},
{
  "type": "node",
  "id": 1028969280,
  "lat": 43.5262663,
  "lon": 5.4539542
},
{
  "type": "node",
  "id": 1028969445,
  "lat": 43.5264650,
  "lon": 5.4541058
},
{
  "type": "node",
  "id": 1028969951,
  "lat": 43.5262530,
  "lon": 5.4539530
},
{
  "type": "node",
  "id": 1028970091,
  "lat": 43.5263123,
  "lon": 5.4540942
},
{
  "type": "node",
  "id": 1028971063,
  "lat": 43.5261964,
  "lon": 5.4539491
},
{
  "type": "node",
  "id": 1028971874,
  "lat": 43.5261687,
  "lon": 5.4538609
},
{
  "type": "node",
  "id": 1028972386,
  "lat": 43.5264235,
  "lon": 5.4538953
},
{
  "type": "node",
  "id": 1028972457,
  "lat": 43.5262461,
  "lon": 5.4540894
},
{
  "type": "node",
  "id": 1028972733,
  "lat": 43.5262678,
  "lon": 5.4539133
},
{
  "type": "node",
  "id": 1028972786,
  "lat": 43.5263570,
  "lon": 5.4540976
},
{
  "type": "node",
  "id": 1028973138,
  "lat": 43.5263273,
  "lon": 5.4538795
},
{
  "type": "node",
  "id": 1028973427,
  "lat": 43.5261669,
  "lon": 5.4539459
},
{
  "type": "node",
  "id": 1028973766,
  "lat": 43.5260938,
  "lon": 5.4539726
},
{
  "type": "node",
  "id": 1028974471,
  "lat": 43.5263788,
  "lon": 5.4538879
},
{
  "type": "node",
  "id": 1028974696,
  "lat": 43.5261542,
  "lon": 5.4541677
},
{
  "type": "node",
  "id": 1028974732,
  "lat": 43.5264717,
  "lon": 5.4539033
},
{
  "type": "node",
  "id": 1028974782,
  "lat": 43.5263126,
  "lon": 5.4540942
},
{
  "type": "node",
  "id": 1028974935,
  "lat": 43.5263247,
  "lon": 5.4539599
},
{
  "type": "node",
  "id": 1028975930,
  "lat": 43.5262083,
  "lon": 5.4539497
},
{
  "type": "node",
  "id": 1028976072,
  "lat": 43.5261580,
  "lon": 5.4540817
},
{
  "type": "node",
  "id": 1028976176,
  "lat": 43.5263125,
  "lon": 5.4539582
},
{
  "type": "node",
  "id": 1028976268,
  "lat": 43.5261985,
  "lon": 5.4539097
},
{
  "type": "node",
  "id": 1028976936,
  "lat": 43.5263773,
  "lon": 5.4539226
},
{
  "type": "node",
  "id": 1028977023,
  "lat": 43.5261711,
  "lon": 5.4538610
},
{
  "type": "node",
  "id": 1028977708,
  "lat": 43.5263687,
  "lon": 5.4539626
},
{
  "type": "node",
  "id": 1028977795,
  "lat": 43.5263140,
  "lon": 5.4539172
},
{
  "type": "node",
  "id": 1028979114,
  "lat": 43.5262097,
  "lon": 5.4539108
},
{
  "type": "node",
  "id": 1028979184,
  "lat": 43.5263705,
  "lon": 5.4539223
},
{
  "type": "node",
  "id": 1028980647,
  "lat": 43.5263210,
  "lon": 5.4539176
},
{
  "type": "node",
  "id": 1028980736,
  "lat": 43.5261024,
  "lon": 5.4538562
},
{
  "type": "node",
  "id": 1424664279,
  "lat": 43.4730040,
  "lon": 5.6721970
},
{
  "type": "node",
  "id": 1424664280,
  "lat": 43.4730240,
  "lon": 5.6725370
},
{
  "type": "node",
  "id": 1424664281,
  "lat": 43.4730710,
  "lon": 5.6721900
},
{
  "type": "node",
  "id": 1424664285,
  "lat": 43.4730900,
  "lon": 5.6725300
},
{
  "type": "way",
  "id": 295843622,
  "nodes": [
    2996021636,
    2996021634,
    2996021637,
    2996021641,
    2996021643,
    2996021645,
    2996021648,
    2996021652,
    2996021656,
    2996021659,
    2996021661,
    2996021663,
    2996021665,
    2996021667,
    2996021670,
    2996021668,
    2996021671,
    2996021669,
    2996021666,
    2996021664,
    2996021662,
    2996021660,
    2996021658,
    2996021655,
    3611214099,
    3611214098,
    2996021651,
    3611214097,
    258829616,
    2996021647,
    2996021644,
    2996021642,
    2996021640,
    2996021635,
    2996021639,
    2996021638,
    2996021636
  ]
},
{
  "type": "way",
  "id": 295843765,
  "nodes": [
    2996021650,
    2996021654,
    2996021657,
    2996021653,
    2996021649,
    2996021646,
    2996021650
  ]
}

  ]
}
