{
  "version": 0.6,
  "generator": "Overpass API 0.7.55.1011 6c2efc30",
  "osm3s": {
    "timestamp_osm_base": "2020-02-14T09:43:02Z",
    "copyright": "The data included in this document is from www.openstreetmap.org. The data is made available under ODbL."
  },
  "elements": [

{
  "type": "node",
  "id": 354524950,
  "lat": 50.1013103,
  "lon": -5.2744459,
  "tags": {
    "name": "Helston Museum",
    "tourism": "museum",
    "wikidata": "Q5710579",
    "wikipedia": "en:Helston Museum"
  }
},
{
  "type": "node",
  "id": 354537020,
  "lat": 50.2637715,
  "lon": -5.0547420,
  "tags": {
    "name": "Royal Cornwall Museum",
    "tourism": "museum",
    "wikidata": "Q1251321"
  }
},
{
  "type": "node",
  "id": 502248839,
  "lat": 50.0303224,
  "lon": -5.2638953,
  "tags": {
    "name": "Marconi Centre",
    "source": "GPS",
    "tourism": "museum"
  }
},
{
  "type": "node",
  "id": 502248852,
  "lat": 49.9635591,
  "lon": -5.1916859,
  "tags": {
    "name": "Lizard Wireless Station",
    "source": "GPS",
    "tourism": "museum"
  }
},
{
  "type": "node",
  "id": 551278141,
  "lat": 50.2161060,
  "lon": -5.4763921,
  "tags": {
    "name": "St Ives Museum",
    "tourism": "museum",
    "wheelchair": "limited"
  }
},
{
  "type": "node",
  "id": 663582895,
  "lat": 50.1079265,
  "lon": -5.5486909,
  "tags": {
    "name": "Newlyn Orion Gallery",
    "tourism": "museum"
  }
},
{
  "type": "node",
  "id": 690269381,
  "lat": 50.1520179,
  "lon": -5.6853918,
  "tags": {
    "addr:city": "Pendeen",
    "addr:country": "GB",
    "addr:hamlet": "Trewellard",
    "addr:postcode": "TR19 7SX",
    "addr:street": "Levant Road",
    "name": "Levant Mine and Beam Engine",
    "operator": "National Trust",
    "tourism": "museum",
    "website": "https://www.nationaltrust.org.uk/levant-mine-and-beam-engine",
    "wheelchair": "no",
    "wikidata": "Q1821720",
    "wikipedia": "en:Levant Mine and Beam Engine"
  }
},
{
  "type": "node",
  "id": 705127066,
  "lat": 50.2701351,
  "lon": -4.7843046,
  "tags": {
    "name": "Mevagissey Museum",
    "tourism": "museum",
    "wheelchair": "limited"
  }
},
{
  "type": "node",
  "id": 735051394,
  "lat": 50.2038652,
  "lon": -5.2756386,
  "tags": {
    "addr:city": "Camborne",
    "addr:country": "GB",
    "addr:place": "Troon",
    "addr:postcode": "TR14 9HW",
    "addr:street": "Newton Moor",
    "name": "King Edward Mine",
    "tourism": "museum",
    "website": "https://www.kingedwardmine.co.uk/"
  }
},
{
  "type": "node",
  "id": 798548155,
  "lat": 49.9599529,
  "lon": -5.2025874,
  "tags": {
    "name": "Lizard Lighthouse Heritage Centre",
    "operator": "Trinity House",
    "source": "survey",
    "tourism": "museum"
  }
},
{
  "type": "node",
  "id": 865013907,
  "lat": 50.1558425,
  "lon": -5.0723561,
  "tags": {
    "name": "Falmouth Art Gallery",
    "tourism": "museum",
    "wikidata": "Q5432578"
  }
},
{
  "type": "node",
  "id": 865125078,
  "lat": 50.1473315,
  "lon": -5.0475892,
  "tags": {
    "addr:city": "Falmouth",
    "addr:country": "GB",
    "addr:housename": "Pendennis Castle",
    "addr:postcode": "TR11 4LP",
    "addr:street": "Castle Drive",
    "name": "Pendennis Castle Museum",
    "tourism": "museum",
    "wikidata": "Q2371954"
  }
},
{
  "type": "node",
  "id": 904042503,
  "lat": 50.1906113,
  "lon": -5.5682520,
  "tags": {
    "name": "Trewey Mill and Wayside Museum",
    "tourism": "museum"
  }
},
{
  "type": "node",
  "id": 1730396906,
  "lat": 50.2066398,
  "lon": -5.4934171,
  "tags": {
    "name": "The Leach Pottery",
    "tourism": "museum",
    "website": "https://www.leachpottery.com/"
  }
},
{
  "type": "node",
  "id": 1924136691,
  "lat": 50.1519485,
  "lon": -5.6759824,
  "tags": {
    "addr:city": "Pendeen",
    "addr:postcode": "TR19 7EW",
    "name": "Geevor Tin Mine",
    "phone": "+44 1736 788662",
    "tourism": "museum",
    "website": "http://www.geevor.com/",
    "wheelchair": "limited",
    "wikidata": "Q3314843"
  }
},
{
  "type": "node",
  "id": 3936165897,
  "lat": 50.2310378,
  "lon": -5.2620677,
  "tags": {
    "name": "East Pool Mine",
    "operator": "National Trust",
    "tourism": "museum",
    "website": "https://www.nationaltrust.org.uk/east-pool-mine"
  }
},
{
  "type": "node",
  "id": 3936165962,
  "lat": 50.2255689,
  "lon": -5.2713294,
  "tags": {
    "name": "Heartlands",
    "tourism": "museum",
    "website": "www.heartlandscornwall.com"
  }
},
{
  "type": "node",
  "id": 4438069773,
  "lat": 50.1681079,
  "lon": -5.1030410,
  "tags": {
    "name": "Penryn Museum",
    "tourism": "museum"
  }
},
{
  "type": "node",
  "id": 6089714749,
  "lat": 50.2131717,
  "lon": -5.4809997,
  "tags": {
    "name": "Barbara Hepworth Museum",
    "tourism": "museum"
  }
},
{
  "type": "node",
  "id": 6773073385,
  "lat": 50.3200452,
  "lon": -5.1923657,
  "tags": {
    "name": "Blue Hills Tin Streams",
    "tourism": "museum"
  }
},
{
  "type": "node",
  "id": 6943557620,
  "lat": 50.1383709,
  "lon": -5.2440190,
  "tags": {
    "addr:city": "Helston",
    "addr:country": "GB",
    "addr:hamlet": "Wendron",
    "addr:housename": "Poldark Mine",
    "addr:postcode": "TR13 0ES",
    "addr:street": "Redruth Road",
    "addr:suburb": "Trenear",
    "historic": "yes",
    "name": "Poldark Mine",
    "tourism": "museum"
  }
},
{
  "type": "way",
  "id": 64435504,
  "nodes": [
    792575466,
    2077990676,
    1137379805,
    792575400,
    792575545,
    4107823973,
    1137379716,
    792575487,
    792575421,
    792575346,
    792575502,
    792575516,
    792575367,
    792575550,
    792575494,
    792575466
  ],
  "tags": {
    "building": "yes",
    "name": "National Maritime Museum Cornwall",
    "source": "OS_OpenData_StreetView;survey",
    "tourism": "museum",
    "wikidata": "Q6974252",
    "wikipedia": "en:National Maritime Museum Cornwall"
  }
},
{
  "type": "way",
  "id": 222771840,
  "nodes": [
    2317077181,
    2317077182,
    2317077409,
    2317077136,
    2317188246,
    2317188255,
    2317188197,
    2317188101,
    2317077181
  ],
  "tags": {
    "addr:housename": "Visitors Centre",
    "building": "yes",
    "name": "Goonhilly Satellite Earth Station (Closed)",
    "opening_hours": "Closed",
    "tourism": "museum"
  }
},
{
  "type": "way",
  "id": 241163192,
  "nodes": [
    2488605214,
    2960403173,
    2488605212,
    6089714750,
    6089714751,
    6089714752,
    2488605211,
    6089714753,
    6089714754,
    2488605209,
    2960403174,
    2488605213,
    2488605214
  ],
  "tags": {
    "area": "yes",
    "name": "Barbara Hepworth Museum",
    "tourism": "museum",
    "website": "https://www.tate.org.uk/visit/tate-st-ives/barbara-hepworth-museum",
    "wikidata": "Q1930870",
    "wikipedia": "en:Barbara Hepworth Museum"
  }
},
{
  "type": "way",
  "id": 315886263,
  "nodes": [
    3220142695,
    3220142696,
    3220142697,
    3220142698,
    3220142695
  ],
  "tags": {
    "building": "yes",
    "tourism": "museum"
  }
},
{
  "type": "way",
  "id": 332810021,
  "nodes": [
    3399317219,
    3399317220,
    3399317212,
    3399317211,
    3399317222,
    3399317213,
    3399317210,
    3399317221,
    3399317219
  ],
  "tags": {
    "building": "civic",
    "name": "County Records Office",
    "source": "OS Local",
    "source:id": "607CF419-C622-444C-9F32-8E3F657EB7C8",
    "tourism": "museum"
  }
},
{
  "type": "way",
  "id": 390468231,
  "nodes": [
    3936165912,
    3936165913,
    3936165914,
    3936165915,
    3936165916,
    3936165917,
    3936165918,
    3936165919,
    3936165920,
    3936165921,
    3936165922,
    3936165923,
    3936165912
  ],
  "tags": {
    "building": "yes",
    "name": "Michell's Engine House",
    "operator": "National Trust",
    "tourism": "museum",
    "website": "https://www.nationaltrust.org.uk/east-pool-mine"
  }
},
{
  "type": "way",
  "id": 390468244,
  "nodes": [
    3936165985,
    3936166013,
    3936166014,
    3936166015,
    3936166016,
    3936166017,
    3936166018,
    3936166023,
    3936166019,
    3936165987,
    3936165984,
    3936165985
  ],
  "tags": {
    "building": "yes",
    "name": "World Heritage Site Exhibitions",
    "tourism": "museum"
  }
},
{
  "type": "node",
  "id": 3220142695,
  "lat": 50.1164821,
  "lon": -5.5401899
},
{
  "type": "node",
  "id": 3220142696,
  "lat": 50.1165997,
  "lon": -5.5398849
},
{
  "type": "node",
  "id": 3220142697,
  "lat": 50.1164051,
  "lon": -5.5397077
},
{
  "type": "node",
  "id": 3220142698,
  "lat": 50.1162905,
  "lon": -5.5400328
},
{
  "type": "node",
  "id": 2488605209,
  "lat": 50.2128587,
  "lon": -5.4811660
},
{
  "type": "node",
  "id": 2488605211,
  "lat": 50.2129210,
  "lon": -5.4807735
},
{
  "type": "node",
  "id": 2488605212,
  "lat": 50.2130621,
  "lon": -5.4808413
},
{
  "type": "node",
  "id": 2488605213,
  "lat": 50.2130810,
  "lon": -5.4813672
},
{
  "type": "node",
  "id": 2488605214,
  "lat": 50.2132260,
  "lon": -5.4809885
},
{
  "type": "node",
  "id": 2960403173,
  "lat": 50.2131385,
  "lon": -5.4809068
},
{
  "type": "node",
  "id": 2960403174,
  "lat": 50.2130264,
  "lon": -5.4813162
},
{
  "type": "node",
  "id": 6089714750,
  "lat": 50.2129970,
  "lon": -5.4807903
},
{
  "type": "node",
  "id": 6089714751,
  "lat": 50.2129718,
  "lon": -5.4807762
},
{
  "type": "node",
  "id": 6089714752,
  "lat": 50.2129458,
  "lon": -5.4807711
},
{
  "type": "node",
  "id": 6089714753,
  "lat": 50.2128935,
  "lon": -5.4807808
},
{
  "type": "node",
  "id": 6089714754,
  "lat": 50.2128871,
  "lon": -5.4808423
},
{
  "type": "node",
  "id": 2317077136,
  "lat": 50.0481972,
  "lon": -5.1764728
},
{
  "type": "node",
  "id": 2317077181,
  "lat": 50.0479000,
  "lon": -5.1759480
},
{
  "type": "node",
  "id": 2317077182,
  "lat": 50.0477580,
  "lon": -5.1761406
},
{
  "type": "node",
  "id": 2317077409,
  "lat": 50.0480532,
  "lon": -5.1766683
},
{
  "type": "node",
  "id": 2317188101,
  "lat": 50.0480212,
  "lon": -5.1761647
},
{
  "type": "node",
  "id": 2317188197,
  "lat": 50.0480406,
  "lon": -5.1761384
},
{
  "type": "node",
  "id": 2317188246,
  "lat": 50.0480652,
  "lon": -5.1762368
},
{
  "type": "node",
  "id": 2317188255,
  "lat": 50.0480825,
  "lon": -5.1762134
},
{
  "type": "node",
  "id": 3936165984,
  "lat": 50.2253309,
  "lon": -5.2713095
},
{
  "type": "node",
  "id": 3936165985,
  "lat": 50.2253247,
  "lon": -5.2713342
},
{
  "type": "node",
  "id": 3936165987,
  "lat": 50.2253566,
  "lon": -5.2712070
},
{
  "type": "node",
  "id": 3936166013,
  "lat": 50.2252077,
  "lon": -5.2712626
},
{
  "type": "node",
  "id": 3936166014,
  "lat": 50.2252198,
  "lon": -5.2712143
},
{
  "type": "node",
  "id": 3936166015,
  "lat": 50.2251677,
  "lon": -5.2711824
},
{
  "type": "node",
  "id": 3936166016,
  "lat": 50.2251899,
  "lon": -5.2710940
},
{
  "type": "node",
  "id": 3936166017,
  "lat": 50.2252412,
  "lon": -5.2711255
},
{
  "type": "node",
  "id": 3936166018,
  "lat": 50.2252537,
  "lon": -5.2710756
},
{
  "type": "node",
  "id": 3936166019,
  "lat": 50.2253715,
  "lon": -5.2711477
},
{
  "type": "node",
  "id": 3936166023,
  "lat": 50.2253331,
  "lon": -5.2711242
},
{
  "type": "node",
  "id": 3936165912,
  "lat": 50.2280683,
  "lon": -5.2647336
},
{
  "type": "node",
  "id": 3936165913,
  "lat": 50.2280416,
  "lon": -5.2647093
},
{
  "type": "node",
  "id": 3936165914,
  "lat": 50.2280102,
  "lon": -5.2647940
},
{
  "type": "node",
  "id": 3936165915,
  "lat": 50.2279816,
  "lon": -5.2647681
},
{
  "type": "node",
  "id": 3936165916,
  "lat": 50.2279672,
  "lon": -5.2648071
},
{
  "type": "node",
  "id": 3936165917,
  "lat": 50.2278962,
  "lon": -5.2647429
},
{
  "type": "node",
  "id": 3936165918,
  "lat": 50.2279474,
  "lon": -5.2646048
},
{
  "type": "node",
  "id": 3936165919,
  "lat": 50.2279922,
  "lon": -5.2646453
},
{
  "type": "node",
  "id": 3936165920,
  "lat": 50.2279991,
  "lon": -5.2646346
},
{
  "type": "node",
  "id": 3936165921,
  "lat": 50.2280202,
  "lon": -5.2646537
},
{
  "type": "node",
  "id": 3936165922,
  "lat": 50.2280518,
  "lon": -5.2645685
},
{
  "type": "node",
  "id": 3936165923,
  "lat": 50.2281100,
  "lon": -5.2646211
},
{
  "type": "node",
  "id": 792575367,
  "lat": 50.1512315,
  "lon": -5.0618644
},
{
  "type": "node",
  "id": 792575346,
  "lat": 50.1517042,
  "lon": -5.0611629
},
{
  "type": "node",
  "id": 792575400,
  "lat": 50.1518028,
  "lon": -5.0614057
},
{
  "type": "node",
  "id": 792575421,
  "lat": 50.1517329,
  "lon": -5.0611630
},
{
  "type": "node",
  "id": 792575466,
  "lat": 50.1516912,
  "lon": -5.0617598
},
{
  "type": "node",
  "id": 792575487,
  "lat": 50.1517596,
  "lon": -5.0611936
},
{
  "type": "node",
  "id": 792575494,
  "lat": 50.1515925,
  "lon": -5.0621421
},
{
  "type": "node",
  "id": 792575502,
  "lat": 50.1516526,
  "lon": -5.0611007
},
{
  "type": "node",
  "id": 792575516,
  "lat": 50.1515558,
  "lon": -5.0609692
},
{
  "type": "node",
  "id": 792575545,
  "lat": 50.1517906,
  "lon": -5.0613561
},
{
  "type": "node",
  "id": 792575550,
  "lat": 50.1514574,
  "lon": -5.0621317
},
{
  "type": "node",
  "id": 1137379716,
  "lat": 50.1517771,
  "lon": -5.0612436
},
{
  "type": "node",
  "id": 1137379805,
  "lat": 50.1517765,
  "lon": -5.0614765
},
{
  "type": "node",
  "id": 2077990676,
  "lat": 50.1517503,
  "lon": -5.0615830
},
{
  "type": "node",
  "id": 4107823973,
  "lat": 50.1517583,
  "lon": -5.0613182
},
{
  "type": "node",
  "id": 3399317210,
  "lat": 50.2620039,
  "lon": -5.0670650
},
{
  "type": "node",
  "id": 3399317211,
  "lat": 50.2620614,
  "lon": -5.0667011
},
{
  "type": "node",
  "id": 3399317212,
  "lat": 50.2619782,
  "lon": -5.0666428
},
{
  "type": "node",
  "id": 3399317213,
  "lat": 50.2620666,
  "lon": -5.0668462
},
{
  "type": "node",
  "id": 3399317219,
  "lat": 50.2619283,
  "lon": -5.0671526
},
{
  "type": "node",
  "id": 3399317220,
  "lat": 50.2618483,
  "lon": -5.0670965
},
{
  "type": "node",
  "id": 3399317221,
  "lat": 50.2619618,
  "lon": -5.0670355
},
{
  "type": "node",
  "id": 3399317222,
  "lat": 50.2620276,
  "lon": -5.0668190
}

  ]
}
