{
  "version": 0.6,
  "generator": "Overpass API 0.7.55.1011 6c2efc30",
  "osm3s": {
    "timestamp_osm_base": "2020-02-14T15:26:02Z",
    "copyright": "The data included in this document is from www.openstreetmap.org. The data is made available under ODbL."
  },
  "elements": [

{
  "type": "node",
  "id": 315561216,
  "lat": 47.5566614,
  "lon": 18.7041604,
  "tags": {
    "contact:phone": "+36 23 342-318",
    "name": "Földi Telepítésű Magyar Légvédelem Fegyvernemi Múzeum",
    "tourism": "museum",
    "website": "http://www.legvedelmimuzeum.hu/"
  }
},
{
  "type": "node",
  "id": 385210612,
  "lat": 47.3679999,
  "lon": 18.3870693,
  "tags": {
    "name": "Balás Jenő Bauxitbányászati Kiállítás",
    "name:en": "Balás Jenő Collection o Bauxite Mining",
    "opening_hours": "Apr 1-Oct 31: Tu-Su 09:00-17:00",
    "phone": "+3622354485",
    "tourism": "museum",
    "website": "http://kbm.hu"
  }
},
{
  "type": "node",
  "id": 521718110,
  "lat": 47.7302400,
  "lon": 18.6874900,
  "tags": {
    "tourism": "museum"
  }
},
{
  "type": "node",
  "id": 727371074,
  "lat": 47.7578114,
  "lon": 18.1271237,
  "tags": {
    "name": "Podunajské múzeum v Komárne",
    "name:hu": "Duna Menti Múzeum Komárom",
    "tourism": "museum"
  }
},
{
  "type": "node",
  "id": 727371076,
  "lat": 47.7574218,
  "lon": 18.1288991,
  "tags": {
    "name": "Podunajské múzeum v Komárne",
    "name:en": "Danube Region Museum in Komárom",
    "name:hu": "Duna Menti Múzeum Komárom",
    "street:hu": "Megye utca",
    "tourism": "museum"
  }
},
{
  "type": "node",
  "id": 871666209,
  "lat": 47.7508953,
  "lon": 18.0944718,
  "tags": {
    "addr:city": "Komárom",
    "addr:housenumber": "1",
    "addr:postcode": "2900",
    "addr:street": "Duna-part",
    "castle_type": "fortress",
    "contact:email": "info@fort-monostor.hu",
    "contact:phone": "+36 34 540 582",
    "contact:website": "http://www.erod.hu/",
    "description:hu": "Nyári nyitvatartás: március 1-től november 1-ig",
    "fixme": "merge",
    "historic": "castle",
    "name": "Monostori Erőd",
    "name:en": "Fort Monostor Komárom",
    "opening_hours": "Mo-Su 09:00-18:00",
    "operator": "Monostori Erőd Nonprofit Kft.",
    "tourism": "museum",
    "wikipedia": "hu:Komáromi erődrendszer"
  }
},
{
  "type": "node",
  "id": 871668724,
  "lat": 47.7337727,
  "lon": 18.1211369,
  "tags": {
    "name": "Igmándi Erőd",
    "place": "neighbourhood",
    "tourism": "museum",
    "website": "http://www.erod.hu/erodrendszer/igmandi-erod",
    "wikipedia": "hu:Komáromi erődrendszer"
  }
},
{
  "type": "node",
  "id": 871669036,
  "lat": 47.7452949,
  "lon": 18.1384013,
  "tags": {
    "tourism": "museum"
  }
},
{
  "type": "node",
  "id": 871671425,
  "lat": 47.7403339,
  "lon": 18.1253720,
  "tags": {
    "name": "Hajózási Múzeum",
    "tourism": "museum"
  }
},
{
  "type": "node",
  "id": 1241798239,
  "lat": 47.4911456,
  "lon": 18.3406051,
  "tags": {
    "name": "Központi Bányászati Múzeum",
    "tourism": "museum"
  }
},
{
  "type": "node",
  "id": 1743473908,
  "lat": 47.3766685,
  "lon": 18.2140319,
  "tags": {
    "name": "Bormúzeum",
    "tourism": "museum"
  }
},
{
  "type": "node",
  "id": 1975866185,
  "lat": 47.5810844,
  "lon": 18.3991081,
  "tags": {
    "addr:postcode": "2800",
    "addr:street": "Szent Borbála tér",
    "name:it": "Museo",
    "tourism": "museum"
  }
},
{
  "type": "node",
  "id": 1978458878,
  "lat": 47.6389723,
  "lon": 18.3147939,
  "tags": {
    "description": "Geológiai bemutató hely",
    "name": "Kő-kör",
    "tourism": "museum"
  }
},
{
  "type": "node",
  "id": 2276955334,
  "lat": 47.6634110,
  "lon": 18.4462186,
  "tags": {
    "name": "Fekete Lajos Múzeum",
    "tourism": "museum"
  }
},
{
  "type": "node",
  "id": 2446554306,
  "lat": 47.6507210,
  "lon": 18.3241612,
  "tags": {
    "name": "Német nemzetiségi múzeum",
    "name:de": "Ungarndeutsches Landesmuseum",
    "tourism": "museum"
  }
},
{
  "type": "node",
  "id": 2700687680,
  "lat": 47.5812822,
  "lon": 18.3989972,
  "tags": {
    "addr:postcode": "2800",
    "name": "Tatabányai Múzeum",
    "opening_hours": "We-Su 10:00-18:00",
    "tourism": "museum"
  }
},
{
  "type": "node",
  "id": 2906059776,
  "lat": 47.7258126,
  "lon": 18.5592057,
  "tags": {
    "name": "Millenniumi Gyűjtemény és Tájékoztató Központ",
    "tourism": "museum"
  }
},
{
  "type": "node",
  "id": 2928493184,
  "lat": 47.5338573,
  "lon": 18.0724866,
  "tags": {
    "name": "Etei tájház",
    "tourism": "museum"
  }
},
{
  "type": "node",
  "id": 2989798573,
  "lat": 47.6911579,
  "lon": 18.7189382,
  "tags": {
    "name": "Falumúzeum",
    "tourism": "museum"
  }
},
{
  "type": "node",
  "id": 3298279087,
  "lat": 47.7772671,
  "lon": 18.1290884,
  "tags": {
    "name": "Rímske Lapidárium",
    "name:hu": "Római kőtár",
    "tourism": "museum",
    "website": "https://www.muzeum.sk/?obj=pamiatka&ix=rlap_mmkap"
  }
},
{
  "type": "node",
  "id": 3411274693,
  "lat": 47.3547244,
  "lon": 18.3220992,
  "tags": {
    "name": "Gróf Merán Fülöp Vadászati és Erdészeti Múzeum",
    "tourism": "museum"
  }
},
{
  "type": "node",
  "id": 3454422326,
  "lat": 47.7024243,
  "lon": 18.7058383,
  "tags": {
    "name": "Bányamúzeum",
    "source": "turistautak.hu",
    "source:date": "2013-10-29",
    "tourism": "museum",
    "url": "http://turistautak.hu/poi.php?id=161265"
  }
},
{
  "type": "node",
  "id": 3454542190,
  "lat": 47.5472800,
  "lon": 18.7217100,
  "tags": {
    "name": "Lámpamúzeum",
    "source": "turistautak.hu",
    "source:date": "2010-07-31",
    "tourism": "museum",
    "url": "http://turistautak.hu/poi.php?id=1597"
  }
},
{
  "type": "node",
  "id": 3454542588,
  "lat": 47.5436660,
  "lon": 18.7177250,
  "tags": {
    "name": "Tájház",
    "source": "turistautak.hu",
    "source:date": "2011-06-29",
    "tourism": "museum",
    "url": "http://turistautak.hu/poi.php?id=119505"
  }
},
{
  "type": "node",
  "id": 3468026237,
  "lat": 47.6241457,
  "lon": 18.3838363,
  "tags": {
    "dog": "yes",
    "name": "Vértesszőlősi előembertelep",
    "opening_hours": "Mo-Fr 10:00-15:00; Apr-Aug Sa-Su 10:00-18:00; Sep Sa-Su 10:00-17:00; Oct Sa-Su 10:00-16:00",
    "tourism": "museum",
    "website": "http://www.vertesszolos.hu/gen/pro/mod/alo/alo_kiiras.php?i_szo_azo=37",
    "wikidata": "Q1462685",
    "wikipedia": "hu:Vértesszőlős Őstelep"
  }
},
{
  "type": "node",
  "id": 3468026252,
  "lat": 47.4772500,
  "lon": 18.3954670,
  "tags": {
    "name": "Tájház",
    "source": "turistautak.hu",
    "source:date": "2012-07-08",
    "tourism": "museum",
    "url": "http://turistautak.hu/poi.php?id=141267"
  }
},
{
  "type": "node",
  "id": 3468026253,
  "lat": 47.6453170,
  "lon": 18.5135670,
  "tags": {
    "name": "Tájház",
    "source": "turistautak.hu",
    "source:date": "2011-05-08",
    "tourism": "museum",
    "url": "http://turistautak.hu/poi.php?id=41299"
  }
},
{
  "type": "node",
  "id": 3470078646,
  "lat": 47.7335170,
  "lon": 18.3286500,
  "tags": {
    "name": "Csokonai-Lilla emlékszoba",
    "source": "turistautak.hu",
    "source:date": "2011-05-08",
    "tourism": "museum",
    "url": "http://turistautak.hu/poi.php?id=2345"
  }
},
{
  "type": "node",
  "id": 3470078662,
  "lat": 47.7364330,
  "lon": 18.3555000,
  "tags": {
    "name": "Hajó Skanzen",
    "source": "turistautak.hu",
    "source:date": "2011-05-08",
    "tourism": "museum",
    "url": "http://turistautak.hu/poi.php?id=34344"
  }
},
{
  "type": "node",
  "id": 3470096843,
  "lat": 47.5060086,
  "lon": 18.0004379,
  "tags": {
    "name": "Jászai Mari szülőháza",
    "source": "turistautak.hu",
    "source:date": "2013-09-16",
    "tourism": "museum",
    "url": "http://turistautak.hu/poi.php?id=159437"
  }
},
{
  "type": "node",
  "id": 3470096871,
  "lat": 47.4079720,
  "lon": 18.0114280,
  "tags": {
    "name": "Táncsics Emlékház",
    "source": "turistautak.hu",
    "source:date": "2011-06-25",
    "tourism": "museum",
    "url": "http://turistautak.hu/poi.php?id=32706"
  }
},
{
  "type": "node",
  "id": 3470097557,
  "lat": 47.5081490,
  "lon": 18.0056220,
  "tags": {
    "name": "Ászári Tájház",
    "source": "turistautak.hu",
    "source:date": "2013-09-16",
    "tourism": "museum",
    "url": "http://turistautak.hu/poi.php?id=159435"
  }
},
{
  "type": "node",
  "id": 3471787665,
  "lat": 47.7452170,
  "lon": 18.1164670,
  "tags": {
    "description": "1996-ban nyílt állandó kiállításon, a brigetioi ásatások freskó és egyéb leletei láthatók.",
    "name": "Klapka György Múzeum",
    "source": "turistautak.hu",
    "source:date": "2010-08-23",
    "tourism": "museum",
    "url": "http://turistautak.hu/poi.php?id=275"
  }
},
{
  "type": "node",
  "id": 3471787668,
  "lat": 47.6413020,
  "lon": 17.9814530,
  "tags": {
    "name": "Lovasmúzeum",
    "source": "turistautak.hu",
    "source:date": "2013-10-13",
    "tourism": "museum",
    "url": "http://turistautak.hu/poi.php?id=160547"
  }
},
{
  "type": "node",
  "id": 3471787683,
  "lat": 47.7497380,
  "lon": 18.0959650,
  "tags": {
    "name": "Pék Múzeum",
    "source": "turistautak.hu",
    "source:date": "2015-01-30",
    "tourism": "museum",
    "url": "http://turistautak.hu/poi.php?id=100546"
  }
},
{
  "type": "node",
  "id": 3474939093,
  "lat": 47.3775830,
  "lon": 18.2147000,
  "tags": {
    "description": "Bozóky Bormúzeum 8060 Mór, Pince u. 18-22. 36-22-407-797",
    "name": "Bozóky Bormúzeum",
    "source": "turistautak.hu",
    "source:date": "2011-09-03",
    "tourism": "museum",
    "url": "http://turistautak.hu/poi.php?id=7689"
  }
},
{
  "type": "node",
  "id": 3474948914,
  "lat": 47.4973830,
  "lon": 18.6347710,
  "tags": {
    "name": "Kovácsműhely",
    "source": "turistautak.hu",
    "source:date": "2014-05-03",
    "tourism": "museum",
    "url": "http://turistautak.hu/poi.php?id=168154"
  }
},
{
  "type": "node",
  "id": 3681365369,
  "lat": 47.7572403,
  "lon": 18.1274342,
  "tags": {
    "name": "Podunajské múzeum v Komárne",
    "name:hu": "Duna Menti Múzeum",
    "tourism": "museum",
    "wikidata": "Q663372",
    "wikipedia": "sk:Podunajské múzeum v Komárne"
  }
},
{
  "type": "node",
  "id": 3865651804,
  "lat": 47.6719168,
  "lon": 18.1819962,
  "tags": {
    "name": "Anyakönyvi hivatal",
    "tourism": "museum"
  }
},
{
  "type": "node",
  "id": 3865651805,
  "lat": 47.6724695,
  "lon": 18.1821946,
  "tags": {
    "name": "Termelő Szövetkezet Iroda",
    "tourism": "museum"
  }
},
{
  "type": "node",
  "id": 3865706321,
  "lat": 47.6716676,
  "lon": 18.1815794,
  "tags": {
    "name": "Nyugdíjas klub",
    "tourism": "museum"
  }
},
{
  "type": "node",
  "id": 4357105951,
  "lat": 47.4332827,
  "lon": 18.2290991,
  "tags": {
    "name": "Tájház",
    "tourism": "museum"
  }
},
{
  "type": "node",
  "id": 4640535776,
  "lat": 47.5012117,
  "lon": 18.0281092,
  "tags": {
    "tourism": "museum"
  }
},
{
  "type": "node",
  "id": 4723158713,
  "lat": 47.6396648,
  "lon": 17.9798236,
  "tags": {
    "name": "Kocsi Múzeum",
    "tourism": "museum"
  }
},
{
  "type": "node",
  "id": 5139157925,
  "lat": 47.5916102,
  "lon": 18.7622576,
  "tags": {
    "museum": "local",
    "name": "Helytörténeti kiállítás",
    "tourism": "museum"
  }
},
{
  "type": "node",
  "id": 5481338484,
  "lat": 47.7505358,
  "lon": 18.0963853,
  "tags": {
    "name": "Hadtörténeti kiállítás",
    "tourism": "museum"
  }
},
{
  "type": "node",
  "id": 5481338491,
  "lat": 47.7525211,
  "lon": 18.0953508,
  "tags": {
    "name": "Duna, Hajők, mesterségek kiállítás",
    "tourism": "museum"
  }
},
{
  "type": "node",
  "id": 6537185574,
  "lat": 47.6472429,
  "lon": 18.6395073,
  "tags": {
    "addr:city": "Epöl",
    "addr:country": "HU",
    "addr:district": "Esztergomi járás",
    "addr:housenumber": "11",
    "addr:postcode": "2526",
    "addr:province": "Komárom-Esztergom Megye",
    "addr:street": "Kossuth Lajos utca",
    "building": "yes",
    "name": "Tájház",
    "tourism": "museum"
  }
},
{
  "type": "node",
  "id": 6873833095,
  "lat": 47.5001684,
  "lon": 18.3386729,
  "tags": {
    "building": "yes",
    "name": "vízimalom",
    "tourism": "museum"
  }
},
{
  "type": "node",
  "id": 6882133577,
  "lat": 47.4568287,
  "lon": 18.5856333,
  "tags": {
    "name": "Felcsúti képtár (Kokas Ignác kiállítás)",
    "tourism": "museum"
  }
},
{
  "type": "node",
  "id": 6882162638,
  "lat": 47.4565208,
  "lon": 18.5855789,
  "tags": {
    "name": "Tájház",
    "phone": "+36704508708",
    "tourism": "museum"
  }
},
{
  "type": "node",
  "id": 7035360856,
  "lat": 47.7219490,
  "lon": 18.7301272,
  "tags": {
    "contact:website": "https://reimann.hu/",
    "fixme": "Check position",
    "name": "Reimann Bányászattörténeti Miniverzum",
    "tourism": "museum"
  }
},
{
  "type": "node",
  "id": 7101331145,
  "lat": 47.7217102,
  "lon": 18.7296873,
  "tags": {
    "name": "Reimann Bányászati Múzeum és Miniverzum",
    "tourism": "museum"
  }
},
{
  "type": "way",
  "id": 51277207,
  "nodes": [
    654230928,
    654230584,
    654230931,
    654230933,
    654230935,
    654230938,
    654230973,
    654230975,
    654230922,
    654230946,
    654230940,
    654230943,
    654230559,
    654230561,
    654230563,
    654230564,
    654230567,
    654230570,
    654230572,
    654230574,
    654230577,
    654230580,
    654230581,
    654230925,
    654230928
  ],
  "tags": {
    "building": "yes",
    "historic": "ruins",
    "name": "Zsámbéki Romtemplom Szabadtéri Múzeum",
    "religion": "christian",
    "tourism": "museum"
  }
},
{
  "type": "way",
  "id": 71580540,
  "nodes": [
    851429903,
    851429904,
    851429908,
    851429909,
    851429903
  ],
  "tags": {
    "addr:city": "Búč",
    "addr:conscriptionnumber": "11",
    "addr:country": "SK",
    "addr:housenumber": "11",
    "addr:place": "Búč",
    "building": "yes",
    "import": "budovy201004",
    "name": "Múzeum bábik",
    "name:hu": "Babamúzeum",
    "source": "kapor2",
    "source:conscriptionnumber": "kapor2",
    "tourism": "museum"
  }
},
{
  "type": "way",
  "id": 71719891,
  "nodes": [
    852595509,
    852595510,
    852595513,
    852595515,
    852595516,
    852595518,
    852595520,
    852595521,
    852595523,
    852595509
  ],
  "tags": {
    "addr:city": "Iža",
    "addr:conscriptionnumber": "11",
    "addr:country": "SK",
    "addr:housenumber": "11",
    "addr:place": "Iža",
    "building": "yes",
    "import": "budovy201004",
    "source": "kapor2",
    "source:conscriptionnumber": "kapor2",
    "tourism": "museum"
  }
},
{
  "type": "way",
  "id": 104914823,
  "nodes": [
    1209788392,
    2508131034,
    1209788676,
    2508131010,
    2508131012,
    2508130999,
    2508130993,
    1209788426,
    2508130997,
    2508130985,
    2508131004,
    2508131006,
    1209788592,
    1209788338,
    1209788495,
    1209788392
  ],
  "tags": {
    "addr:city": "Tata",
    "addr:country": "HU",
    "addr:housename": "Villa Quadt",
    "addr:housenumber": "1-3",
    "addr:postcode": "2890",
    "addr:street": "Váralja utca",
    "building": "yes",
    "email": "info@kunymuzeum.hu",
    "name": "Kunyi Domokos Múzeum",
    "name:de": "Kuny Domokos Museum",
    "name:en": "Kuny Domokos Museum",
    "opening_hours": "Tu-Su 09:00-18:00",
    "phone": "+36 34381251",
    "tourism": "museum",
    "website": "http://www.kunymuzeum.hu",
    "wikidata": "Q1122060"
  }
},
{
  "type": "way",
  "id": 147465779,
  "nodes": [
    1606838202,
    1606838120,
    1606838046,
    1606838299,
    1606838202
  ],
  "tags": {
    "building": "house",
    "name": "Sváb tájház",
    "tourism": "museum"
  }
},
{
  "type": "way",
  "id": 187089985,
  "nodes": [
    1978459021,
    1978459083,
    1978459092,
    6697209075,
    6689487078,
    1978459026,
    1978459018,
    1978459013,
    1978459009,
    1978459005,
    1978459021
  ],
  "tags": {
    "addr:city": "Tata",
    "barrier": "fence",
    "leisure": "garden",
    "name": "Szabadtéri Geológiai Múzeum",
    "opening_hours": "Jan-Mar off;Nov-Dec off;Tu-Fr 10:00-16:00;Sa-Su 10:00-17:00",
    "tourism": "museum",
    "website": "https://www.elte.hu/tata"
  }
},
{
  "type": "way",
  "id": 228410654,
  "nodes": [
    2370919938,
    2370919922,
    2370919920,
    2370919935,
    2370919925,
    2370919941,
    2370919942,
    2370919945,
    2370919940,
    2370919938
  ],
  "tags": {
    "addr:city": "Tatabánya",
    "addr:housenumber": "3",
    "addr:postcode": "2800",
    "addr:street": "Szent Gellért tér",
    "building": "yes",
    "name": "Bánhidai szlovák tájház",
    "tourism": "museum"
  }
},
{
  "type": "way",
  "id": 243263406,
  "nodes": [
    2506830079,
    2506830080,
    2506830081,
    2506830091,
    2506830087,
    2506830089,
    2506830088,
    2506830090,
    2506830086,
    2506830082,
    2506830085,
    2506830084,
    3148318053,
    2506830083,
    2506830079
  ],
  "tags": {
    "addr:city": "Tatabánya",
    "addr:postcode": "2800",
    "addr:street": "Vágóhíd utca",
    "building": "yes",
    "name": "Tatabányai Bányász Skanzen",
    "tourism": "museum"
  }
},
{
  "type": "way",
  "id": 275835158,
  "nodes": [
    2805078721,
    2805078729,
    2805078748,
    2805078743,
    2805078737,
    2805078733,
    2805078721
  ],
  "tags": {
    "building": "yes",
    "name": "Emlékház",
    "tourism": "museum"
  }
},
{
  "type": "way",
  "id": 295713137,
  "nodes": [
    2994626167,
    2994626157,
    2994626158,
    5352271868,
    2994626172,
    2994626170,
    2994626178,
    2994626177,
    2994626169,
    2994626167
  ],
  "tags": {
    "addr:city": "Alcsútdoboz",
    "addr:country": "HU",
    "addr:postcode": "8087",
    "addr:street": "Arborétum",
    "building": "chapel",
    "name": "Kápolna",
    "note": "Nem működő kápolna. Kiállítás van csak benne.",
    "tourism": "museum"
  }
},
{
  "type": "way",
  "id": 302573007,
  "nodes": [
    3068220371,
    3068220372,
    3068220373,
    3068220374,
    3068220371
  ],
  "tags": {
    "building": "residential",
    "tourism": "museum"
  }
},
{
  "type": "way",
  "id": 311385218,
  "nodes": [
    3170217771,
    3170217772,
    3170217774,
    3170217775,
    3170217776,
    3170217773,
    3170217771
  ],
  "tags": {
    "addr:city": "Tardos",
    "addr:housenumber": "8",
    "addr:postcode": "2834",
    "addr:street": "Rákóczi Ferenc utca",
    "building": "yes",
    "name": "Rádió Múzeum",
    "operator": "Tarnóczy András",
    "tourism": "museum"
  }
},
{
  "type": "way",
  "id": 323931198,
  "nodes": [
    3307018993,
    3307018995,
    7055294669,
    7055294665,
    7055294668,
    7055294667,
    7055294666,
    7055294670,
    3307019008,
    3307019004,
    3307018993
  ],
  "tags": {
    "building": "public",
    "man_made": "tower",
    "name": "Helytörténeti Múzeum és Tűzoltótorony",
    "tourism": "museum"
  }
},
{
  "type": "way",
  "id": 323931202,
  "nodes": [
    3307019006,
    3307019003,
    3307018985,
    3307018987,
    3307019006
  ],
  "tags": {
    "building": "public",
    "name": "Vértes Múzeum",
    "tourism": "museum"
  }
},
{
  "type": "way",
  "id": 334048378,
  "nodes": [
    3411274712,
    3411274705,
    3411274700,
    3411274699,
    3411274707,
    3411274718,
    3411274714,
    3411274712
  ],
  "tags": {
    "barrier": "fence",
    "fence_type": "wood",
    "tourism": "museum"
  }
},
{
  "type": "way",
  "id": 338037301,
  "nodes": [
    3450979659,
    3450979658,
    3450979650,
    3450979651,
    3450979654,
    3450979655,
    3450979653,
    3450979648,
    3450979649,
    3450979656,
    3450979657,
    3450979659
  ],
  "tags": {
    "name": "Kocsi múzeum",
    "tourism": "museum",
    "wheelchair": "yes"
  }
},
{
  "type": "way",
  "id": 356278479,
  "nodes": [
    3617404336,
    3617404337,
    3617404339,
    3617404338,
    3617404336
  ],
  "tags": {
    "access": "yes",
    "addr:city": "Tata",
    "addr:country": "HU",
    "addr:housename": "Csillagda",
    "addr:housenumber": "50",
    "addr:postcode": "2890",
    "addr:street": "Eötvös József utca",
    "building": "yes",
    "building:levels": "2",
    "height": "9",
    "tourism": "museum"
  }
},
{
  "type": "way",
  "id": 361569194,
  "nodes": [
    3660223924,
    3660223922,
    3660223923,
    3660228825,
    3660223924
  ],
  "tags": {
    "building": "yes",
    "name": "Fazekas Emlékház",
    "tourism": "museum"
  }
},
{
  "type": "way",
  "id": 361569195,
  "nodes": [
    3660228829,
    3660228828,
    3660228826,
    3660228827,
    3660228829
  ],
  "tags": {
    "building": "yes",
    "name": "Geszner-ház",
    "tourism": "museum"
  }
},
{
  "type": "way",
  "id": 361576674,
  "nodes": [
    3660314136,
    3660314137,
    3660314142,
    3660314141,
    3660314136
  ],
  "tags": {
    "addr:city": "Újbarok",
    "addr:country": "HU",
    "addr:housenumber": "8",
    "addr:postcode": "2066",
    "addr:street": "Fő utca",
    "building": "yes",
    "name:de": "Ungarndeutsches Heimatmuseum",
    "tourism": "museum"
  }
},
{
  "type": "way",
  "id": 361583545,
  "nodes": [
    3660368276,
    3660368277,
    3660368279,
    3660368278,
    3660368276
  ],
  "tags": {
    "building": "yes",
    "name": "Német Nemzetiségi Tájház",
    "tourism": "museum"
  }
},
{
  "type": "way",
  "id": 361721617,
  "nodes": [
    3661649336,
    3661649337,
    3661649335,
    3661649334,
    3661649336
  ],
  "tags": {
    "building": "yes",
    "name": "Dr. Mészöly Gedeon emlékház",
    "tourism": "museum"
  }
},
{
  "type": "way",
  "id": 361721618,
  "nodes": [
    3661649346,
    3661649348,
    3661649349,
    3661649347,
    3661649346
  ],
  "tags": {
    "building": "yes",
    "name": "Helytörténeti Múzeum és Tájház",
    "tourism": "museum"
  }
},
{
  "type": "way",
  "id": 437049533,
  "nodes": [
    4348826132,
    4348826133,
    4348826134,
    4348826135,
    4349065341,
    4348826136,
    4368097661,
    4368097663,
    4348826132
  ],
  "tags": {
    "area": "yes",
    "tourism": "museum"
  }
},
{
  "type": "way",
  "id": 447917394,
  "nodes": [
    4449733529,
    4449733528,
    4449733526,
    4449733527,
    4449733529
  ],
  "tags": {
    "building": "public",
    "fixme": "survey building geometry, entrance, opening time; rebuilt @2016-09-30, satellite imagery is outdated!",
    "name": "Lábatlani Cementgyári Emlékház és Tudásközpont",
    "toilets:wheelchair": "no",
    "tourism": "museum",
    "wheelchair": "yes"
  }
},
{
  "type": "way",
  "id": 492837066,
  "nodes": [
    4848071824,
    4848071825,
    4848071826,
    4848071827,
    4848071828,
    4848071829,
    4848071824
  ],
  "tags": {
    "addr:postcode": "2890",
    "addr:street": "Kodály Zoltán tér",
    "building": "yes",
    "name": "Czégényi malom",
    "tourism": "museum"
  }
},
{
  "type": "way",
  "id": 633727960,
  "nodes": [
    5981904199,
    5981904198,
    5981904197,
    5981904196,
    5981904199
  ],
  "tags": {
    "building": "yes",
    "name": "Tájház",
    "tourism": "museum"
  }
},
{
  "type": "way",
  "id": 723109475,
  "nodes": [
    6782522663,
    6782522662,
    6782522661,
    6782522660,
    6782522659,
    6782522658,
    6782522657,
    6782522656,
    6782522655,
    6782522654,
    6782522653,
    6782522652,
    6782522651,
    6782522663
  ],
  "tags": {
    "access": "yes",
    "addr:city": "Tata",
    "addr:country": "HU",
    "addr:housename": "Csillagda",
    "addr:housenumber": "50",
    "addr:postcode": "2890",
    "addr:street": "Eötvös József utca",
    "building:part": "dome",
    "ele": "120",
    "fee": "no",
    "height": "10",
    "man_made": "telescope",
    "material": "metal",
    "name": "TIT Posztoczky Károly Csillagvizsgáló és Múzeum",
    "observatory:type": "astronomical",
    "opening_hours": "Fr 18:00-22:00",
    "operator": "TIT Komárom-Esztergom Megyei Egyesület",
    "roof:colour": "white",
    "roof:height": "13",
    "roof:shape": "dome",
    "telescope:type": "optical",
    "tourism": "museum",
    "url": "https://www.mcse.hu/helyi-csoportok/tata/",
    "website": "http://www.titkom.hu/tataicsillagda.html"
  }
},
{
  "type": "way",
  "id": 747459334,
  "nodes": [
    6993983105,
    6993983106,
    6993983107,
    6993983108,
    6993983105
  ],
  "tags": {
    "addr:city": "Dad",
    "addr:country": "HU",
    "addr:postcode": "2854",
    "addr:street": "Dózsa György út",
    "building": "house",
    "building:levels": "1",
    "name": "Tájház",
    "roof:colour": "#000000",
    "roof:material": "thatch",
    "roof:shape": "hipped",
    "tourism": "museum"
  }
},
{
  "type": "node",
  "id": 3411274699,
  "lat": 47.3543578,
  "lon": 18.3218437
},
{
  "type": "node",
  "id": 3411274700,
  "lat": 47.3544339,
  "lon": 18.3218220
},
{
  "type": "node",
  "id": 3411274705,
  "lat": 47.3545712,
  "lon": 18.3217827
},
{
  "type": "node",
  "id": 3411274707,
  "lat": 47.3545778,
  "lon": 18.3225558
},
{
  "type": "node",
  "id": 3411274712,
  "lat": 47.3548815,
  "lon": 18.3215499
},
{
  "type": "node",
  "id": 3411274714,
  "lat": 47.3550464,
  "lon": 18.3220630
},
{
  "type": "node",
  "id": 3411274718,
  "lat": 47.3550981,
  "lon": 18.3222157
},
{
  "type": "node",
  "id": 6993983105,
  "lat": 47.5159838,
  "lon": 18.2258734
},
{
  "type": "node",
  "id": 6993983106,
  "lat": 47.5159264,
  "lon": 18.2258139
},
{
  "type": "node",
  "id": 6993983107,
  "lat": 47.5158393,
  "lon": 18.2259980
},
{
  "type": "node",
  "id": 6993983108,
  "lat": 47.5158968,
  "lon": 18.2260576
},
{
  "type": "node",
  "id": 3450979648,
  "lat": 47.6095668,
  "lon": 18.2120191
},
{
  "type": "node",
  "id": 3450979649,
  "lat": 47.6095672,
  "lon": 18.2119572
},
{
  "type": "node",
  "id": 3450979650,
  "lat": 47.6095673,
  "lon": 18.2123342
},
{
  "type": "node",
  "id": 3450979651,
  "lat": 47.6095678,
  "lon": 18.2122616
},
{
  "type": "node",
  "id": 3450979653,
  "lat": 47.6095789,
  "lon": 18.2120193
},
{
  "type": "node",
  "id": 3450979654,
  "lat": 47.6095926,
  "lon": 18.2122619
},
{
  "type": "node",
  "id": 3450979655,
  "lat": 47.6095943,
  "lon": 18.2120195
},
{
  "type": "node",
  "id": 3450979656,
  "lat": 47.6095947,
  "lon": 18.2119576
},
{
  "type": "node",
  "id": 3450979657,
  "lat": 47.6095951,
  "lon": 18.2119116
},
{
  "type": "node",
  "id": 3450979658,
  "lat": 47.6096454,
  "lon": 18.2123354
},
{
  "type": "node",
  "id": 3450979659,
  "lat": 47.6096484,
  "lon": 18.2119124
},
{
  "type": "node",
  "id": 3068220371,
  "lat": 47.4974322,
  "lon": 18.3376178
},
{
  "type": "node",
  "id": 3068220372,
  "lat": 47.4973762,
  "lon": 18.3377203
},
{
  "type": "node",
  "id": 3068220373,
  "lat": 47.4973157,
  "lon": 18.3376479
},
{
  "type": "node",
  "id": 3068220374,
  "lat": 47.4973717,
  "lon": 18.3375453
},
{
  "type": "node",
  "id": 2506830079,
  "lat": 47.5620570,
  "lon": 18.3943612
},
{
  "type": "node",
  "id": 2506830080,
  "lat": 47.5619377,
  "lon": 18.3938222
},
{
  "type": "node",
  "id": 2506830081,
  "lat": 47.5614547,
  "lon": 18.3940696
},
{
  "type": "node",
  "id": 2506830082,
  "lat": 47.5615919,
  "lon": 18.3946351
},
{
  "type": "node",
  "id": 2506830083,
  "lat": 47.5621586,
  "lon": 18.3948068
},
{
  "type": "node",
  "id": 2506830084,
  "lat": 47.5619137,
  "lon": 18.3950917
},
{
  "type": "node",
  "id": 2506830085,
  "lat": 47.5617588,
  "lon": 18.3945468
},
{
  "type": "node",
  "id": 2506830086,
  "lat": 47.5605365,
  "lon": 18.3950151
},
{
  "type": "node",
  "id": 2506830087,
  "lat": 47.5604590,
  "lon": 18.3939194
},
{
  "type": "node",
  "id": 2506830088,
  "lat": 47.5602622,
  "lon": 18.3943082
},
{
  "type": "node",
  "id": 2506830089,
  "lat": 47.5603397,
  "lon": 18.3940696
},
{
  "type": "node",
  "id": 2506830090,
  "lat": 47.5603457,
  "lon": 18.3946528
},
{
  "type": "node",
  "id": 2506830091,
  "lat": 47.5613422,
  "lon": 18.3933422
},
{
  "type": "node",
  "id": 3148318053,
  "lat": 47.5621406,
  "lon": 18.3949213
},
{
  "type": "node",
  "id": 2370919920,
  "lat": 47.5749311,
  "lon": 18.3835127
},
{
  "type": "node",
  "id": 2370919922,
  "lat": 47.5749765,
  "lon": 18.3836077
},
{
  "type": "node",
  "id": 2370919925,
  "lat": 47.5751486,
  "lon": 18.3834412
},
{
  "type": "node",
  "id": 2370919935,
  "lat": 47.5750963,
  "lon": 18.3833572
},
{
  "type": "node",
  "id": 2370919938,
  "lat": 47.5750539,
  "lon": 18.3837340
},
{
  "type": "node",
  "id": 2370919940,
  "lat": 47.5751109,
  "lon": 18.3836560
},
{
  "type": "node",
  "id": 2370919941,
  "lat": 47.5750993,
  "lon": 18.3835084
},
{
  "type": "node",
  "id": 2370919942,
  "lat": 47.5751127,
  "lon": 18.3835298
},
{
  "type": "node",
  "id": 2370919945,
  "lat": 47.5750693,
  "lon": 18.3835891
},
{
  "type": "node",
  "id": 2805078721,
  "lat": 47.6719239,
  "lon": 18.1827717
},
{
  "type": "node",
  "id": 2805078729,
  "lat": 47.6719829,
  "lon": 18.1827014
},
{
  "type": "node",
  "id": 2805078733,
  "lat": 47.6720164,
  "lon": 18.1829430
},
{
  "type": "node",
  "id": 2805078737,
  "lat": 47.6720333,
  "lon": 18.1829228
},
{
  "type": "node",
  "id": 2805078743,
  "lat": 47.6720841,
  "lon": 18.1830167
},
{
  "type": "node",
  "id": 2805078748,
  "lat": 47.6721262,
  "lon": 18.1829665
},
{
  "type": "node",
  "id": 852595509,
  "lat": 47.7495544,
  "lon": 18.2233246
},
{
  "type": "node",
  "id": 852595510,
  "lat": 47.7496199,
  "lon": 18.2233618
},
{
  "type": "node",
  "id": 852595513,
  "lat": 47.7496041,
  "lon": 18.2234220
},
{
  "type": "node",
  "id": 852595515,
  "lat": 47.7495353,
  "lon": 18.2233838
},
{
  "type": "node",
  "id": 852595516,
  "lat": 47.7494941,
  "lon": 18.2235460
},
{
  "type": "node",
  "id": 852595518,
  "lat": 47.7494754,
  "lon": 18.2235360
},
{
  "type": "node",
  "id": 852595520,
  "lat": 47.7494551,
  "lon": 18.2236138
},
{
  "type": "node",
  "id": 852595521,
  "lat": 47.7493711,
  "lon": 18.2235657
},
{
  "type": "node",
  "id": 852595523,
  "lat": 47.7494483,
  "lon": 18.2232649
},
{
  "type": "node",
  "id": 1978459005,
  "lat": 47.6371626,
  "lon": 18.3167999
},
{
  "type": "node",
  "id": 1978459009,
  "lat": 47.6375603,
  "lon": 18.3155599
},
{
  "type": "node",
  "id": 1978459013,
  "lat": 47.6378444,
  "lon": 18.3158029
},
{
  "type": "node",
  "id": 1978459018,
  "lat": 47.6380814,
  "lon": 18.3156439
},
{
  "type": "node",
  "id": 1978459026,
  "lat": 47.6384468,
  "lon": 18.3156270
},
{
  "type": "node",
  "id": 1978459092,
  "lat": 47.6390844,
  "lon": 18.3170926
},
{
  "type": "node",
  "id": 6689487078,
  "lat": 47.6387675,
  "lon": 18.3157271
},
{
  "type": "node",
  "id": 6697209075,
  "lat": 47.6389426,
  "lon": 18.3164818
},
{
  "type": "node",
  "id": 1978459021,
  "lat": 47.6385095,
  "lon": 18.3188386
},
{
  "type": "node",
  "id": 1978459083,
  "lat": 47.6390510,
  "lon": 18.3175886
},
{
  "type": "node",
  "id": 3617404336,
  "lat": 47.6406425,
  "lon": 18.3195613
},
{
  "type": "node",
  "id": 3617404337,
  "lat": 47.6406425,
  "lon": 18.3196966
},
{
  "type": "node",
  "id": 3617404338,
  "lat": 47.6407792,
  "lon": 18.3195613
},
{
  "type": "node",
  "id": 3617404339,
  "lat": 47.6407792,
  "lon": 18.3196966
},
{
  "type": "node",
  "id": 6782522651,
  "lat": 47.6406663,
  "lon": 18.3196145
},
{
  "type": "node",
  "id": 6782522652,
  "lat": 47.6406729,
  "lon": 18.3196005
},
{
  "type": "node",
  "id": 6782522653,
  "lat": 47.6406832,
  "lon": 18.3195927
},
{
  "type": "node",
  "id": 6782522654,
  "lat": 47.6406948,
  "lon": 18.3195929
},
{
  "type": "node",
  "id": 6782522655,
  "lat": 47.6407050,
  "lon": 18.3196010
},
{
  "type": "node",
  "id": 6782522656,
  "lat": 47.6407115,
  "lon": 18.3196152
},
{
  "type": "node",
  "id": 6782522657,
  "lat": 47.6407127,
  "lon": 18.3196323
},
{
  "type": "node",
  "id": 6782522658,
  "lat": 47.6407085,
  "lon": 18.3196483
},
{
  "type": "node",
  "id": 6782522659,
  "lat": 47.6406998,
  "lon": 18.3196595
},
{
  "type": "node",
  "id": 6782522660,
  "lat": 47.6406885,
  "lon": 18.3196634
},
{
  "type": "node",
  "id": 6782522661,
  "lat": 47.6406773,
  "lon": 18.3196592
},
{
  "type": "node",
  "id": 6782522662,
  "lat": 47.6406688,
  "lon": 18.3196477
},
{
  "type": "node",
  "id": 6782522663,
  "lat": 47.6406648,
  "lon": 18.3196315
},
{
  "type": "node",
  "id": 1209788338,
  "lat": 47.6488780,
  "lon": 18.3193655
},
{
  "type": "node",
  "id": 1209788392,
  "lat": 47.6489663,
  "lon": 18.3194074
},
{
  "type": "node",
  "id": 1209788426,
  "lat": 47.6486125,
  "lon": 18.3193354
},
{
  "type": "node",
  "id": 1209788495,
  "lat": 47.6488976,
  "lon": 18.3193281
},
{
  "type": "node",
  "id": 1209788592,
  "lat": 47.6487027,
  "lon": 18.3191632
},
{
  "type": "node",
  "id": 1209788676,
  "lat": 47.6488588,
  "lon": 18.3196127
},
{
  "type": "node",
  "id": 2508130985,
  "lat": 47.6485958,
  "lon": 18.3191554
},
{
  "type": "node",
  "id": 2508130993,
  "lat": 47.6486538,
  "lon": 18.3193830
},
{
  "type": "node",
  "id": 2508130997,
  "lat": 47.6486650,
  "lon": 18.3192353
},
{
  "type": "node",
  "id": 2508130999,
  "lat": 47.6486708,
  "lon": 18.3193504
},
{
  "type": "node",
  "id": 2508131004,
  "lat": 47.6486751,
  "lon": 18.3190038
},
{
  "type": "node",
  "id": 2508131006,
  "lat": 47.6487444,
  "lon": 18.3190837
},
{
  "type": "node",
  "id": 2508131010,
  "lat": 47.6487883,
  "lon": 18.3195313
},
{
  "type": "node",
  "id": 2508131012,
  "lat": 47.6488031,
  "lon": 18.3195031
},
{
  "type": "node",
  "id": 2508131034,
  "lat": 47.6489122,
  "lon": 18.3195107
},
{
  "type": "node",
  "id": 4848071824,
  "lat": 47.6481983,
  "lon": 18.3274631
},
{
  "type": "node",
  "id": 4848071825,
  "lat": 47.6482424,
  "lon": 18.3273549
},
{
  "type": "node",
  "id": 4848071826,
  "lat": 47.6482610,
  "lon": 18.3272448
},
{
  "type": "node",
  "id": 4848071827,
  "lat": 47.6481370,
  "lon": 18.3271335
},
{
  "type": "node",
  "id": 4848071828,
  "lat": 47.6480551,
  "lon": 18.3273345
},
{
  "type": "node",
  "id": 4848071829,
  "lat": 47.6481215,
  "lon": 18.3273941
},
{
  "type": "node",
  "id": 3170217771,
  "lat": 47.6633250,
  "lon": 18.4489919
},
{
  "type": "node",
  "id": 3170217772,
  "lat": 47.6634045,
  "lon": 18.4490980
},
{
  "type": "node",
  "id": 3170217773,
  "lat": 47.6634253,
  "lon": 18.4488260
},
{
  "type": "node",
  "id": 3170217774,
  "lat": 47.6634583,
  "lon": 18.4490092
},
{
  "type": "node",
  "id": 3170217775,
  "lat": 47.6635170,
  "lon": 18.4490875
},
{
  "type": "node",
  "id": 3170217776,
  "lat": 47.6635636,
  "lon": 18.4490104
},
{
  "type": "node",
  "id": 5981904196,
  "lat": 47.7047397,
  "lon": 18.3815590
},
{
  "type": "node",
  "id": 5981904197,
  "lat": 47.7046842,
  "lon": 18.3815789
},
{
  "type": "node",
  "id": 5981904198,
  "lat": 47.7046506,
  "lon": 18.3813717
},
{
  "type": "node",
  "id": 5981904199,
  "lat": 47.7047061,
  "lon": 18.3813519
},
{
  "type": "node",
  "id": 851429908,
  "lat": 47.8098123,
  "lon": 18.4417468
},
{
  "type": "node",
  "id": 851429909,
  "lat": 47.8098529,
  "lon": 18.4418260
},
{
  "type": "node",
  "id": 851429903,
  "lat": 47.8095398,
  "lon": 18.4421767
},
{
  "type": "node",
  "id": 851429904,
  "lat": 47.8094965,
  "lon": 18.4421089
},
{
  "type": "node",
  "id": 3660223922,
  "lat": 47.3913085,
  "lon": 18.4577157
},
{
  "type": "node",
  "id": 3660223923,
  "lat": 47.3913502,
  "lon": 18.4577841
},
{
  "type": "node",
  "id": 3660223924,
  "lat": 47.3914375,
  "lon": 18.4575442
},
{
  "type": "node",
  "id": 3660228825,
  "lat": 47.3914792,
  "lon": 18.4576126
},
{
  "type": "node",
  "id": 3307018985,
  "lat": 47.3918744,
  "lon": 18.4657484
},
{
  "type": "node",
  "id": 3307018987,
  "lat": 47.3919140,
  "lon": 18.4656614
},
{
  "type": "node",
  "id": 3307018993,
  "lat": 47.3919657,
  "lon": 18.4661481
},
{
  "type": "node",
  "id": 3307018995,
  "lat": 47.3920118,
  "lon": 18.4660660
},
{
  "type": "node",
  "id": 3307019003,
  "lat": 47.3921612,
  "lon": 18.4660318
},
{
  "type": "node",
  "id": 3307019004,
  "lat": 47.3921752,
  "lon": 18.4664030
},
{
  "type": "node",
  "id": 3307019006,
  "lat": 47.3922008,
  "lon": 18.4659449
},
{
  "type": "node",
  "id": 3307019008,
  "lat": 47.3922213,
  "lon": 18.4663209
},
{
  "type": "node",
  "id": 7055294665,
  "lat": 47.3920625,
  "lon": 18.4660443
},
{
  "type": "node",
  "id": 7055294666,
  "lat": 47.3921572,
  "lon": 18.4661171
},
{
  "type": "node",
  "id": 7055294667,
  "lat": 47.3921309,
  "lon": 18.4660850
},
{
  "type": "node",
  "id": 7055294668,
  "lat": 47.3921168,
  "lon": 18.4661103
},
{
  "type": "node",
  "id": 7055294669,
  "lat": 47.3920348,
  "lon": 18.4660939
},
{
  "type": "node",
  "id": 7055294670,
  "lat": 47.3921154,
  "lon": 18.4661920
},
{
  "type": "node",
  "id": 3660228826,
  "lat": 47.3933504,
  "lon": 18.4849521
},
{
  "type": "node",
  "id": 3660228827,
  "lat": 47.3934243,
  "lon": 18.4848603
},
{
  "type": "node",
  "id": 3660228828,
  "lat": 47.3934530,
  "lon": 18.4851321
},
{
  "type": "node",
  "id": 3660228829,
  "lat": 47.3935268,
  "lon": 18.4850403
},
{
  "type": "node",
  "id": 3661649334,
  "lat": 47.4034613,
  "lon": 18.6293092
},
{
  "type": "node",
  "id": 3661649335,
  "lat": 47.4035488,
  "lon": 18.6294347
},
{
  "type": "node",
  "id": 3661649336,
  "lat": 47.4035888,
  "lon": 18.6291151
},
{
  "type": "node",
  "id": 3661649337,
  "lat": 47.4036763,
  "lon": 18.6292406
},
{
  "type": "node",
  "id": 3661649346,
  "lat": 47.4053693,
  "lon": 18.6279734
},
{
  "type": "node",
  "id": 3661649347,
  "lat": 47.4054258,
  "lon": 18.6279055
},
{
  "type": "node",
  "id": 3661649348,
  "lat": 47.4054594,
  "lon": 18.6281370
},
{
  "type": "node",
  "id": 3661649349,
  "lat": 47.4055159,
  "lon": 18.6280691
},
{
  "type": "node",
  "id": 3660368276,
  "lat": 47.4289317,
  "lon": 18.5220356
},
{
  "type": "node",
  "id": 3660368277,
  "lat": 47.4289683,
  "lon": 18.5219562
},
{
  "type": "node",
  "id": 3660368278,
  "lat": 47.4290936,
  "lon": 18.5221991
},
{
  "type": "node",
  "id": 3660368279,
  "lat": 47.4291303,
  "lon": 18.5221198
},
{
  "type": "node",
  "id": 3660314136,
  "lat": 47.4786553,
  "lon": 18.5526992
},
{
  "type": "node",
  "id": 3660314137,
  "lat": 47.4786776,
  "lon": 18.5527692
},
{
  "type": "node",
  "id": 3660314141,
  "lat": 47.4788153,
  "lon": 18.5525873
},
{
  "type": "node",
  "id": 3660314142,
  "lat": 47.4788377,
  "lon": 18.5526573
},
{
  "type": "node",
  "id": 2994626157,
  "lat": 47.4237657,
  "lon": 18.5889076
},
{
  "type": "node",
  "id": 2994626158,
  "lat": 47.4237803,
  "lon": 18.5893271
},
{
  "type": "node",
  "id": 2994626167,
  "lat": 47.4238747,
  "lon": 18.5888993
},
{
  "type": "node",
  "id": 2994626169,
  "lat": 47.4238790,
  "lon": 18.5890206
},
{
  "type": "node",
  "id": 2994626170,
  "lat": 47.4238843,
  "lon": 18.5891167
},
{
  "type": "node",
  "id": 2994626172,
  "lat": 47.4238913,
  "lon": 18.5893186
},
{
  "type": "node",
  "id": 2994626177,
  "lat": 47.4239274,
  "lon": 18.5890169
},
{
  "type": "node",
  "id": 2994626178,
  "lat": 47.4239308,
  "lon": 18.5891131
},
{
  "type": "node",
  "id": 5352271868,
  "lat": 47.4238609,
  "lon": 18.5893209
},
{
  "type": "node",
  "id": 654230559,
  "lat": 47.5494881,
  "lon": 18.7144113
},
{
  "type": "node",
  "id": 654230561,
  "lat": 47.5494586,
  "lon": 18.7144514
},
{
  "type": "node",
  "id": 654230563,
  "lat": 47.5493052,
  "lon": 18.7144502
},
{
  "type": "node",
  "id": 654230564,
  "lat": 47.5493635,
  "lon": 18.7143700
},
{
  "type": "node",
  "id": 654230567,
  "lat": 47.5493265,
  "lon": 18.7143214
},
{
  "type": "node",
  "id": 654230570,
  "lat": 47.5493585,
  "lon": 18.7142740
},
{
  "type": "node",
  "id": 654230572,
  "lat": 47.5493930,
  "lon": 18.7143275
},
{
  "type": "node",
  "id": 654230574,
  "lat": 47.5494430,
  "lon": 18.7142497
},
{
  "type": "node",
  "id": 654230577,
  "lat": 47.5493856,
  "lon": 18.7141646
},
{
  "type": "node",
  "id": 654230580,
  "lat": 47.5494406,
  "lon": 18.7140832
},
{
  "type": "node",
  "id": 654230581,
  "lat": 47.5494922,
  "lon": 18.7141610
},
{
  "type": "node",
  "id": 654230584,
  "lat": 47.5494931,
  "lon": 18.7141913
},
{
  "type": "node",
  "id": 654230925,
  "lat": 47.5496013,
  "lon": 18.7140042
},
{
  "type": "node",
  "id": 654230928,
  "lat": 47.5496095,
  "lon": 18.7140212
},
{
  "type": "node",
  "id": 654230931,
  "lat": 47.5496046,
  "lon": 18.7143591
},
{
  "type": "node",
  "id": 654230933,
  "lat": 47.5496424,
  "lon": 18.7143056
},
{
  "type": "node",
  "id": 654230938,
  "lat": 47.5496260,
  "lon": 18.7143919
},
{
  "type": "node",
  "id": 654230940,
  "lat": 47.5495718,
  "lon": 18.7145790
},
{
  "type": "node",
  "id": 654230943,
  "lat": 47.5495874,
  "lon": 18.7145584
},
{
  "type": "node",
  "id": 654230946,
  "lat": 47.5496054,
  "lon": 18.7146398
},
{
  "type": "node",
  "id": 654230922,
  "lat": 47.5496965,
  "lon": 18.7145085
},
{
  "type": "node",
  "id": 654230935,
  "lat": 47.5496629,
  "lon": 18.7143384
},
{
  "type": "node",
  "id": 654230973,
  "lat": 47.5497334,
  "lon": 18.7145450
},
{
  "type": "node",
  "id": 654230975,
  "lat": 47.5497285,
  "lon": 18.7145547
},
{
  "type": "node",
  "id": 4348826133,
  "lat": 47.5562900,
  "lon": 18.7038974
},
{
  "type": "node",
  "id": 4348826134,
  "lat": 47.5569700,
  "lon": 18.7032100
},
{
  "type": "node",
  "id": 4348826135,
  "lat": 47.5570343,
  "lon": 18.7026542
},
{
  "type": "node",
  "id": 4348826136,
  "lat": 47.5580893,
  "lon": 18.7035505
},
{
  "type": "node",
  "id": 4349065341,
  "lat": 47.5576597,
  "lon": 18.7030364
},
{
  "type": "node",
  "id": 4348826132,
  "lat": 47.5564253,
  "lon": 18.7047622
},
{
  "type": "node",
  "id": 4368097661,
  "lat": 47.5576503,
  "lon": 18.7048097
},
{
  "type": "node",
  "id": 4368097663,
  "lat": 47.5572236,
  "lon": 18.7043431
},
{
  "type": "node",
  "id": 1606838046,
  "lat": 47.6255581,
  "lon": 18.4580209
},
{
  "type": "node",
  "id": 1606838120,
  "lat": 47.6255199,
  "lon": 18.4580703
},
{
  "type": "node",
  "id": 1606838202,
  "lat": 47.6256813,
  "lon": 18.4583455
},
{
  "type": "node",
  "id": 1606838299,
  "lat": 47.6257196,
  "lon": 18.4582961
},
{
  "type": "node",
  "id": 4449733526,
  "lat": 47.7498533,
  "lon": 18.4838633
},
{
  "type": "node",
  "id": 4449733527,
  "lat": 47.7498939,
  "lon": 18.4836689
},
{
  "type": "node",
  "id": 4449733528,
  "lat": 47.7500904,
  "lon": 18.4839773
},
{
  "type": "node",
  "id": 4449733529,
  "lat": 47.7501247,
  "lon": 18.4837721
}

  ]
}
