{
  "version": 0.6,
  "generator": "Overpass API 0.7.55.9 ab41fea6",
  "osm3s": {
    "timestamp_osm_base": "2020-02-14T14:19:02Z",
    "copyright": "The data included in this document is from www.openstreetmap.org. The data is made available under ODbL."
  },
  "elements": [

{
  "type": "node",
  "id": 34050780,
  "lat": 52.6350804,
  "lon": 5.0624231,
  "tags": {
    "addr:city": "Hoorn",
    "addr:country": "NL",
    "addr:housenumber": "24",
    "addr:postcode": "1621DG",
    "addr:street": "Krententuin",
    "fee": "MJK_free",
    "name": "Museum van de Twintigste Eeuw",
    "note": "Oude gevangenis de \"Krententuin\"",
    "opening_hours": "Mo-Fr 10:00-17:00",
    "source": "BAG;local knowledge",
    "source:date": "2014-03-24",
    "tourism": "museum",
    "website": "https://www.museumhoorn.nl/"
  }
},
{
  "type": "node",
  "id": 34050805,
  "lat": 52.4949006,
  "lon": 5.0706758,
  "tags": {
    "name": "Volendams Museum",
    "tourism": "museum"
  }
},
{
  "type": "node",
  "id": 34050807,
  "lat": 52.7005212,
  "lon": 5.2923838,
  "tags": {
    "name": "Enkhuizer Almanak Museum",
    "tourism": "museum"
  }
},
{
  "type": "node",
  "id": 304871386,
  "lat": 52.5213228,
  "lon": 5.4369754,
  "tags": {
    "name": "Nieuw Land Erfgoedcentrum",
    "tourism": "museum"
  }
},
{
  "type": "node",
  "id": 391465800,
  "lat": 52.7285295,
  "lon": 4.9336506,
  "tags": {
    "name": "Museum boerderij West-Frisia",
    "tourism": "museum"
  }
},
{
  "type": "node",
  "id": 512549708,
  "lat": 52.6614575,
  "lon": 5.5960337,
  "tags": {
    "name": "Museum 't Raadhuis",
    "tourism": "museum",
    "wikidata": "Q17590487",
    "wikipedia": "nl:Raadhuis van Urk"
  }
},
{
  "type": "node",
  "id": 521303498,
  "lat": 52.7739594,
  "lon": 5.1057194,
  "tags": {
    "name": "Station Medemblik",
    "tourism": "museum",
    "wikidata": "Q2651896",
    "wikipedia": "nl:Station Medemblik"
  }
},
{
  "type": "node",
  "id": 521303909,
  "lat": 52.7732977,
  "lon": 5.1061207,
  "tags": {
    "addr:city": "Medemblik",
    "addr:housenumber": "8",
    "addr:postcode": "1671BD",
    "addr:street": "Nieuwstraat",
    "contact:phone": "+31 (0) 227 545014",
    "email": "info@deoudebakkerij.nl",
    "fee": "MJK_free",
    "name": "Bakkerijmuseum De Oude Bakkerij",
    "opening_hours": "Feb 16-Jan 05 Tu-Su 11:00-17:00",
    "tourism": "museum",
    "website": "http://deoudebakkerij.nl/",
    "wheelchair": "limited",
    "wikidata": "Q4928268",
    "wikipedia": "nl:De Oude Bakkerij"
  }
},
{
  "type": "node",
  "id": 672639047,
  "lat": 52.5100445,
  "lon": 4.9464451,
  "tags": {
    "name": "Purmerends Museum",
    "tourism": "museum",
    "wikidata": "Q3903665"
  }
},
{
  "type": "node",
  "id": 672639048,
  "lat": 52.5098094,
  "lon": 4.9467348,
  "tags": {
    "name": "Museum Waterland",
    "tourism": "museum"
  }
},
{
  "type": "node",
  "id": 697931400,
  "lat": 52.5123949,
  "lon": 5.0494418,
  "tags": {
    "addr:city": "Edam",
    "addr:country": "NL",
    "addr:housenumber": "1",
    "addr:postcode": "1135BK",
    "addr:street": "Damplein",
    "name": "Edams Museum (Raadhuis)",
    "tourism": "museum",
    "website": "http://www.edamsmuseum.nl"
  }
},
{
  "type": "node",
  "id": 703701756,
  "lat": 52.5902148,
  "lon": 4.8514220,
  "tags": {
    "name": "Nic Jonk",
    "tourism": "museum",
    "wheelchair": "limited"
  }
},
{
  "type": "node",
  "id": 931756072,
  "lat": 52.7046268,
  "lon": 5.0959871,
  "tags": {
    "addr:housenumber": "48",
    "addr:postcode": "1691EH",
    "addr:street": "Hauwert",
    "description": "Naast een uitgebreide verzameling politiepetten en uniformen zult u veel dingen zien die u aan uw ouderlijk huis zullen herinneren of aan het huis van uw grootouders.",
    "name": "'t Achterwurft",
    "tourism": "museum",
    "website": "http://www.info123.nl/museumachterwurft/"
  }
},
{
  "type": "node",
  "id": 1453686699,
  "lat": 52.7008453,
  "lon": 5.2938739,
  "tags": {
    "fee": "MJK_free",
    "name": "Flessenscheepjesmuseum",
    "name:en": "Bottle Ship Museum",
    "tourism": "museum"
  }
},
{
  "type": "node",
  "id": 1453686701,
  "lat": 52.7037229,
  "lon": 5.2971676,
  "tags": {
    "name": "Zuiderzeemuseum - binnen",
    "tourism": "museum"
  }
},
{
  "type": "node",
  "id": 1453686704,
  "lat": 52.7041455,
  "lon": 5.2953116,
  "tags": {
    "name": "Stadsgevangenis",
    "tourism": "museum"
  }
},
{
  "type": "node",
  "id": 1791497801,
  "lat": 52.4593824,
  "lon": 5.0357535,
  "tags": {
    "name": "Waterlands museum De Speeltoren",
    "opening_hours": "Sa-Su 11:00-17:00; Mo-Su 11:00-17:00 \"School holidays\"",
    "tourism": "museum",
    "wikidata": "Q2552619"
  }
},
{
  "type": "node",
  "id": 1855239360,
  "lat": 52.9433219,
  "lon": 5.3986723,
  "tags": {
    "addr:city": "Hindeloopen",
    "addr:country": "NL",
    "addr:housenumber": "1",
    "addr:postcode": "8713KD",
    "addr:street": "Dijkweg",
    "contact:website": "http://www.museumhindeloopen.nl",
    "fee": "MJK_free",
    "name": "Museum Hindeloopen",
    "opening_hours": "Mo-Fr 11:00-17:00; Sa,Su,PH 13:30-17:00; Nov 02-Mar 29 off",
    "phone": "+31 514 521420",
    "source": "BAG",
    "source:date": "2014-07-16",
    "tourism": "museum",
    "wikidata": "Q141355",
    "wikipedia": "nl:Museum Hindeloopen"
  }
},
{
  "type": "node",
  "id": 2119570378,
  "lat": 52.9418298,
  "lon": 5.4007083,
  "tags": {
    "addr:city": "Hindeloopen",
    "addr:housenumber": "1",
    "addr:postcode": "8713KZ",
    "addr:street": "Kleine Weide",
    "name": "Het eerste Friese schaatsmuseum",
    "name:en": "First Frisian Skating Museum",
    "opening_hours": "Mo-Sa 10:00-18:00, Su 13:00-17:00",
    "phone": "0514 521683",
    "source": "http://www.schaatsmuseum.nl/home/;BAG",
    "source:date": "2014-07-16",
    "tourism": "museum",
    "website": "http://www.schaatsmuseum.nl/home/",
    "wheelchair": "yes",
    "wikidata": "Q2436390",
    "wikipedia": "nl:Eerste Friese Schaatsmuseum"
  }
},
{
  "type": "node",
  "id": 2274876785,
  "lat": 52.4578755,
  "lon": 5.1009152,
  "tags": {
    "name": "Kijkhuis Sijtje Boes",
    "tourism": "museum"
  }
},
{
  "type": "node",
  "id": 2508857765,
  "lat": 52.7245906,
  "lon": 4.8274627,
  "tags": {
    "name": "het Molenhuis",
    "tourism": "museum"
  }
},
{
  "type": "node",
  "id": 2715852469,
  "lat": 52.6345714,
  "lon": 5.7776328,
  "tags": {
    "addr:city": "Schokland",
    "addr:housenumber": "3",
    "addr:postcode": "8319AB",
    "addr:street": "Middelbuurt",
    "fee": "MJK_free",
    "name": "Museum Schokland",
    "opening_hours": "Nov-Mar Fr-Su 11:00-17:00; Apr-Jun,Sep-Oct Tu-Su 11:00-17:00; Jul-Aug 10:00-17:00; Dec 25 off; Jan 01 off",
    "source": "BAG",
    "source:date": "2014-02-11",
    "tourism": "museum",
    "website": "https://www.museumschokland.nl/",
    "wheelchair": "limited",
    "wikidata": "Q20962412",
    "wikipedia": "nl:Museum Schokland"
  }
},
{
  "type": "node",
  "id": 2752117188,
  "lat": 52.7942178,
  "lon": 4.8929261,
  "tags": {
    "addr:city": "Kolhorn",
    "addr:housenumber": "66c",
    "addr:postcode": "1767CS",
    "addr:street": "Westfriesedijk",
    "name": "De Turfschuur",
    "source": "BAG",
    "source:date": "2014-03-24",
    "tourism": "museum"
  }
},
{
  "type": "node",
  "id": 2784904542,
  "lat": 52.7856787,
  "lon": 4.7943540,
  "tags": {
    "addr:city": "Schagen",
    "addr:housenumber": "14",
    "addr:postcode": "1741BP",
    "addr:street": "Loet",
    "name": "Boerderij- en Rijtuigmuseum Vreeburg",
    "phone": "+31224216906",
    "source": "BAG",
    "source:date": "2014-03-24",
    "tourism": "museum",
    "website": "http://www.museumvreeburg.nl"
  }
},
{
  "type": "node",
  "id": 2785319348,
  "lat": 52.6456327,
  "lon": 5.0545146,
  "tags": {
    "addr:city": "Hoorn",
    "addr:housenumber": "8",
    "addr:postcode": "1624NN",
    "addr:street": "Van Dedemstraat",
    "name": "Museumstoomtram Hoorn-Medemblik",
    "operator": "Stichting Museumstoomtram Hoorn-Medemblik",
    "operator:type": "private",
    "phone": "+31 229 255 255",
    "source": "BAG",
    "source:date": "2014-03-24",
    "tourism": "museum",
    "website": "https://www.stoomtram.nl/"
  }
},
{
  "type": "node",
  "id": 2791243419,
  "lat": 52.6391276,
  "lon": 5.0589695,
  "tags": {
    "addr:city": "Hoorn",
    "addr:housenumber": "1",
    "addr:postcode": "1621CV",
    "addr:street": "Roode Steen",
    "description": "Regionaal historisch museum",
    "description:en": "Museum of regional history",
    "email": "info@wfm.nl",
    "fee": "MJK_free",
    "name": "Westfries Museum",
    "opening_hours": "Mo-Fr 11:00-17:00; Sa,Su 13:00-17:00",
    "phone": "+31229280028",
    "source": "BAG",
    "source:date": "2014-03-24",
    "toilets:wheelchair": "no",
    "tourism": "museum",
    "wheelchair": "limited",
    "wikidata": "Q2382575",
    "wikipedia": "nl:Westfries Museum"
  }
},
{
  "type": "node",
  "id": 2811200367,
  "lat": 52.7459325,
  "lon": 5.2340656,
  "tags": {
    "addr:city": "Andijk",
    "addr:housenumber": "11",
    "addr:postcode": "1619BP",
    "addr:street": "Hornpad",
    "name": "Hoedenmuseum \"Zet 'm Op\"",
    "source": "BAG",
    "source:date": "2014-03-24",
    "tourism": "museum",
    "website": "http://www.hoedenmuseum.nl/index.htm"
  }
},
{
  "type": "node",
  "id": 2811372940,
  "lat": 52.7456992,
  "lon": 5.1859816,
  "tags": {
    "addr:city": "Andijk",
    "addr:housenumber": "319",
    "addr:postcode": "1619JH",
    "addr:street": "Dijkweg",
    "name": "Poldermuseum",
    "source": "BAG",
    "source:date": "2014-03-24",
    "tourism": "museum",
    "website": "http://www.poldermuseum.nl/"
  }
},
{
  "type": "node",
  "id": 2817647207,
  "lat": 52.7599603,
  "lon": 5.1177142,
  "tags": {
    "addr:city": "Medemblik",
    "addr:housenumber": "4",
    "addr:postcode": "1671HJ",
    "addr:street": "Oosterdijk",
    "fee": "MJK_free",
    "name": "Nederlands Stoommachinemuseum",
    "opening_hours": "Tu-Su 10:00-17:00; SH Mo-Su 10:00-17:00",
    "source": "BAG",
    "source:date": "2014-03-24",
    "tourism": "museum",
    "website": "http://stoommachinemuseum.nl/",
    "wikidata": "Q19580584"
  }
},
{
  "type": "node",
  "id": 2817947788,
  "lat": 52.7724319,
  "lon": 5.1131257,
  "tags": {
    "addr:city": "Medemblik",
    "addr:housenumber": "8",
    "addr:postcode": "1671HM",
    "addr:street": "Oudevaartsgat",
    "contact:email": "info@kasteelradboud.nl",
    "contact:phone": "+31 (0)227 541960",
    "fee": "MJK_free",
    "name": "Kasteel Radboud",
    "opening_hours": "Tu-Su 09:00-17:00",
    "source": "BAG",
    "source:date": "2014-03-24",
    "tourism": "museum",
    "website": "https://www.kasteelradboud.nl/",
    "wikidata": "Q1013565",
    "wikipedia": "nl:Kasteel Radboud"
  }
},
{
  "type": "node",
  "id": 2817950330,
  "lat": 52.7738469,
  "lon": 5.1062778,
  "tags": {
    "addr:city": "Medemblik",
    "addr:housenumber": "4",
    "addr:postcode": "1671AW",
    "addr:street": "Dam",
    "level": "1",
    "name": "Stadsmuseum Medemblik",
    "opening_hours": "\"see websites\"",
    "operator": "Oudheidkundige Vereniging Medenblick",
    "source": "BAG",
    "source:date": "2014-03-24",
    "tourism": "museum",
    "website": "http://www.okv-medenblick.nl",
    "wheelchair": "limited"
  }
},
{
  "type": "node",
  "id": 2840785992,
  "lat": 52.5126500,
  "lon": 5.0490749,
  "tags": {
    "addr:city": "Edam",
    "addr:country": "NL",
    "addr:housenumber": "8",
    "addr:postcode": "1135BK",
    "addr:street": "Damplein",
    "email": "info@edamsmuseum.nl",
    "museum": "local",
    "name": "Edams Museum",
    "phone": "+31299 372644",
    "source": "BAG",
    "source:date": "2014-03-24",
    "tourism": "museum",
    "website": "http://www.edamsmuseum.nl"
  }
},
{
  "type": "node",
  "id": 2866816477,
  "lat": 52.4604567,
  "lon": 5.1063396,
  "tags": {
    "addr:city": "Marken",
    "addr:housenumber": "34",
    "addr:postcode": "1156BL",
    "addr:street": "Kerkbuurt",
    "name": "Marker Museum",
    "source": "BAG",
    "source:date": "2014-05-07",
    "tourism": "museum",
    "website": "www.markermuseum.nl",
    "wikidata": "Q20745706"
  }
},
{
  "type": "node",
  "id": 2880246787,
  "lat": 52.5593118,
  "lon": 4.8532007,
  "tags": {
    "addr:city": "De Rijp",
    "addr:housenumber": "13",
    "addr:postcode": "1483AP",
    "addr:street": "Tuingracht",
    "fee": "MJK_free",
    "name": "Museum In 't Houten Huis",
    "opening_hours": "Jun-Aug Tu-Su 11:00-17:00; Sep 01-Oct 15 Tu-Su 13:00-17:00; Oct 15-Apr 15 Su 13:00-17:00; Apr 15-May 31 Tu-Su 13:00-17:00",
    "source": "BAG",
    "source:date": "2014-05-25",
    "tourism": "museum",
    "wikidata": "Q15879541"
  }
},
{
  "type": "node",
  "id": 2904339814,
  "lat": 52.8445225,
  "lon": 5.7117879,
  "tags": {
    "addr:city": "Lemmer",
    "addr:housenumber": "1",
    "addr:postcode": "8531EE",
    "addr:street": "Nieuwburen",
    "name": "Oudheidskamer Lemster Fiifgea",
    "opening_hours": "Tu-Fr 10:00-17:00",
    "phone": "0514 - 567595",
    "source": "BAG",
    "source:date": "2014-06-07",
    "tourism": "museum",
    "website": "https://www.fries-aardewerk.nl/muslem.html",
    "wheelchair": "yes"
  }
},
{
  "type": "node",
  "id": 2905823795,
  "lat": 52.8486556,
  "lon": 5.6722956,
  "tags": {
    "addr:city": "Lemmer",
    "addr:housenumber": "23",
    "addr:postcode": "8531XH",
    "addr:street": "Kadijk",
    "name": "Indian Motorcycle Museum Tony \"Indian\" Leenes",
    "opening_hours": "Sa 13:00-17:00 || \"by appointment\"",
    "phone": "0514 - 56 32 44",
    "source": "BAG;http://www.tonyleenes.nl/contact",
    "source:date": "2014-06-08",
    "tourism": "museum",
    "website": "https://www.tonyleenes.nl/"
  }
},
{
  "type": "node",
  "id": 2905824590,
  "lat": 52.8497837,
  "lon": 5.6731610,
  "tags": {
    "addr:city": "Lemmer",
    "addr:housenumber": "15",
    "addr:postcode": "8531XH",
    "addr:street": "Kadijk",
    "name": "Duikmuseum Lemmer",
    "note": "buiten zaterdag op afspraak bezoeken",
    "opening_hours": "Sa 10:00-17:00",
    "phone": "(0514) 560001",
    "source": "BAG;http://www.duikmuseum.nl/",
    "source:date": "2014-06-08",
    "tourism": "museum",
    "website": "http://www.duikmuseum.nl/"
  }
},
{
  "type": "node",
  "id": 2906285016,
  "lat": 52.8947855,
  "lon": 5.6456312,
  "tags": {
    "addr:city": "Sloten",
    "addr:housenumber": "48",
    "addr:postcode": "8556XW",
    "addr:street": "Heerenwal",
    "fee": "€ 3,25, MJK free",
    "name": "Stadhuis Sloten Museum Stedhûs Sleat",
    "opening_hours": "Apr-Oct: Tu-Fr 11:00-17:00, Sa-Su 13:00-17:00",
    "phone": "+31 0514 53 15 41",
    "source": "BAG;http://www.museumsloten.nl/nl/informatie/",
    "source:date": "2014-06-08",
    "tourism": "museum",
    "website": "https://www.museumsloten.nl/",
    "wheelchair": "yes",
    "wikipedia": "nl:Museum Sloten"
  }
},
{
  "type": "node",
  "id": 2906484878,
  "lat": 52.8478445,
  "lon": 5.5585827,
  "tags": {
    "addr:city": "Nijemirdum",
    "addr:housenumber": "6",
    "addr:postcode": "8566JE",
    "addr:street": "Hoitebuorren",
    "name": "Het Koeienmuseum",
    "opening_hours": "Jul-Aug 13:30-17:00",
    "phone": "0514-571390",
    "source": "BAG;http://www.koeienmuseum.nl/contact.htm",
    "source:date": "2014-06-08",
    "tourism": "museum",
    "website": "https://www.koeienmuseum.nl/"
  }
},
{
  "type": "node",
  "id": 2907968081,
  "lat": 52.6799037,
  "lon": 4.8065687,
  "tags": {
    "addr:city": "Broek op Langedijk",
    "addr:housenumber": "2",
    "addr:postcode": "1721BW",
    "addr:street": "Museumweg",
    "contact:phone": "+31 (0) 226 313807",
    "contact:website": "http://www.broekerveiling.nl",
    "name": "Museum BroekerVeiling",
    "opening_hours": "Apr-Jun,Sep-Oct Tu-Su 10:00-17:00; Jul-Aug 10:00-17:00; Nov-Mar We-Sa 10:00-17:00; PH off; open \"Easter Monday\", \"Whit Monday\"; \"November and December no regular museum programs guaranteed\"",
    "source": "BAG",
    "source:date": "2014-06-09",
    "tourism": "museum",
    "wikidata": "Q4540226",
    "wikipedia": "nl:Broeker Veiling"
  }
},
{
  "type": "node",
  "id": 2966539687,
  "lat": 52.9797781,
  "lon": 5.4437049,
  "tags": {
    "addr:city": "Workum",
    "addr:housenumber": "6",
    "addr:postcode": "8711AH",
    "addr:street": "Noard",
    "fee": "MJK_free",
    "name": "Jopie Huisman Museum",
    "opening_hours": "Apr-Oct: Mo-Sa 10:00-17:00; Nov-Dec 13:00-17:00",
    "source": "BAG;http://www.jopiehuismanmuseum.nl/contact/",
    "source:date": "2014-07-16",
    "tourism": "museum",
    "website": "https://www.jopiehuismanmuseum.nl/",
    "wikidata": "Q2786191",
    "wikipedia": "nl:Jopie Huisman Museum"
  }
},
{
  "type": "node",
  "id": 2966554033,
  "lat": 52.9796601,
  "lon": 5.4421601,
  "tags": {
    "addr:city": "Workum",
    "addr:housenumber": "17",
    "addr:postcode": "8711CL",
    "addr:street": "Merk",
    "name": "atelier",
    "source": "BAG",
    "source:date": "2014-07-16",
    "tourism": "museum"
  }
},
{
  "type": "node",
  "id": 2966562995,
  "lat": 52.9792931,
  "lon": 5.4431689,
  "tags": {
    "addr:city": "Workum",
    "addr:housenumber": "4",
    "addr:postcode": "8711CL",
    "addr:street": "Merk",
    "name": "Museum Warkums Erfskip",
    "opening_hours": "Feb-Mar: Tu-Sa 13:30-17:00; Apr-Oct: Tu-Sa 10:00-17:00",
    "phone": "0515 - 54 12 31",
    "source": "BAG;http://www.warkumserfskip.nl/id186.htm",
    "source:date": "2014-07-16",
    "tourism": "museum",
    "website": "http://www.warkumserfskip.nl/",
    "wikidata": "Q14644903",
    "wikipedia": "nl:Museum Warkums Erfskip"
  }
},
{
  "type": "node",
  "id": 3942345120,
  "lat": 52.5601877,
  "lon": 4.8477637,
  "tags": {
    "name": "Museum Jan Boon - 'Het Walhuis'",
    "opening_hours": "Jul-Aug Sa,Su 13:00-16:00",
    "tourism": "museum"
  }
},
{
  "type": "node",
  "id": 3943497504,
  "lat": 52.6801705,
  "lon": 4.8062031,
  "tags": {
    "name": "Gebouw de Toekomst",
    "tourism": "museum"
  }
},
{
  "type": "node",
  "id": 4864578381,
  "lat": 52.7901836,
  "lon": 4.7875755,
  "tags": {
    "name": "Automuseum",
    "tourism": "museum"
  }
},
{
  "type": "node",
  "id": 4864585744,
  "lat": 52.7858571,
  "lon": 4.7973144,
  "tags": {
    "name": "Slag van de Somme",
    "tourism": "museum"
  }
},
{
  "type": "node",
  "id": 4864595788,
  "lat": 52.7857824,
  "lon": 4.7969147,
  "tags": {
    "name": "Regionaal museum 1940-1945",
    "tourism": "museum"
  }
},
{
  "type": "node",
  "id": 4945424963,
  "lat": 52.6749812,
  "lon": 4.8097013,
  "tags": {
    "addr:city": "Broek op Langedijk",
    "addr:housenumber": "16",
    "addr:postcode": "1721CB",
    "addr:street": "Sluiskade",
    "name": "Museale Schuitenhelling",
    "tourism": "museum"
  }
},
{
  "type": "node",
  "id": 6554089065,
  "lat": 52.5185149,
  "lon": 5.6599736,
  "tags": {
    "name": "Mechanisch Erfgoed Centrum",
    "opening_hours": "Sa 10:00-17:00, Su[3] 10:00-17:00",
    "phone": "+31 321 325 139",
    "tourism": "museum",
    "website": "https://mecmuseum.nl/"
  }
},
{
  "type": "node",
  "id": 6716362582,
  "lat": 52.8853197,
  "lon": 5.3593002,
  "tags": {
    "tourism": "museum"
  }
},
{
  "type": "node",
  "id": 6996824348,
  "lat": 52.6001254,
  "lon": 4.8734149,
  "tags": {
    "addr:city": "Schermerhorn",
    "addr:housenumber": "2",
    "addr:postcode": "1636VL",
    "addr:street": "Noordervaart",
    "name": "De Museummolen",
    "source": "BAG",
    "source:date": "2019-11-23",
    "tourism": "museum",
    "website": "https://www.museummolen.nl/"
  }
},
{
  "type": "node",
  "id": 7151372422,
  "lat": 52.7388235,
  "lon": 5.2215958,
  "tags": {
    "name": "Eendenmuseum",
    "tourism": "museum",
    "website": "http://www.eendenmuseum.nl/",
    "wikidata": "Q63535754",
    "wikipedia": "nl:Eendenmuseum"
  }
},
{
  "type": "way",
  "id": 52337767,
  "nodes": [
    2864706533,
    665811705,
    665811962,
    665811968,
    665811967,
    2864706533
  ],
  "tags": {
    "addr:city": "Heerhugowaard",
    "addr:housenumber": "17",
    "addr:postcode": "1703RG",
    "addr:street": "Huygendijk",
    "building": "yes",
    "name": "Poldermuseum",
    "ref:bag": "398100000000879",
    "source": "BAG",
    "source:date": "2014-05-07",
    "start_date": "1877",
    "tourism": "museum"
  }
},
{
  "type": "way",
  "id": 52360142,
  "nodes": [
    2838005545,
    2838005543,
    666018634,
    2838005541,
    2838005540,
    666018635,
    2838005548,
    2838005549,
    666018637,
    666018632,
    2838005545
  ],
  "tags": {
    "addr:city": "Oosthuizen",
    "addr:housenumber": "8",
    "addr:postcode": "1474MT",
    "addr:street": "Etersheim",
    "building": "yes",
    "name": "Het schooltje van Dik Trom",
    "ref:bag": "478100000000738",
    "source": "BAG",
    "source:date": "2014-03-24",
    "start_date": "1891",
    "tourism": "museum"
  }
},
{
  "type": "way",
  "id": 52367808,
  "nodes": [
    666037126,
    666037214,
    666037121,
    666037122,
    2852678840,
    2852678853,
    2852683213,
    2852678899,
    666037126
  ],
  "tags": {
    "building": "yes",
    "name": "Agrarisch Museum",
    "ref:bag": "370100000000298",
    "source": "BAG",
    "source:date": "2014-05-07",
    "start_date": "1877",
    "tourism": "museum"
  }
},
{
  "type": "way",
  "id": 112458457,
  "nodes": [
    2932413171,
    2932413172,
    2932413168,
    2932413167,
    4862125350,
    2932413135,
    2932413138,
    2932413130,
    2932413127,
    2932413123,
    2932413124,
    2932413122,
    2932413121,
    2932413118,
    2932413117,
    2932413105,
    2932413094,
    2932413091,
    2932413081,
    1278131149,
    1278131057,
    1278131125,
    2932413087,
    1278131041,
    1494715036,
    2932413086,
    2932413083,
    2932413084,
    2932413085,
    1494715039,
    2932413090,
    2932413089,
    2932413092,
    2932413093,
    1278131105,
    1278131173,
    2932413077,
    2932413078,
    1278131073,
    1278131137,
    2932413074,
    2932413075,
    2932413133,
    2932413132,
    1278131089,
    4865113075,
    2932413225,
    2932413223,
    2932413219,
    2932413171
  ],
  "tags": {
    "addr:city": "Lelystad",
    "addr:country": "NL",
    "addr:housenumber": "50",
    "addr:street": "Pelikaanweg",
    "building": "yes",
    "name": "Aviodrome",
    "ref:bag": "995100000743737",
    "source": "BAG",
    "source:date": "2014-06-25",
    "start_date": "2001",
    "toilets:wheelchair": "yes",
    "tourism": "museum",
    "website": "https://www.aviodrome.nl/",
    "wheelchair": "yes",
    "wikidata": "Q791082",
    "wikipedia": "nl:Nationaal Luchtvaart-Themapark Aviodrome"
  }
},
{
  "type": "way",
  "id": 134579293,
  "nodes": [
    1479451569,
    1479451574,
    1479451576,
    1479451580,
    1479451584,
    1479451582,
    1479451570,
    1479451566,
    1479451569
  ],
  "tags": {
    "building": "yes",
    "description": "Poldermolen",
    "dhm_id": "630",
    "man_made": "windmill",
    "mdb_id": "713",
    "name": "Ondermolen D",
    "ref:bag": "0458100000003572",
    "source": "BAG",
    "source:date": "2014-03-24",
    "start_date": "1634",
    "tourism": "museum",
    "website": "http://www.museummolen.nl/",
    "wikidata": "Q2311477",
    "wikipedia": "nl:Ondermolen D"
  }
},
{
  "type": "way",
  "id": 265998803,
  "nodes": [
    2715953568,
    2715953292,
    2715953316,
    2715953270,
    2715953268,
    2715953284,
    2715953286,
    2715953329,
    2715953328,
    4793962543,
    2715953378,
    2715953380,
    2715953480,
    2715953479,
    2715953484,
    2715953486,
    2715953615,
    2715953614,
    2715953636,
    2715953637,
    2715953618,
    2715953616,
    2715953573,
    2715953574,
    2715953577,
    2715953576,
    2715953582,
    2715953583,
    2715953580,
    2715953579,
    2715953568
  ],
  "tags": {
    "building": "yes",
    "name": "Museum Nagele",
    "ref:bag": "171100000003055",
    "source": "BAG",
    "source:date": "2014-02-11",
    "start_date": "1960",
    "tourism": "museum"
  }
},
{
  "type": "way",
  "id": 271018866,
  "nodes": [
    2759610233,
    2759610200,
    2759610165,
    2759610155,
    2759610273,
    2759610299,
    2759610233
  ],
  "tags": {
    "addr:city": "Hippolytushoef",
    "addr:housenumber": "39",
    "addr:postcode": "1777NE",
    "addr:street": "Stroeërweg",
    "building": "yes",
    "contact:email": "info@museumjanlont.nl",
    "contact:phone": "+31 227 511353",
    "contact:website": "http://www.museumjanlont.nl/",
    "name": "Wieringer Eilandmuseum Jan Lont",
    "ref:bag": "462100000004655",
    "source": "BAG",
    "source:date": "2014-03-24",
    "start_date": "1949",
    "tourism": "museum",
    "wheelchair": "yes"
  }
},
{
  "type": "way",
  "id": 274859410,
  "nodes": [
    2795286100,
    2795286383,
    2795286378,
    2795286373,
    2795286081,
    922815452,
    2795285868,
    2795285975,
    2795286100
  ],
  "tags": {
    "addr:city": "Hoorn",
    "addr:housenumber": "106",
    "addr:postcode": "1621AK",
    "addr:street": "Italiaanse Zeedijk",
    "building": "yes",
    "name": "Speelgoedmuseum De Kijkdoos",
    "ref:bag": "405100000554714",
    "source": "BAG",
    "source:date": "2014-03-24",
    "start_date": "1730",
    "tourism": "museum"
  }
},
{
  "type": "way",
  "id": 274859600,
  "nodes": [
    2795282364,
    2795282365,
    2795282366,
    2795282367,
    2795283372,
    2795283373,
    2795283375,
    2795283374,
    2795283379,
    2795283380,
    2795283381,
    2795283378,
    2795283376,
    2795283377,
    2795283370,
    2795283369,
    2795282368,
    2795283371,
    2795282364
  ],
  "tags": {
    "addr:city": "Hoorn",
    "addr:street": "Schuijteskade",
    "building": "yes",
    "name": "Centrum Varend Erfgoed Hoorn",
    "ref:bag": "405100000627666",
    "source": "BAG",
    "source:date": "2014-03-24",
    "start_date": "2013",
    "tourism": "museum"
  }
},
{
  "type": "way",
  "id": 277816769,
  "nodes": [
    2822730262,
    2822730249,
    2822730248,
    2822730261,
    2822730275,
    2822730287,
    2822730288,
    2822730276,
    2822730262
  ],
  "tags": {
    "addr:city": "Obdam",
    "addr:housenumber": "8",
    "addr:postcode": "1713RA",
    "addr:street": "Obdammerdijk",
    "building": "house",
    "description": "Poldermolen",
    "dhm_id": "606",
    "man_made": "windmill",
    "mdb_id": "687",
    "name": "Obdammermolen",
    "ref:bag": "1598100000016546",
    "source": "BAG;wikipedia",
    "source:date": "2014-03-24",
    "start_date": "1698",
    "tourism": "museum",
    "wikipedia": "nl:Obdammermolen"
  }
},
{
  "type": "way",
  "id": 282746551,
  "nodes": [
    2866821950,
    2866821938,
    2866821955,
    2866821741,
    2866821742,
    2866821884,
    5241699982,
    2866821799,
    2866821795,
    2866821764,
    2866821956,
    2866821750,
    2866821907,
    2866821950
  ],
  "tags": {
    "addr:city": "Marken",
    "addr:housenumber": "52",
    "addr:postcode": "1156AX",
    "addr:street": "Kets",
    "building": "retail",
    "contact:email": "info@theclogexperience.com",
    "contact:website": "http://www.theclogexperience.com/",
    "name": "Klompenmakerij Marken",
    "name:en": "Marken's Wooden Shoe Factory",
    "name:es": "Fábrica de Zuecos de Marken",
    "ref:bag": "852100000009046",
    "source": "BAG",
    "source:date": "2014-05-07",
    "start_date": "1965",
    "tourism": "museum"
  }
},
{
  "type": "way",
  "id": 286889698,
  "nodes": [
    2905570094,
    2905570348,
    2905570346,
    2905570371,
    2905570330,
    2905570310,
    2905570423,
    2905570204,
    2905569932,
    2905569936,
    2905569920,
    2905569930,
    2905569874,
    2905569864,
    2905569847,
    2905569846,
    2905569593,
    2905569551,
    2905569900,
    2905570109,
    2905570049,
    2905570094
  ],
  "tags": {
    "addr:city": "Lemmer",
    "addr:housenumber": "1",
    "addr:postcode": "8531PS",
    "addr:street": "Gemaalweg",
    "building": "yes",
    "heritage": "1",
    "historic": "technical_monument",
    "name": "Ir. D.F. Wouda-gemaal",
    "opening_hours": "Feb-Dec: Tu-Sa 10:00-17:00",
    "phone": "(0514)-561 814",
    "ref:bag": "82100000149207",
    "source": "BAG;http://www.woudagemaal.nl/7503/openingstijden-contact/",
    "source:date": "2014-06-08",
    "start_date": "1920",
    "tourism": "museum",
    "website": "https://www.woudagemaal.nl/",
    "wheelchair": "yes",
    "wikidata": "Q1121835",
    "wikipedia": "nl:Ir. D.F. Woudagemaal"
  }
},
{
  "type": "way",
  "id": 355260228,
  "nodes": [
    3608681783,
    3608681784,
    3608681785,
    3608681786,
    3608681787,
    3608681783
  ],
  "tags": {
    "building": "boat",
    "fee": "MJK_free",
    "name": "Halve Maen",
    "note": "Museumschip te bezichtigen via Varend Erfgoed Hoorn",
    "tourism": "museum",
    "website": "https://www.halvemaenhoorn.nl"
  }
},
{
  "type": "way",
  "id": 688673876,
  "nodes": [
    47250906,
    47248960,
    6458822332,
    6458822344,
    6458822345,
    6458822346,
    6458822347,
    6458822348,
    6458822349,
    6458822350,
    6458822351,
    6458822352,
    6458822353,
    6458822354,
    6458822355,
    6458822356,
    6458822357,
    6458822358,
    6458822359,
    6458822360,
    6458822361,
    6458822362,
    6458822363,
    6458822364,
    6458822365,
    6458822366,
    6458822367,
    6458822368,
    6458822369,
    6458822370,
    6458822371,
    6458822372,
    6458822373,
    6458822374,
    6458822375,
    6458822376,
    6458822377,
    47250906
  ],
  "tags": {
    "fee": "yes",
    "museum": "open_air",
    "museumkaart": "yes",
    "name": "Zuiderzeemuseum - buiten",
    "tourism": "museum",
    "wheelchair": "limited",
    "wikidata": "Q42259056",
    "wikipedia": "nl:Buitenmuseum"
  }
},
{
  "type": "relation",
  "id": 5858915,
  "members": [
    {
      "type": "way",
      "ref": 391178798,
      "role": "perimeter"
    },
    {
      "type": "way",
      "ref": 287153096,
      "role": ""
    },
    {
      "type": "way",
      "ref": 51223099,
      "role": ""
    },
    {
      "type": "way",
      "ref": 287153537,
      "role": ""
    },
    {
      "type": "way",
      "ref": 287153819,
      "role": ""
    },
    {
      "type": "way",
      "ref": 391170155,
      "role": ""
    },
    {
      "type": "node",
      "ref": 2907968081,
      "role": ""
    },
    {
      "type": "node",
      "ref": 3943497504,
      "role": ""
    },
    {
      "type": "node",
      "ref": 3943497505,
      "role": ""
    },
    {
      "type": "node",
      "ref": 3943713051,
      "role": ""
    }
  ],
  "tags": {
    "contact:phone": "+31 (0) 226 313807",
    "contact:website": "http://www.broekerveiling.nl",
    "name": "Museum BroekerVeiling",
    "opening_hours": "Apr-Jun,Sep-Oct Tu-Su 10:00-17:00; Jul-Aug 10:00-17:00; Nov-Mar We-Sa 10:00-17:00; PH off; open \"Easter Monday\", \"Whit Monday\"; \"November and December no regular museum programs guaranteed\"",
    "tourism": "museum",
    "type": "site",
    "wikidata": "Q4540226",
    "wikipedia": "nl:Broeker Veiling"
  }
},
{
  "type": "node",
  "id": 665811705,
  "lat": 52.6365144,
  "lon": 4.8009684
},
{
  "type": "node",
  "id": 665811962,
  "lat": 52.6366205,
  "lon": 4.8010621
},
{
  "type": "node",
  "id": 665811967,
  "lat": 52.6363635,
  "lon": 4.8014299
},
{
  "type": "node",
  "id": 665811968,
  "lat": 52.6364699,
  "lon": 4.8015229
},
{
  "type": "node",
  "id": 2864706533,
  "lat": 52.6364725,
  "lon": 4.8010966
},
{
  "type": "node",
  "id": 666037121,
  "lat": 52.5464606,
  "lon": 4.9108398
},
{
  "type": "node",
  "id": 666037122,
  "lat": 52.5465086,
  "lon": 4.9106318
},
{
  "type": "node",
  "id": 666037126,
  "lat": 52.5466385,
  "lon": 4.9107125
},
{
  "type": "node",
  "id": 666037214,
  "lat": 52.5465905,
  "lon": 4.9109205
},
{
  "type": "node",
  "id": 2852678840,
  "lat": 52.5465988,
  "lon": 4.9106879
},
{
  "type": "node",
  "id": 2852678853,
  "lat": 52.5466062,
  "lon": 4.9106559
},
{
  "type": "node",
  "id": 2852678899,
  "lat": 52.5466283,
  "lon": 4.9107062
},
{
  "type": "node",
  "id": 2852683213,
  "lat": 52.5466356,
  "lon": 4.9106742
},
{
  "type": "node",
  "id": 1479451566,
  "lat": 52.6000841,
  "lon": 4.8734412
},
{
  "type": "node",
  "id": 1479451569,
  "lat": 52.6000815,
  "lon": 4.8734025
},
{
  "type": "node",
  "id": 1479451570,
  "lat": 52.6001086,
  "lon": 4.8734810
},
{
  "type": "node",
  "id": 1479451574,
  "lat": 52.6001048,
  "lon": 4.8733534
},
{
  "type": "node",
  "id": 1479451576,
  "lat": 52.6001426,
  "lon": 4.8733487
},
{
  "type": "node",
  "id": 1479451580,
  "lat": 52.6001673,
  "lon": 4.8733867
},
{
  "type": "node",
  "id": 1479451582,
  "lat": 52.6001454,
  "lon": 4.8734792
},
{
  "type": "node",
  "id": 1479451584,
  "lat": 52.6001694,
  "lon": 4.8734371
},
{
  "type": "node",
  "id": 666018632,
  "lat": 52.5835340,
  "lon": 5.0194071
},
{
  "type": "node",
  "id": 666018634,
  "lat": 52.5834531,
  "lon": 5.0192916
},
{
  "type": "node",
  "id": 666018635,
  "lat": 52.5835275,
  "lon": 5.0191599
},
{
  "type": "node",
  "id": 666018637,
  "lat": 52.5836107,
  "lon": 5.0193131
},
{
  "type": "node",
  "id": 2838005540,
  "lat": 52.5834207,
  "lon": 5.0192908
},
{
  "type": "node",
  "id": 2838005541,
  "lat": 52.5834325,
  "lon": 5.0193169
},
{
  "type": "node",
  "id": 2838005543,
  "lat": 52.5834723,
  "lon": 5.0193338
},
{
  "type": "node",
  "id": 2838005545,
  "lat": 52.5834905,
  "lon": 5.0193115
},
{
  "type": "node",
  "id": 2838005548,
  "lat": 52.5835646,
  "lon": 5.0192413
},
{
  "type": "node",
  "id": 2838005549,
  "lat": 52.5835733,
  "lon": 5.0192307
},
{
  "type": "node",
  "id": 653650210,
  "lat": 52.6787472,
  "lon": 4.8064483
},
{
  "type": "node",
  "id": 653650213,
  "lat": 52.6788373,
  "lon": 4.8062478
},
{
  "type": "node",
  "id": 653650215,
  "lat": 52.6787751,
  "lon": 4.8064836
},
{
  "type": "node",
  "id": 653650222,
  "lat": 52.6788892,
  "lon": 4.8059953
},
{
  "type": "node",
  "id": 653651071,
  "lat": 52.6786656,
  "lon": 4.8067277
},
{
  "type": "node",
  "id": 653651073,
  "lat": 52.6785695,
  "lon": 4.8066083
},
{
  "type": "node",
  "id": 653655500,
  "lat": 52.6795892,
  "lon": 4.8061404
},
{
  "type": "node",
  "id": 653655501,
  "lat": 52.6799982,
  "lon": 4.8063460
},
{
  "type": "node",
  "id": 653655504,
  "lat": 52.6796060,
  "lon": 4.8060512
},
{
  "type": "node",
  "id": 653657943,
  "lat": 52.6798959,
  "lon": 4.8067952
},
{
  "type": "node",
  "id": 653657945,
  "lat": 52.6798652,
  "lon": 4.8069621
},
{
  "type": "node",
  "id": 1238278272,
  "lat": 52.6786609,
  "lon": 4.8072065
},
{
  "type": "node",
  "id": 1238278495,
  "lat": 52.6793212,
  "lon": 4.8054047
},
{
  "type": "node",
  "id": 1238279069,
  "lat": 52.6799661,
  "lon": 4.8071589
},
{
  "type": "node",
  "id": 1238281373,
  "lat": 52.6787733,
  "lon": 4.8068914
},
{
  "type": "node",
  "id": 1238281998,
  "lat": 52.6788015,
  "lon": 4.8068510
},
{
  "type": "node",
  "id": 1238282037,
  "lat": 52.6795199,
  "lon": 4.8043425
},
{
  "type": "node",
  "id": 1238283402,
  "lat": 52.6790111,
  "lon": 4.8056133
},
{
  "type": "node",
  "id": 1238284763,
  "lat": 52.6792778,
  "lon": 4.8054422
},
{
  "type": "node",
  "id": 1238285106,
  "lat": 52.6794456,
  "lon": 4.8051852
},
{
  "type": "node",
  "id": 1238285682,
  "lat": 52.6801619,
  "lon": 4.8055006
},
{
  "type": "node",
  "id": 1238285983,
  "lat": 52.6799356,
  "lon": 4.8071670
},
{
  "type": "node",
  "id": 1238286181,
  "lat": 52.6794695,
  "lon": 4.8045596
},
{
  "type": "node",
  "id": 1238286312,
  "lat": 52.6794449,
  "lon": 4.8046813
},
{
  "type": "node",
  "id": 1238287716,
  "lat": 52.6784724,
  "lon": 4.8066159
},
{
  "type": "node",
  "id": 1238288004,
  "lat": 52.6802228,
  "lon": 4.8053629
},
{
  "type": "node",
  "id": 1238288040,
  "lat": 52.6794747,
  "lon": 4.8050478
},
{
  "type": "node",
  "id": 1238288377,
  "lat": 52.6800007,
  "lon": 4.8071003
},
{
  "type": "node",
  "id": 1238289179,
  "lat": 52.6793986,
  "lon": 4.8052801
},
{
  "type": "node",
  "id": 1238289550,
  "lat": 52.6801148,
  "lon": 4.8055599
},
{
  "type": "node",
  "id": 1238290181,
  "lat": 52.6785852,
  "lon": 4.8071426
},
{
  "type": "node",
  "id": 1238291694,
  "lat": 52.6788375,
  "lon": 4.8068291
},
{
  "type": "node",
  "id": 1238296648,
  "lat": 52.6794482,
  "lon": 4.8048165
},
{
  "type": "node",
  "id": 1238296913,
  "lat": 52.6802055,
  "lon": 4.8048237
},
{
  "type": "node",
  "id": 1238297256,
  "lat": 52.6789679,
  "lon": 4.8067457
},
{
  "type": "node",
  "id": 1238298677,
  "lat": 52.6801959,
  "lon": 4.8054164
},
{
  "type": "node",
  "id": 1238299435,
  "lat": 52.6801850,
  "lon": 4.8044906
},
{
  "type": "node",
  "id": 1238299718,
  "lat": 52.6789585,
  "lon": 4.8056529
},
{
  "type": "node",
  "id": 1238300032,
  "lat": 52.6802283,
  "lon": 4.8049646
},
{
  "type": "node",
  "id": 1238300922,
  "lat": 52.6802333,
  "lon": 4.8052575
},
{
  "type": "node",
  "id": 1238301779,
  "lat": 52.6791301,
  "lon": 4.8067620
},
{
  "type": "node",
  "id": 1238302972,
  "lat": 52.6794992,
  "lon": 4.8044796
},
{
  "type": "node",
  "id": 1238303806,
  "lat": 52.6795368,
  "lon": 4.8043060
},
{
  "type": "node",
  "id": 1238307722,
  "lat": 52.6790994,
  "lon": 4.8067547
},
{
  "type": "node",
  "id": 1238309019,
  "lat": 52.6790511,
  "lon": 4.8067431
},
{
  "type": "node",
  "id": 1238309312,
  "lat": 52.6785575,
  "lon": 4.8069583
},
{
  "type": "node",
  "id": 1238310614,
  "lat": 52.6789214,
  "lon": 4.8056764
},
{
  "type": "node",
  "id": 1238313149,
  "lat": 52.6785951,
  "lon": 4.8063098
},
{
  "type": "node",
  "id": 1238314252,
  "lat": 52.6801361,
  "lon": 4.8062764
},
{
  "type": "node",
  "id": 1238314663,
  "lat": 52.6794722,
  "lon": 4.8049561
},
{
  "type": "node",
  "id": 1238315258,
  "lat": 52.6792136,
  "lon": 4.8067952
},
{
  "type": "node",
  "id": 1238316259,
  "lat": 52.6785832,
  "lon": 4.8070410
},
{
  "type": "node",
  "id": 1238316261,
  "lat": 52.6802179,
  "lon": 4.8049646
},
{
  "type": "node",
  "id": 1238317047,
  "lat": 52.6789027,
  "lon": 4.8067766
},
{
  "type": "node",
  "id": 1238318000,
  "lat": 52.6802283,
  "lon": 4.8050675
},
{
  "type": "node",
  "id": 1238318807,
  "lat": 52.6785911,
  "lon": 4.8071083
},
{
  "type": "node",
  "id": 1238318882,
  "lat": 52.6801381,
  "lon": 4.8043135
},
{
  "type": "node",
  "id": 1238319507,
  "lat": 52.6786442,
  "lon": 4.8062010
},
{
  "type": "node",
  "id": 1238319589,
  "lat": 52.6794401,
  "lon": 4.8047500
},
{
  "type": "node",
  "id": 1238319729,
  "lat": 52.6798874,
  "lon": 4.8071494
},
{
  "type": "node",
  "id": 1238320666,
  "lat": 52.6801551,
  "lon": 4.8043164
},
{
  "type": "node",
  "id": 1238321512,
  "lat": 52.6792886,
  "lon": 4.8068431
},
{
  "type": "node",
  "id": 1238321770,
  "lat": 52.6787290,
  "lon": 4.8069832
},
{
  "type": "node",
  "id": 1238324063,
  "lat": 52.6788782,
  "lon": 4.8057353
},
{
  "type": "node",
  "id": 1238324150,
  "lat": 52.6794711,
  "lon": 4.8051197
},
{
  "type": "node",
  "id": 2907967816,
  "lat": 52.6801888,
  "lon": 4.8063034
},
{
  "type": "node",
  "id": 2907968081,
  "lat": 52.6799037,
  "lon": 4.8065687
},
{
  "type": "node",
  "id": 2907971023,
  "lat": 52.6786793,
  "lon": 4.8063664
},
{
  "type": "node",
  "id": 2907971052,
  "lat": 52.6787068,
  "lon": 4.8064007
},
{
  "type": "node",
  "id": 2907971160,
  "lat": 52.6789745,
  "lon": 4.8059061
},
{
  "type": "node",
  "id": 2907971180,
  "lat": 52.6790631,
  "lon": 4.8058832
},
{
  "type": "node",
  "id": 2907971432,
  "lat": 52.6792492,
  "lon": 4.8058795
},
{
  "type": "node",
  "id": 2907971466,
  "lat": 52.6792874,
  "lon": 4.8056322
},
{
  "type": "node",
  "id": 2907971490,
  "lat": 52.6793314,
  "lon": 4.8055759
},
{
  "type": "node",
  "id": 2907971500,
  "lat": 52.6793468,
  "lon": 4.8057568
},
{
  "type": "node",
  "id": 2907971525,
  "lat": 52.6793886,
  "lon": 4.8055321
},
{
  "type": "node",
  "id": 2907971528,
  "lat": 52.6793910,
  "lon": 4.8057006
},
{
  "type": "node",
  "id": 2907971551,
  "lat": 52.6794287,
  "lon": 4.8054810
},
{
  "type": "node",
  "id": 2907971563,
  "lat": 52.6794482,
  "lon": 4.8056585
},
{
  "type": "node",
  "id": 2907971589,
  "lat": 52.6794882,
  "lon": 4.8056074
},
{
  "type": "node",
  "id": 2907972612,
  "lat": 52.6799082,
  "lon": 4.8069835
},
{
  "type": "node",
  "id": 2907972622,
  "lat": 52.6799388,
  "lon": 4.8068177
},
{
  "type": "node",
  "id": 2907972650,
  "lat": 52.6799694,
  "lon": 4.8068337
},
{
  "type": "node",
  "id": 2907973221,
  "lat": 52.6800584,
  "lon": 4.8063832
},
{
  "type": "node",
  "id": 2907973223,
  "lat": 52.6800617,
  "lon": 4.8062383
},
{
  "type": "node",
  "id": 2907973234,
  "lat": 52.6800682,
  "lon": 4.8059865
},
{
  "type": "node",
  "id": 2907973245,
  "lat": 52.6800912,
  "lon": 4.8060815
},
{
  "type": "node",
  "id": 2907973248,
  "lat": 52.6800941,
  "lon": 4.8060656
},
{
  "type": "node",
  "id": 2907973253,
  "lat": 52.6801004,
  "lon": 4.8060862
},
{
  "type": "node",
  "id": 2907973255,
  "lat": 52.6801025,
  "lon": 4.8060209
},
{
  "type": "node",
  "id": 2907973257,
  "lat": 52.6801034,
  "lon": 4.8060703
},
{
  "type": "node",
  "id": 2907973258,
  "lat": 52.6800973,
  "lon": 4.8058309
},
{
  "type": "node",
  "id": 2907973262,
  "lat": 52.6801118,
  "lon": 4.8060257
},
{
  "type": "node",
  "id": 2907973265,
  "lat": 52.6801146,
  "lon": 4.8060103
},
{
  "type": "node",
  "id": 2907973302,
  "lat": 52.6802421,
  "lon": 4.8061611
},
{
  "type": "node",
  "id": 2907973304,
  "lat": 52.6802455,
  "lon": 4.8061429
},
{
  "type": "node",
  "id": 2907973309,
  "lat": 52.6802536,
  "lon": 4.8061000
},
{
  "type": "node",
  "id": 2907973311,
  "lat": 52.6802551,
  "lon": 4.8061478
},
{
  "type": "node",
  "id": 2907973312,
  "lat": 52.6802569,
  "lon": 4.8060824
},
{
  "type": "node",
  "id": 2907973314,
  "lat": 52.6802632,
  "lon": 4.8061049
},
{
  "type": "node",
  "id": 2907973315,
  "lat": 52.6802665,
  "lon": 4.8060873
},
{
  "type": "node",
  "id": 2907973316,
  "lat": 52.6802695,
  "lon": 4.8063447
},
{
  "type": "node",
  "id": 2907973324,
  "lat": 52.6802956,
  "lon": 4.8059321
},
{
  "type": "node",
  "id": 2907973326,
  "lat": 52.6802986,
  "lon": 4.8061900
},
{
  "type": "node",
  "id": 3943452728,
  "lat": 52.6800018,
  "lon": 4.8066697
},
{
  "type": "node",
  "id": 3943452731,
  "lat": 52.6801057,
  "lon": 4.8060057
},
{
  "type": "node",
  "id": 3943452732,
  "lat": 52.6801166,
  "lon": 4.8066870
},
{
  "type": "node",
  "id": 3943452733,
  "lat": 52.6801694,
  "lon": 4.8063799
},
{
  "type": "node",
  "id": 3943452734,
  "lat": 52.6801765,
  "lon": 4.8067150
},
{
  "type": "node",
  "id": 3943452735,
  "lat": 52.6802293,
  "lon": 4.8064080
},
{
  "type": "node",
  "id": 3943497504,
  "lat": 52.6801705,
  "lon": 4.8062031
},
{
  "type": "node",
  "id": 3943497505,
  "lat": 52.6801847,
  "lon": 4.8059568
},
{
  "type": "node",
  "id": 3943654561,
  "lat": 52.6800973,
  "lon": 4.8060485
},
{
  "type": "node",
  "id": 3943654562,
  "lat": 52.6802591,
  "lon": 4.8061269
},
{
  "type": "node",
  "id": 3943713051,
  "lat": 52.6797879,
  "lon": 4.8063335
},
{
  "type": "node",
  "id": 3945461097,
  "lat": 52.6795481,
  "lon": 4.8060233
},
{
  "type": "node",
  "id": 3945461098,
  "lat": 52.6795632,
  "lon": 4.8043051
},
{
  "type": "node",
  "id": 3945461102,
  "lat": 52.6796009,
  "lon": 4.8042798
},
{
  "type": "node",
  "id": 3945461111,
  "lat": 52.6797655,
  "lon": 4.8062316
},
{
  "type": "node",
  "id": 3945461113,
  "lat": 52.6797733,
  "lon": 4.8042921
},
{
  "type": "node",
  "id": 3945461114,
  "lat": 52.6797996,
  "lon": 4.8043048
},
{
  "type": "node",
  "id": 3945461116,
  "lat": 52.6798351,
  "lon": 4.8043219
},
{
  "type": "node",
  "id": 3945461117,
  "lat": 52.6798724,
  "lon": 4.8043006
},
{
  "type": "node",
  "id": 3945461118,
  "lat": 52.6799223,
  "lon": 4.8042987
},
{
  "type": "node",
  "id": 3945461121,
  "lat": 52.6799700,
  "lon": 4.8043028
},
{
  "type": "node",
  "id": 3945461123,
  "lat": 52.6799963,
  "lon": 4.8043097
},
{
  "type": "node",
  "id": 3945461127,
  "lat": 52.6800795,
  "lon": 4.8043155
},
{
  "type": "node",
  "id": 4579332927,
  "lat": 52.6802342,
  "lon": 4.8053093
},
{
  "type": "node",
  "id": 4579332930,
  "lat": 52.6802154,
  "lon": 4.8053809
},
{
  "type": "node",
  "id": 4583177382,
  "lat": 52.6802260,
  "lon": 4.8053468
},
{
  "type": "node",
  "id": 5602756227,
  "lat": 52.6791713,
  "lon": 4.8055282
},
{
  "type": "node",
  "id": 6139173965,
  "lat": 52.6784964,
  "lon": 4.8067719
},
{
  "type": "node",
  "id": 6587283901,
  "lat": 52.6801708,
  "lon": 4.8043303
},
{
  "type": "node",
  "id": 6587283902,
  "lat": 52.6801863,
  "lon": 4.8043626
},
{
  "type": "node",
  "id": 6587283903,
  "lat": 52.6801907,
  "lon": 4.8044778
},
{
  "type": "node",
  "id": 2822730248,
  "lat": 52.6822302,
  "lon": 4.8900309
},
{
  "type": "node",
  "id": 2822730249,
  "lat": 52.6822311,
  "lon": 4.8900909
},
{
  "type": "node",
  "id": 2822730261,
  "lat": 52.6822556,
  "lon": 4.8899876
},
{
  "type": "node",
  "id": 2822730262,
  "lat": 52.6822577,
  "lon": 4.8901331
},
{
  "type": "node",
  "id": 2822730275,
  "lat": 52.6822926,
  "lon": 4.8899861
},
{
  "type": "node",
  "id": 2822730276,
  "lat": 52.6822947,
  "lon": 4.8901317
},
{
  "type": "node",
  "id": 2822730287,
  "lat": 52.6823192,
  "lon": 4.8900283
},
{
  "type": "node",
  "id": 2822730288,
  "lat": 52.6823201,
  "lon": 4.8900883
},
{
  "type": "node",
  "id": 2759610155,
  "lat": 52.9289500,
  "lon": 4.9858154
},
{
  "type": "node",
  "id": 2759610165,
  "lat": 52.9289660,
  "lon": 4.9859013
},
{
  "type": "node",
  "id": 2759610200,
  "lat": 52.9290255,
  "lon": 4.9858709
},
{
  "type": "node",
  "id": 2759610233,
  "lat": 52.9290576,
  "lon": 4.9860385
},
{
  "type": "node",
  "id": 2759610273,
  "lat": 52.9290967,
  "lon": 4.9857403
},
{
  "type": "node",
  "id": 2759610299,
  "lat": 52.9291437,
  "lon": 4.9859916
},
{
  "type": "node",
  "id": 2866821741,
  "lat": 52.4568166,
  "lon": 5.1038496
},
{
  "type": "node",
  "id": 2866821742,
  "lat": 52.4568172,
  "lon": 5.1038490
},
{
  "type": "node",
  "id": 2866821750,
  "lat": 52.4568319,
  "lon": 5.1040985
},
{
  "type": "node",
  "id": 2866821764,
  "lat": 52.4568520,
  "lon": 5.1042367
},
{
  "type": "node",
  "id": 2866821795,
  "lat": 52.4568771,
  "lon": 5.1042105
},
{
  "type": "node",
  "id": 2866821799,
  "lat": 52.4568796,
  "lon": 5.1042166
},
{
  "type": "node",
  "id": 2866821884,
  "lat": 52.4569394,
  "lon": 5.1041519
},
{
  "type": "node",
  "id": 2866821907,
  "lat": 52.4567573,
  "lon": 5.1039137
},
{
  "type": "node",
  "id": 2866821938,
  "lat": 52.4567850,
  "lon": 5.1038429
},
{
  "type": "node",
  "id": 2866821950,
  "lat": 52.4567965,
  "lon": 5.1038714
},
{
  "type": "node",
  "id": 2866821955,
  "lat": 52.4568050,
  "lon": 5.1038215
},
{
  "type": "node",
  "id": 2866821956,
  "lat": 52.4568084,
  "lon": 5.1041240
},
{
  "type": "node",
  "id": 5241699982,
  "lat": 52.4568980,
  "lon": 5.1041967
},
{
  "type": "node",
  "id": 2795282364,
  "lat": 52.6335431,
  "lon": 5.0622584
},
{
  "type": "node",
  "id": 2795282365,
  "lat": 52.6335435,
  "lon": 5.0622555
},
{
  "type": "node",
  "id": 2795282366,
  "lat": 52.6335445,
  "lon": 5.0622558
},
{
  "type": "node",
  "id": 2795282367,
  "lat": 52.6335641,
  "lon": 5.0620803
},
{
  "type": "node",
  "id": 2795282368,
  "lat": 52.6335907,
  "lon": 5.0623330
},
{
  "type": "node",
  "id": 2795283369,
  "lat": 52.6335936,
  "lon": 5.0623339
},
{
  "type": "node",
  "id": 2795283370,
  "lat": 52.6335938,
  "lon": 5.0623316
},
{
  "type": "node",
  "id": 2795283371,
  "lat": 52.6335971,
  "lon": 5.0622744
},
{
  "type": "node",
  "id": 2795283372,
  "lat": 52.6336173,
  "lon": 5.0620963
},
{
  "type": "node",
  "id": 2795283373,
  "lat": 52.6336176,
  "lon": 5.0620943
},
{
  "type": "node",
  "id": 2795283374,
  "lat": 52.6336199,
  "lon": 5.0620980
},
{
  "type": "node",
  "id": 2795283375,
  "lat": 52.6336202,
  "lon": 5.0620951
},
{
  "type": "node",
  "id": 2795283376,
  "lat": 52.6338057,
  "lon": 5.0623977
},
{
  "type": "node",
  "id": 2795283377,
  "lat": 52.6338059,
  "lon": 5.0623954
},
{
  "type": "node",
  "id": 2795283378,
  "lat": 52.6338083,
  "lon": 5.0623985
},
{
  "type": "node",
  "id": 2795283379,
  "lat": 52.6338321,
  "lon": 5.0621618
},
{
  "type": "node",
  "id": 2795283380,
  "lat": 52.6338324,
  "lon": 5.0621589
},
{
  "type": "node",
  "id": 2795283381,
  "lat": 52.6338350,
  "lon": 5.0621597
},
{
  "type": "node",
  "id": 3608681783,
  "lat": 52.6335044,
  "lon": 5.0620658
},
{
  "type": "node",
  "id": 3608681784,
  "lat": 52.6334821,
  "lon": 5.0623083
},
{
  "type": "node",
  "id": 3608681785,
  "lat": 52.6334367,
  "lon": 5.0622970
},
{
  "type": "node",
  "id": 3608681786,
  "lat": 52.6334589,
  "lon": 5.0620551
},
{
  "type": "node",
  "id": 3608681787,
  "lat": 52.6334882,
  "lon": 5.0620122
},
{
  "type": "node",
  "id": 922815452,
  "lat": 52.6370063,
  "lon": 5.0618877
},
{
  "type": "node",
  "id": 2795285868,
  "lat": 52.6369675,
  "lon": 5.0618774
},
{
  "type": "node",
  "id": 2795285975,
  "lat": 52.6369705,
  "lon": 5.0618404
},
{
  "type": "node",
  "id": 2795286081,
  "lat": 52.6370030,
  "lon": 5.0619232
},
{
  "type": "node",
  "id": 2795286100,
  "lat": 52.6370117,
  "lon": 5.0618499
},
{
  "type": "node",
  "id": 2795286373,
  "lat": 52.6370931,
  "lon": 5.0619484
},
{
  "type": "node",
  "id": 2795286378,
  "lat": 52.6370965,
  "lon": 5.0619125
},
{
  "type": "node",
  "id": 2795286383,
  "lat": 52.6371004,
  "lon": 5.0618703
},
{
  "type": "node",
  "id": 47248960,
  "lat": 52.7068929,
  "lon": 5.2969245
},
{
  "type": "node",
  "id": 6458822332,
  "lat": 52.7066323,
  "lon": 5.2975578
},
{
  "type": "node",
  "id": 6458822344,
  "lat": 52.7050836,
  "lon": 5.2977861
},
{
  "type": "node",
  "id": 6458822345,
  "lat": 52.7048434,
  "lon": 5.2977801
},
{
  "type": "node",
  "id": 6458822346,
  "lat": 52.7047233,
  "lon": 5.2977593
},
{
  "type": "node",
  "id": 6458822347,
  "lat": 52.7046917,
  "lon": 5.2982734
},
{
  "type": "node",
  "id": 6458822348,
  "lat": 52.7048136,
  "lon": 5.2983061
},
{
  "type": "node",
  "id": 6458822349,
  "lat": 52.7048660,
  "lon": 5.2983404
},
{
  "type": "node",
  "id": 6458822350,
  "lat": 52.7048958,
  "lon": 5.2983985
},
{
  "type": "node",
  "id": 6458822351,
  "lat": 52.7050908,
  "lon": 5.2991689
},
{
  "type": "node",
  "id": 6458822352,
  "lat": 52.7052208,
  "lon": 5.2994044
},
{
  "type": "node",
  "id": 6458822353,
  "lat": 52.7055802,
  "lon": 5.2995340
},
{
  "type": "node",
  "id": 6458822354,
  "lat": 52.7055911,
  "lon": 5.2996627
},
{
  "type": "node",
  "id": 6458822355,
  "lat": 52.7056285,
  "lon": 5.2997057
},
{
  "type": "node",
  "id": 6458822356,
  "lat": 52.7057423,
  "lon": 5.2998076
},
{
  "type": "node",
  "id": 6458822357,
  "lat": 52.7058446,
  "lon": 5.2998398
},
{
  "type": "node",
  "id": 6458822358,
  "lat": 52.7059373,
  "lon": 5.2997995
},
{
  "type": "node",
  "id": 6458822359,
  "lat": 52.7061226,
  "lon": 5.2995394
},
{
  "type": "node",
  "id": 6458822360,
  "lat": 52.7062103,
  "lon": 5.2987857
},
{
  "type": "node",
  "id": 6458822361,
  "lat": 52.7064248,
  "lon": 5.2982573
},
{
  "type": "node",
  "id": 6458822362,
  "lat": 52.7065890,
  "lon": 5.2982063
},
{
  "type": "node",
  "id": 6458822367,
  "lat": 52.7072276,
  "lon": 5.3025890
},
{
  "type": "node",
  "id": 6458822368,
  "lat": 52.7069660,
  "lon": 5.3037296
},
{
  "type": "node",
  "id": 47250906,
  "lat": 52.7073463,
  "lon": 5.2957887
},
{
  "type": "node",
  "id": 6458822363,
  "lat": 52.7079963,
  "lon": 5.3002931
},
{
  "type": "node",
  "id": 6458822364,
  "lat": 52.7076599,
  "lon": 5.3010307
},
{
  "type": "node",
  "id": 6458822365,
  "lat": 52.7076957,
  "lon": 5.3012533
},
{
  "type": "node",
  "id": 6458822366,
  "lat": 52.7075364,
  "lon": 5.3018461
},
{
  "type": "node",
  "id": 6458822373,
  "lat": 52.7084063,
  "lon": 5.3016050
},
{
  "type": "node",
  "id": 6458822374,
  "lat": 52.7086378,
  "lon": 5.3010674
},
{
  "type": "node",
  "id": 6458822375,
  "lat": 52.7085476,
  "lon": 5.3006075
},
{
  "type": "node",
  "id": 6458822376,
  "lat": 52.7095091,
  "lon": 5.2988521
},
{
  "type": "node",
  "id": 6458822377,
  "lat": 52.7074878,
  "lon": 5.2959287
},
{
  "type": "node",
  "id": 6458822369,
  "lat": 52.7083631,
  "lon": 5.3044939
},
{
  "type": "node",
  "id": 6458822370,
  "lat": 52.7084926,
  "lon": 5.3034187
},
{
  "type": "node",
  "id": 6458822371,
  "lat": 52.7084534,
  "lon": 5.3029523
},
{
  "type": "node",
  "id": 6458822372,
  "lat": 52.7082258,
  "lon": 5.3025507
},
{
  "type": "node",
  "id": 1278131041,
  "lat": 52.4570127,
  "lon": 5.5301599
},
{
  "type": "node",
  "id": 1278131057,
  "lat": 52.4568894,
  "lon": 5.5307702
},
{
  "type": "node",
  "id": 1278131073,
  "lat": 52.4568542,
  "lon": 5.5297085
},
{
  "type": "node",
  "id": 1278131089,
  "lat": 52.4573631,
  "lon": 5.5286030
},
{
  "type": "node",
  "id": 1278131105,
  "lat": 52.4571496,
  "lon": 5.5298016
},
{
  "type": "node",
  "id": 1278131125,
  "lat": 52.4567603,
  "lon": 5.5305392
},
{
  "type": "node",
  "id": 1278131137,
  "lat": 52.4567588,
  "lon": 5.5295092
},
{
  "type": "node",
  "id": 1278131149,
  "lat": 52.4569536,
  "lon": 5.5306724
},
{
  "type": "node",
  "id": 1278131173,
  "lat": 52.4569781,
  "lon": 5.5294944
},
{
  "type": "node",
  "id": 1494715036,
  "lat": 52.4569659,
  "lon": 5.5300758
},
{
  "type": "node",
  "id": 1494715039,
  "lat": 52.4570082,
  "lon": 5.5299953
},
{
  "type": "node",
  "id": 2932413074,
  "lat": 52.4567776,
  "lon": 5.5294809
},
{
  "type": "node",
  "id": 2932413075,
  "lat": 52.4567818,
  "lon": 5.5294898
},
{
  "type": "node",
  "id": 2932413077,
  "lat": 52.4568632,
  "lon": 5.5296684
},
{
  "type": "node",
  "id": 2932413078,
  "lat": 52.4568708,
  "lon": 5.5296836
},
{
  "type": "node",
  "id": 2932413081,
  "lat": 52.4569630,
  "lon": 5.5306592
},
{
  "type": "node",
  "id": 2932413083,
  "lat": 52.4569932,
  "lon": 5.5300160
},
{
  "type": "node",
  "id": 2932413084,
  "lat": 52.4569943,
  "lon": 5.5300135
},
{
  "type": "node",
  "id": 2932413085,
  "lat": 52.4569952,
  "lon": 5.5300149
},
{
  "type": "node",
  "id": 2932413086,
  "lat": 52.4569973,
  "lon": 5.5300303
},
{
  "type": "node",
  "id": 2932413087,
  "lat": 52.4570044,
  "lon": 5.5301753
},
{
  "type": "node",
  "id": 2932413089,
  "lat": 52.4570203,
  "lon": 5.5299744
},
{
  "type": "node",
  "id": 2932413090,
  "lat": 52.4570212,
  "lon": 5.5299756
},
{
  "type": "node",
  "id": 2932413091,
  "lat": 52.4570216,
  "lon": 5.5307642
},
{
  "type": "node",
  "id": 2932413092,
  "lat": 52.4570224,
  "lon": 5.5299724
},
{
  "type": "node",
  "id": 2932413093,
  "lat": 52.4570266,
  "lon": 5.5299838
},
{
  "type": "node",
  "id": 2932413094,
  "lat": 52.4570343,
  "lon": 5.5307861
},
{
  "type": "node",
  "id": 2932413105,
  "lat": 52.4571389,
  "lon": 5.5306710
},
{
  "type": "node",
  "id": 2932413117,
  "lat": 52.4571682,
  "lon": 5.5306282
},
{
  "type": "node",
  "id": 2932413118,
  "lat": 52.4571740,
  "lon": 5.5306420
},
{
  "type": "node",
  "id": 2932413121,
  "lat": 52.4572495,
  "lon": 5.5305287
},
{
  "type": "node",
  "id": 2932413122,
  "lat": 52.4572568,
  "lon": 5.5305443
},
{
  "type": "node",
  "id": 2932413123,
  "lat": 52.4572649,
  "lon": 5.5304995
},
{
  "type": "node",
  "id": 2932413124,
  "lat": 52.4572738,
  "lon": 5.5305194
},
{
  "type": "node",
  "id": 2932413127,
  "lat": 52.4573283,
  "lon": 5.5304147
},
{
  "type": "node",
  "id": 2932413130,
  "lat": 52.4573395,
  "lon": 5.5304500
},
{
  "type": "node",
  "id": 2932413132,
  "lat": 52.4573557,
  "lon": 5.5286149
},
{
  "type": "node",
  "id": 2932413133,
  "lat": 52.4573602,
  "lon": 5.5286218
},
{
  "type": "node",
  "id": 2932413135,
  "lat": 52.4574179,
  "lon": 5.5302758
},
{
  "type": "node",
  "id": 2932413138,
  "lat": 52.4574480,
  "lon": 5.5303296
},
{
  "type": "node",
  "id": 2932413167,
  "lat": 52.4576566,
  "lon": 5.5299193
},
{
  "type": "node",
  "id": 2932413168,
  "lat": 52.4576573,
  "lon": 5.5299201
},
{
  "type": "node",
  "id": 2932413171,
  "lat": 52.4576604,
  "lon": 5.5299103
},
{
  "type": "node",
  "id": 2932413172,
  "lat": 52.4576620,
  "lon": 5.5299131
},
{
  "type": "node",
  "id": 2932413219,
  "lat": 52.4578891,
  "lon": 5.5295670
},
{
  "type": "node",
  "id": 2932413223,
  "lat": 52.4578970,
  "lon": 5.5295826
},
{
  "type": "node",
  "id": 2932413225,
  "lat": 52.4579043,
  "lon": 5.5295699
},
{
  "type": "node",
  "id": 4862125350,
  "lat": 52.4574485,
  "lon": 5.5302331
},
{
  "type": "node",
  "id": 4865113075,
  "lat": 52.4577837,
  "lon": 5.5293544
},
{
  "type": "node",
  "id": 2715953268,
  "lat": 52.6440559,
  "lon": 5.7240752
},
{
  "type": "node",
  "id": 2715953270,
  "lat": 52.6440561,
  "lon": 5.7243807
},
{
  "type": "node",
  "id": 2715953284,
  "lat": 52.6440612,
  "lon": 5.7240752
},
{
  "type": "node",
  "id": 2715953286,
  "lat": 52.6440612,
  "lon": 5.7240811
},
{
  "type": "node",
  "id": 2715953292,
  "lat": 52.6440618,
  "lon": 5.7243681
},
{
  "type": "node",
  "id": 2715953316,
  "lat": 52.6440618,
  "lon": 5.7243806
},
{
  "type": "node",
  "id": 2715953328,
  "lat": 52.6440706,
  "lon": 5.7240167
},
{
  "type": "node",
  "id": 2715953329,
  "lat": 52.6440706,
  "lon": 5.7240811
},
{
  "type": "node",
  "id": 2715953378,
  "lat": 52.6441140,
  "lon": 5.7240167
},
{
  "type": "node",
  "id": 2715953380,
  "lat": 52.6441140,
  "lon": 5.7240316
},
{
  "type": "node",
  "id": 2715953479,
  "lat": 52.6441970,
  "lon": 5.7239039
},
{
  "type": "node",
  "id": 2715953480,
  "lat": 52.6441971,
  "lon": 5.7240315
},
{
  "type": "node",
  "id": 2715953484,
  "lat": 52.6441999,
  "lon": 5.7239038
},
{
  "type": "node",
  "id": 2715953486,
  "lat": 52.6441999,
  "lon": 5.7239098
},
{
  "type": "node",
  "id": 2715953568,
  "lat": 52.6442768,
  "lon": 5.7243679
},
{
  "type": "node",
  "id": 2715953573,
  "lat": 52.6442810,
  "lon": 5.7240357
},
{
  "type": "node",
  "id": 2715953574,
  "lat": 52.6442810,
  "lon": 5.7240810
},
{
  "type": "node",
  "id": 2715953576,
  "lat": 52.6442858,
  "lon": 5.7240743
},
{
  "type": "node",
  "id": 2715953577,
  "lat": 52.6442858,
  "lon": 5.7240810
},
{
  "type": "node",
  "id": 2715953579,
  "lat": 52.6442859,
  "lon": 5.7243678
},
{
  "type": "node",
  "id": 2715953580,
  "lat": 52.6442859,
  "lon": 5.7243797
},
{
  "type": "node",
  "id": 2715953582,
  "lat": 52.6442901,
  "lon": 5.7240743
},
{
  "type": "node",
  "id": 2715953583,
  "lat": 52.6442903,
  "lon": 5.7243797
},
{
  "type": "node",
  "id": 2715953614,
  "lat": 52.6444395,
  "lon": 5.7239044
},
{
  "type": "node",
  "id": 2715953615,
  "lat": 52.6444395,
  "lon": 5.7239095
},
{
  "type": "node",
  "id": 2715953616,
  "lat": 52.6444401,
  "lon": 5.7240355
},
{
  "type": "node",
  "id": 2715953618,
  "lat": 52.6444401,
  "lon": 5.7240408
},
{
  "type": "node",
  "id": 2715953636,
  "lat": 52.6444427,
  "lon": 5.7239043
},
{
  "type": "node",
  "id": 2715953637,
  "lat": 52.6444428,
  "lon": 5.7240408
},
{
  "type": "node",
  "id": 4793962543,
  "lat": 52.6440875,
  "lon": 5.7240167
},
{
  "type": "node",
  "id": 2905569551,
  "lat": 52.8459825,
  "lon": 5.6804904
},
{
  "type": "node",
  "id": 2905569593,
  "lat": 52.8461092,
  "lon": 5.6805993
},
{
  "type": "node",
  "id": 2905569846,
  "lat": 52.8462178,
  "lon": 5.6802549
},
{
  "type": "node",
  "id": 2905569847,
  "lat": 52.8462187,
  "lon": 5.6802557
},
{
  "type": "node",
  "id": 2905569864,
  "lat": 52.8462259,
  "lon": 5.6802329
},
{
  "type": "node",
  "id": 2905569874,
  "lat": 52.8462319,
  "lon": 5.6802381
},
{
  "type": "node",
  "id": 2905569900,
  "lat": 52.8462461,
  "lon": 5.6796566
},
{
  "type": "node",
  "id": 2905569920,
  "lat": 52.8462559,
  "lon": 5.6801395
},
{
  "type": "node",
  "id": 2905569930,
  "lat": 52.8462615,
  "lon": 5.6801443
},
{
  "type": "node",
  "id": 2905569932,
  "lat": 52.8462622,
  "lon": 5.6801160
},
{
  "type": "node",
  "id": 2905569936,
  "lat": 52.8462631,
  "lon": 5.6801167
},
{
  "type": "node",
  "id": 2905570049,
  "lat": 52.8463318,
  "lon": 5.6794527
},
{
  "type": "node",
  "id": 2905570094,
  "lat": 52.8463616,
  "lon": 5.6794783
},
{
  "type": "node",
  "id": 2905570109,
  "lat": 52.8463149,
  "lon": 5.6794379
},
{
  "type": "node",
  "id": 2905570204,
  "lat": 52.8463714,
  "lon": 5.6797699
},
{
  "type": "node",
  "id": 2905570310,
  "lat": 52.8465125,
  "lon": 5.6798294
},
{
  "type": "node",
  "id": 2905570330,
  "lat": 52.8465447,
  "lon": 5.6798571
},
{
  "type": "node",
  "id": 2905570346,
  "lat": 52.8465664,
  "lon": 5.6796600
},
{
  "type": "node",
  "id": 2905570348,
  "lat": 52.8465677,
  "lon": 5.6796556
},
{
  "type": "node",
  "id": 2905570371,
  "lat": 52.8465982,
  "lon": 5.6796874
},
{
  "type": "node",
  "id": 2905570423,
  "lat": 52.8464972,
  "lon": 5.6798781
},
{
  "type": "way",
  "id": 51223099,
  "nodes": [
    2907972650,
    2907972622,
    2907972612,
    653657945,
    653657943,
    653650213,
    653650210,
    653650215,
    653651071,
    653651073,
    2907971023,
    2907971052,
    653650222,
    2907971160,
    2907971180,
    2907971432,
    3945461097,
    653655504,
    653655500,
    3945461111,
    653655501,
    2907973221,
    3943452728,
    2907972650
  ]
},
{
  "type": "way",
  "id": 287153096,
  "nodes": [
    2907973324,
    2907973315,
    2907973312,
    2907973309,
    2907973314,
    3943654562,
    2907973311,
    2907973304,
    2907973302,
    2907973326,
    2907973316,
    2907967816,
    1238314252,
    2907973223,
    2907973245,
    2907973253,
    2907973257,
    2907973248,
    3943654561,
    2907973255,
    2907973262,
    2907973265,
    3943452731,
    2907973234,
    2907973258,
    2907973324
  ]
},
{
  "type": "way",
  "id": 287153537,
  "nodes": [
    2907971563,
    2907971525,
    2907971551,
    2907971589,
    2907971563
  ]
},
{
  "type": "way",
  "id": 287153819,
  "nodes": [
    2907971500,
    2907971466,
    2907971490,
    2907971528,
    2907971500
  ]
},
{
  "type": "way",
  "id": 391170155,
  "nodes": [
    3943452735,
    3943452733,
    3943452732,
    3943452734,
    3943452735
  ]
},
{
  "type": "way",
  "id": 391178798,
  "nodes": [
    1238288377,
    1238279069,
    1238285983,
    1238319729,
    1238321512,
    1238315258,
    1238301779,
    1238307722,
    1238309019,
    1238297256,
    1238317047,
    1238291694,
    1238281998,
    1238281373,
    1238321770,
    1238278272,
    1238290181,
    1238318807,
    1238316259,
    1238309312,
    6139173965,
    1238287716,
    1238313149,
    1238319507,
    1238324063,
    1238310614,
    1238299718,
    1238283402,
    5602756227,
    1238284763,
    1238278495,
    1238289179,
    1238285106,
    1238324150,
    1238288040,
    1238314663,
    1238296648,
    1238319589,
    1238286312,
    1238286181,
    1238302972,
    1238282037,
    1238303806,
    3945461098,
    3945461102,
    3945461113,
    3945461114,
    3945461116,
    3945461117,
    3945461118,
    3945461121,
    3945461123,
    3945461127,
    1238318882,
    1238320666,
    6587283901,
    6587283902,
    6587283903,
    1238299435,
    1238296913,
    1238316261,
    1238300032,
    1238318000,
    1238300922,
    4579332927,
    4583177382,
    1238288004,
    4579332930,
    1238298677,
    1238285682,
    1238289550,
    2907973258,
    2907973234,
    3943452731,
    2907973255,
    3943654561,
    2907973248,
    2907973245,
    2907973223,
    1238314252,
    1238288377
  ]
}

  ]
}
