{
  "version": 0.6,
  "generator": "Overpass API 0.7.55.9 ab41fea6",
  "osm3s": {
    "timestamp_osm_base": "2020-02-14T15:47:02Z",
    "copyright": "The data included in this document is from www.openstreetmap.org. The data is made available under ODbL."
  },
  "elements": [

{
  "type": "node",
  "id": 268287234,
  "lat": 48.7351343,
  "lon": 19.1497845,
  "tags": {
    "name": "Múzeum SNP",
    "name:hu": "Szlovák Nemzeti Felkelés Múzeuma",
    "tourism": "museum",
    "website": "http://www.muzeumsnp.sk/",
    "wheelchair": "yes",
    "wikidata": "Q8413755"
  }
},
{
  "type": "node",
  "id": 561327145,
  "lat": 48.5729530,
  "lon": 19.1276698,
  "tags": {
    "name": "Slovenská národná galéria",
    "name:hu": "Szlovák Nemzeti Galéria",
    "opening_hours": "We-Su 10:00-17:30",
    "tourism": "museum"
  }
},
{
  "type": "node",
  "id": 660801776,
  "lat": 48.8572142,
  "lon": 18.8582716,
  "tags": {
    "is_in": "Turčianske Teplice",
    "name": "Dom Mikuláša Galandu",
    "tourism": "museum"
  }
},
{
  "type": "node",
  "id": 1042407096,
  "lat": 48.7052844,
  "lon": 18.9164604,
  "tags": {
    "name": "Muzeum Mincovne",
    "name:en": "Museum of Coins",
    "name:ru": "Музей Монет",
    "tourism": "museum"
  }
},
{
  "type": "node",
  "id": 1042407124,
  "lat": 48.7039477,
  "lon": 18.9173832,
  "tags": {
    "name": "Múzeum mincí a medailí",
    "name:en": "Museum of Coins and Medals",
    "name:pl": "Muzeum Minci i Medaili (MMM)",
    "name:ru": "Музей Монет и Медалей",
    "tourism": "museum"
  }
},
{
  "type": "node",
  "id": 1340037364,
  "lat": 48.5787325,
  "lon": 18.8972685,
  "tags": {
    "name": "Múzeum",
    "tourism": "museum"
  }
},
{
  "type": "node",
  "id": 1517879942,
  "lat": 48.7461611,
  "lon": 19.0690981,
  "tags": {
    "name": "Pamätný dom J.G.Tajovského",
    "tourism": "museum"
  }
},
{
  "type": "node",
  "id": 1736251488,
  "lat": 48.5771321,
  "lon": 19.1252360,
  "tags": {
    "name": "Lesnícke a drevárske múzeum",
    "tourism": "museum",
    "website": "www.ldmzvolen.sk"
  }
},
{
  "type": "node",
  "id": 1770424995,
  "lat": 48.9866216,
  "lon": 18.9662625,
  "tags": {
    "name": "Obecná múzeum Notariát",
    "tourism": "museum"
  }
},
{
  "type": "node",
  "id": 1834773709,
  "lat": 48.7050278,
  "lon": 18.9175442,
  "tags": {
    "name": "Múzeum gýča",
    "name:en": "Museum of kitsch",
    "tourism": "museum",
    "website": "http://www.gyc.sk/"
  }
},
{
  "type": "node",
  "id": 1976953413,
  "lat": 48.8101082,
  "lon": 19.4036004,
  "tags": {
    "name": "Pamätná sieň SNP",
    "tourism": "museum"
  }
},
{
  "type": "node",
  "id": 2246848534,
  "lat": 48.7351155,
  "lon": 19.1455954,
  "tags": {
    "contact:website": "http://ssmuzeum.sk/",
    "designation": "Thurzov Dom",
    "name": "Thurzov Dom",
    "name:hu": "Közép-Szlovákiai Múzeum",
    "tourism": "museum",
    "wheelchair": "no"
  }
},
{
  "type": "node",
  "id": 3112621463,
  "lat": 48.8074985,
  "lon": 19.1321912,
  "tags": {
    "name": "Múzeum medi",
    "operator": "Banícke bratstvo Herrengrund-Špania Dolina",
    "tourism": "museum",
    "website": "http://www.herrengrund.sk",
    "wikidata": "Q28464485",
    "wikipedia": "cs:Císařská štola (Špania Dolina)"
  }
},
{
  "type": "node",
  "id": 3631486122,
  "lat": 48.8760895,
  "lon": 19.5470244,
  "tags": {
    "name": "Pamätná izba bojov počas Druhej svetovej vojny",
    "tourism": "museum"
  }
},
{
  "type": "node",
  "id": 4837277021,
  "lat": 48.5614062,
  "lon": 19.2593171,
  "tags": {
    "addr:housenumber": "2",
    "addr:postcode": "96201",
    "addr:street": "Terézie Vansovej",
    "name": "Galéria Jána Kulicha",
    "name:en": "Jan Kulich Gallery",
    "name:sk": "Galéria Jána Kulicha",
    "opening_hours": "Tu-Fr 10:00-18:00",
    "phone": "0948366260",
    "tourism": "museum",
    "website": "http://www.galeriajanakulicha.sk/"
  }
},
{
  "type": "node",
  "id": 4946307589,
  "lat": 48.8389232,
  "lon": 19.1153352,
  "tags": {
    "name": "Banícke múzeum Staré hory",
    "tourism": "museum"
  }
},
{
  "type": "node",
  "id": 5515923279,
  "lat": 49.0387093,
  "lon": 19.2775109,
  "tags": {
    "name": "Sýpka",
    "tourism": "museum"
  }
},
{
  "type": "node",
  "id": 5651027235,
  "lat": 48.7521828,
  "lon": 19.1869748,
  "tags": {
    "addr:city": "Kynceľová",
    "addr:housenumber": "77",
    "addr:postcode": "974 01",
    "addr:street": "Kynceľovská cesta",
    "email": "info@muzeummap.sk",
    "name": "Slovenské múzeum máp",
    "name:en": "Slovak map museum",
    "opening_hours": "Mo-Fr 08:00-16:00",
    "operator": "CBS spol, s.r.o.",
    "phone": "+421 948 366 026",
    "tourism": "museum",
    "website": "https://www.muzeummap.sk"
  }
},
{
  "type": "node",
  "id": 6587572632,
  "lat": 48.8359970,
  "lon": 19.2185171,
  "tags": {
    "tourism": "museum"
  }
},
{
  "type": "node",
  "id": 6744581714,
  "lat": 48.7121776,
  "lon": 18.9086929,
  "tags": {
    "name": "Múzeum geocachingu",
    "name:en": "Museum of Geocaching",
    "operator": "OZ GEO.GURU Združenie slovenských geocacherov",
    "operator:type": "ngo",
    "tourism": "museum"
  }
},
{
  "type": "way",
  "id": 53441096,
  "nodes": [
    675492974,
    675492975,
    675492988,
    675492990,
    675492984,
    675492985,
    675492986,
    675493003,
    675492992,
    675492995,
    675492997,
    675492961,
    675492982,
    675492965,
    675492967,
    675492968,
    675492969,
    675492971,
    675492977,
    675492979,
    675492981,
    675492974
  ],
  "tags": {
    "addr:city": "Banská Bystrica",
    "addr:conscriptionnumber": "46",
    "addr:country": "SK",
    "addr:housenumber": "46/18",
    "addr:postcode": "97404",
    "addr:street": "Námestie Štefana Moysesa",
    "addr:streetnumber": "18",
    "addr:suburb": "Banská Bystrica",
    "building": "yes",
    "source": "kapor2",
    "tourism": "museum"
  }
},
{
  "type": "way",
  "id": 53441097,
  "nodes": [
    675493084,
    675493028,
    1309145079,
    675493030,
    675493033,
    1309145072,
    675493084
  ],
  "tags": {
    "addr:city": "Banská Bystrica",
    "addr:conscriptionnumber": "51",
    "addr:country": "SK",
    "addr:housenumber": "51/25",
    "addr:postcode": "97404",
    "addr:street": "Námestie Štefana Moysesa",
    "addr:streetnumber": "25",
    "addr:suburb": "Banská Bystrica",
    "amenity": "arts_centre",
    "building": "yes",
    "name": "Galéria",
    "tourism": "museum"
  }
},
{
  "type": "way",
  "id": 53441102,
  "nodes": [
    675493130,
    675493127,
    675493126,
    675493125,
    675493132,
    675493130
  ],
  "tags": {
    "addr:city": "Banská Bystrica",
    "addr:conscriptionnumber": "48",
    "addr:country": "SK",
    "addr:housenumber": "48/20",
    "addr:postcode": "97404",
    "addr:street": "Námestie Štefana Moysesa",
    "addr:streetnumber": "20",
    "addr:suburb": "Banská Bystrica",
    "building": "yes",
    "name": "Matejov Dom",
    "name:hu": "Mátyás ház",
    "source": "kapor2",
    "tourism": "museum"
  }
},
{
  "type": "way",
  "id": 53724863,
  "nodes": [
    678289363,
    678289393,
    678289395,
    678289396,
    678289397,
    678289398,
    678289399,
    678289400,
    678289401,
    678289402,
    678289403,
    678289364,
    678289363
  ],
  "tags": {
    "addr:city": "Banská Bystrica",
    "addr:conscriptionnumber": "1956",
    "addr:country": "SK",
    "addr:housenumber": "1956/27",
    "addr:postcode": "97405",
    "addr:street": "Radvanská",
    "addr:streetnumber": "27",
    "addr:suburb": "Kráľová",
    "building": "yes",
    "building:levels": "2",
    "castle_type": "manor",
    "historic": "castle",
    "name": "Tihanyovský kaštieľ",
    "name:hu": "Tihanyi kastély",
    "tourism": "museum",
    "website": "https://ssmuzeum.sk/tihanyiovsky-kastiel-3/",
    "wikidata": "Q20966125",
    "wikipedia": "sk:Tihániovský kaštieľ"
  }
},
{
  "type": "way",
  "id": 58544775,
  "nodes": [
    725464526,
    725482674,
    5515923280,
    725487570,
    725464526
  ],
  "tags": {
    "addr:conscriptionnumber": "9017",
    "addr:housenumber": "9017/17",
    "addr:streetnumber": "17",
    "building": "yes",
    "name": "Roľnícky dom",
    "source": "kapor2",
    "tourism": "museum"
  }
},
{
  "type": "way",
  "id": 61764878,
  "nodes": [
    769501007,
    769497649,
    769494068,
    769500804,
    769502080,
    769500653,
    769504264,
    769496383,
    769506407,
    769505522,
    769497823,
    769507587,
    769495927,
    769496390,
    769510303,
    769497140,
    769490838,
    769501007
  ],
  "tags": {
    "building": "yes",
    "import": "budovy201004",
    "name": "Podpolianske múzeum",
    "source": "kapor2",
    "tourism": "museum"
  }
},
{
  "type": "way",
  "id": 79997410,
  "nodes": [
    933580681,
    933580682,
    933580685,
    933580688,
    933580681
  ],
  "tags": {
    "addr:city": "Mošovce",
    "addr:conscriptionnumber": "22",
    "addr:country": "SK",
    "addr:housenumber": "22",
    "addr:place": "Mošovce",
    "building": "yes",
    "building:material": "wood",
    "import": "budovy201004drev",
    "name": "Múzeum Jána Kollára",
    "source": "kapor2",
    "source:conscriptionnumber": "kapor2",
    "tourism": "museum"
  }
},
{
  "type": "way",
  "id": 80027241,
  "nodes": [
    933721941,
    933721943,
    933721944,
    933721945,
    933721941
  ],
  "tags": {
    "addr:city": "Jasenie",
    "addr:conscriptionnumber": "506",
    "addr:housenumber": "506",
    "addr:place": "Jasenie",
    "building": "yes",
    "building:material": "wood",
    "import": "budovy201004drev",
    "name": "Pamätná izba hlavného štábu partizánskeho hnutia v ČSR",
    "source": "kapor2",
    "source:conscriptionnumber": "kapor2",
    "tourism": "museum"
  }
},
{
  "type": "way",
  "id": 181796854,
  "nodes": [
    1922072475,
    1922072471,
    1922072462,
    1922072444,
    1922072434,
    1922072481,
    1922072483,
    1922072489,
    1922072503,
    1922072513,
    1922072515,
    1922072505,
    1922072493,
    1922072485,
    1922072487,
    1922072495,
    1922072475
  ],
  "tags": {
    "building": "yes",
    "name": "Múzeum Karola Plicku",
    "source": "kapor2",
    "tourism": "museum"
  }
},
{
  "type": "way",
  "id": 185966226,
  "nodes": [
    1966593466,
    1966593325,
    1966593408,
    1966593529,
    4533494684,
    1966593466
  ],
  "tags": {
    "building": "yes",
    "building:levels": "2",
    "name": "Slovenské banské múzeum",
    "opening_hours": "May-Sep: Tu-Sa 09:00-17:00; Oct-Apr: Mo-Fr 09:00-16:00",
    "source": "kapor2",
    "tourism": "museum"
  }
},
{
  "type": "way",
  "id": 187163262,
  "nodes": [
    1979153708,
    1979153548,
    1979153816,
    1979153932,
    1979153708
  ],
  "tags": {
    "addr:city": "Horná Lehota",
    "addr:conscriptionnumber": "43",
    "addr:housenumber": "43",
    "addr:place": "Horná Lehota",
    "building": "yes",
    "name": "Pamätná izba Sama Chalupku",
    "source": "kapor2",
    "source:conscriptionnumber": "kapor2",
    "tourism": "museum"
  }
},
{
  "type": "node",
  "id": 1966593325,
  "lat": 48.7277999,
  "lon": 18.7561685
},
{
  "type": "node",
  "id": 1966593408,
  "lat": 48.7278783,
  "lon": 18.7560524
},
{
  "type": "node",
  "id": 1966593466,
  "lat": 48.7279067,
  "lon": 18.7563346
},
{
  "type": "node",
  "id": 1966593529,
  "lat": 48.7279826,
  "lon": 18.7562135
},
{
  "type": "node",
  "id": 4533494684,
  "lat": 48.7279505,
  "lon": 18.7562648
},
{
  "type": "node",
  "id": 678289363,
  "lat": 48.7191605,
  "lon": 19.1366363
},
{
  "type": "node",
  "id": 678289364,
  "lat": 48.7190301,
  "lon": 19.1366438
},
{
  "type": "node",
  "id": 678289393,
  "lat": 48.7191644,
  "lon": 19.1368162
},
{
  "type": "node",
  "id": 678289395,
  "lat": 48.7192360,
  "lon": 19.1368147
},
{
  "type": "node",
  "id": 678289396,
  "lat": 48.7192380,
  "lon": 19.1369039
},
{
  "type": "node",
  "id": 678289397,
  "lat": 48.7191654,
  "lon": 19.1369054
},
{
  "type": "node",
  "id": 678289398,
  "lat": 48.7191684,
  "lon": 19.1370837
},
{
  "type": "node",
  "id": 678289399,
  "lat": 48.7190428,
  "lon": 19.1370941
},
{
  "type": "node",
  "id": 678289400,
  "lat": 48.7190370,
  "lon": 19.1369143
},
{
  "type": "node",
  "id": 678289401,
  "lat": 48.7189762,
  "lon": 19.1369143
},
{
  "type": "node",
  "id": 678289402,
  "lat": 48.7189732,
  "lon": 19.1368206
},
{
  "type": "node",
  "id": 678289403,
  "lat": 48.7190360,
  "lon": 19.1368206
},
{
  "type": "node",
  "id": 675492961,
  "lat": 48.7374389,
  "lon": 19.1460659
},
{
  "type": "node",
  "id": 675492965,
  "lat": 48.7375116,
  "lon": 19.1459842
},
{
  "type": "node",
  "id": 675492967,
  "lat": 48.7375153,
  "lon": 19.1459662
},
{
  "type": "node",
  "id": 675492968,
  "lat": 48.7375202,
  "lon": 19.1459532
},
{
  "type": "node",
  "id": 675492969,
  "lat": 48.7375275,
  "lon": 19.1459413
},
{
  "type": "node",
  "id": 675492971,
  "lat": 48.7375362,
  "lon": 19.1459344
},
{
  "type": "node",
  "id": 675492974,
  "lat": 48.7375787,
  "lon": 19.1459496
},
{
  "type": "node",
  "id": 675492975,
  "lat": 48.7375827,
  "lon": 19.1459633
},
{
  "type": "node",
  "id": 675492977,
  "lat": 48.7375439,
  "lon": 19.1459314
},
{
  "type": "node",
  "id": 675492979,
  "lat": 48.7375530,
  "lon": 19.1459313
},
{
  "type": "node",
  "id": 675492981,
  "lat": 48.7375726,
  "lon": 19.1459409
},
{
  "type": "node",
  "id": 675492982,
  "lat": 48.7375143,
  "lon": 19.1460153
},
{
  "type": "node",
  "id": 675492984,
  "lat": 48.7375773,
  "lon": 19.1460355
},
{
  "type": "node",
  "id": 675492985,
  "lat": 48.7375710,
  "lon": 19.1460439
},
{
  "type": "node",
  "id": 675492986,
  "lat": 48.7375589,
  "lon": 19.1460517
},
{
  "type": "node",
  "id": 675492988,
  "lat": 48.7375876,
  "lon": 19.1459938
},
{
  "type": "node",
  "id": 675492990,
  "lat": 48.7375834,
  "lon": 19.1460225
},
{
  "type": "node",
  "id": 675492992,
  "lat": 48.7375514,
  "lon": 19.1462659
},
{
  "type": "node",
  "id": 675492995,
  "lat": 48.7374925,
  "lon": 19.1461013
},
{
  "type": "node",
  "id": 675492997,
  "lat": 48.7374590,
  "lon": 19.1461285
},
{
  "type": "node",
  "id": 675493003,
  "lat": 48.7376143,
  "lon": 19.1462165
},
{
  "type": "node",
  "id": 675493028,
  "lat": 48.7367390,
  "lon": 19.1470305
},
{
  "type": "node",
  "id": 675493030,
  "lat": 48.7368644,
  "lon": 19.1468519
},
{
  "type": "node",
  "id": 675493033,
  "lat": 48.7369429,
  "lon": 19.1469802
},
{
  "type": "node",
  "id": 675493084,
  "lat": 48.7368242,
  "lon": 19.1471564
},
{
  "type": "node",
  "id": 675493125,
  "lat": 48.7376380,
  "lon": 19.1466294
},
{
  "type": "node",
  "id": 675493126,
  "lat": 48.7376384,
  "lon": 19.1466370
},
{
  "type": "node",
  "id": 675493127,
  "lat": 48.7377262,
  "lon": 19.1466121
},
{
  "type": "node",
  "id": 675493130,
  "lat": 48.7377103,
  "lon": 19.1464496
},
{
  "type": "node",
  "id": 675493132,
  "lat": 48.7376223,
  "lon": 19.1464701
},
{
  "type": "node",
  "id": 1309145072,
  "lat": 48.7368691,
  "lon": 19.1470897
},
{
  "type": "node",
  "id": 1309145079,
  "lat": 48.7368231,
  "lon": 19.1469107
},
{
  "type": "node",
  "id": 933580681,
  "lat": 48.9121126,
  "lon": 18.8859438
},
{
  "type": "node",
  "id": 933580682,
  "lat": 48.9121739,
  "lon": 18.8862361
},
{
  "type": "node",
  "id": 933580685,
  "lat": 48.9121211,
  "lon": 18.8862617
},
{
  "type": "node",
  "id": 933580688,
  "lat": 48.9120598,
  "lon": 18.8859694
},
{
  "type": "node",
  "id": 1922072434,
  "lat": 48.9377265,
  "lon": 18.9267594
},
{
  "type": "node",
  "id": 1922072481,
  "lat": 48.9378204,
  "lon": 18.9267444
},
{
  "type": "node",
  "id": 1922072444,
  "lat": 48.9377401,
  "lon": 18.9269837
},
{
  "type": "node",
  "id": 1922072462,
  "lat": 48.9377904,
  "lon": 18.9269757
},
{
  "type": "node",
  "id": 1922072471,
  "lat": 48.9378060,
  "lon": 18.9270354
},
{
  "type": "node",
  "id": 1922072475,
  "lat": 48.9378119,
  "lon": 18.9270424
},
{
  "type": "node",
  "id": 1922072483,
  "lat": 48.9378262,
  "lon": 18.9268366
},
{
  "type": "node",
  "id": 1922072485,
  "lat": 48.9378282,
  "lon": 18.9268762
},
{
  "type": "node",
  "id": 1922072487,
  "lat": 48.9378341,
  "lon": 18.9269691
},
{
  "type": "node",
  "id": 1922072489,
  "lat": 48.9378372,
  "lon": 18.9268294
},
{
  "type": "node",
  "id": 1922072493,
  "lat": 48.9378408,
  "lon": 18.9268807
},
{
  "type": "node",
  "id": 1922072495,
  "lat": 48.9378421,
  "lon": 18.9269926
},
{
  "type": "node",
  "id": 1922072503,
  "lat": 48.9378452,
  "lon": 18.9268319
},
{
  "type": "node",
  "id": 1922072505,
  "lat": 48.9378485,
  "lon": 18.9268763
},
{
  "type": "node",
  "id": 1922072513,
  "lat": 48.9378524,
  "lon": 18.9268407
},
{
  "type": "node",
  "id": 1922072515,
  "lat": 48.9378536,
  "lon": 18.9268646
},
{
  "type": "node",
  "id": 725464526,
  "lat": 49.0387629,
  "lon": 19.2772211
},
{
  "type": "node",
  "id": 725482674,
  "lat": 49.0387377,
  "lon": 19.2773534
},
{
  "type": "node",
  "id": 725487570,
  "lat": 49.0387251,
  "lon": 19.2772044
},
{
  "type": "node",
  "id": 5515923280,
  "lat": 49.0386987,
  "lon": 19.2773372
},
{
  "type": "node",
  "id": 769490838,
  "lat": 48.5610618,
  "lon": 19.4188087
},
{
  "type": "node",
  "id": 769494068,
  "lat": 48.5609283,
  "lon": 19.4186064
},
{
  "type": "node",
  "id": 769495927,
  "lat": 48.5611317,
  "lon": 19.4186426
},
{
  "type": "node",
  "id": 769496383,
  "lat": 48.5610058,
  "lon": 19.4185528
},
{
  "type": "node",
  "id": 769496390,
  "lat": 48.5611365,
  "lon": 19.4186470
},
{
  "type": "node",
  "id": 769497140,
  "lat": 48.5610942,
  "lon": 19.4187323
},
{
  "type": "node",
  "id": 769497649,
  "lat": 48.5609060,
  "lon": 19.4186606
},
{
  "type": "node",
  "id": 769497823,
  "lat": 48.5610709,
  "lon": 19.4184749
},
{
  "type": "node",
  "id": 769500653,
  "lat": 48.5610171,
  "lon": 19.4186025
},
{
  "type": "node",
  "id": 769500804,
  "lat": 48.5608953,
  "lon": 19.4185765
},
{
  "type": "node",
  "id": 769501007,
  "lat": 48.5609084,
  "lon": 19.4186628
},
{
  "type": "node",
  "id": 769502080,
  "lat": 48.5609227,
  "lon": 19.4185099
},
{
  "type": "node",
  "id": 769504264,
  "lat": 48.5610294,
  "lon": 19.4185748
},
{
  "type": "node",
  "id": 769505522,
  "lat": 48.5610578,
  "lon": 19.4185090
},
{
  "type": "node",
  "id": 769506407,
  "lat": 48.5610353,
  "lon": 19.4184863
},
{
  "type": "node",
  "id": 769507587,
  "lat": 48.5611642,
  "lon": 19.4185669
},
{
  "type": "node",
  "id": 769510303,
  "lat": 48.5610990,
  "lon": 19.4187368
},
{
  "type": "node",
  "id": 1979153548,
  "lat": 48.8372705,
  "lon": 19.5456411
},
{
  "type": "node",
  "id": 1979153708,
  "lat": 48.8373371,
  "lon": 19.5457429
},
{
  "type": "node",
  "id": 1979153816,
  "lat": 48.8373938,
  "lon": 19.5454549
},
{
  "type": "node",
  "id": 1979153932,
  "lat": 48.8374626,
  "lon": 19.5455561
},
{
  "type": "node",
  "id": 933721941,
  "lat": 48.9166741,
  "lon": 19.4744450
},
{
  "type": "node",
  "id": 933721943,
  "lat": 48.9166152,
  "lon": 19.4744377
},
{
  "type": "node",
  "id": 933721944,
  "lat": 48.9166263,
  "lon": 19.4742855
},
{
  "type": "node",
  "id": 933721945,
  "lat": 48.9166874,
  "lon": 19.4742928
}

  ]
}
