{
  "version": 0.6,
  "generator": "Overpass API 0.7.55.1011 6c2efc30",
  "osm3s": {
    "timestamp_osm_base": "2020-02-14T17:23:02Z",
    "copyright": "The data included in this document is from www.openstreetmap.org. The data is made available under ODbL."
  },
  "elements": [

{
  "type": "node",
  "id": 277497280,
  "lat": 55.6849101,
  "lon": 12.5701395,
  "tags": {
    "name": "Arbejdermuseet",
    "name:en": "Worker's Museum",
    "opening_hours": "Mo-Tu 10:00-16:00; We 10:00-19:00; Th-Su 10:00-16:00",
    "phone": "+45 33932575",
    "tourism": "museum",
    "website": "https://www.arbejdermuseet.dk/",
    "wikidata": "Q3365660",
    "wikipedia": "da:Arbejdermuseet"
  }
},
{
  "type": "node",
  "id": 283581117,
  "lat": 55.6747822,
  "lon": 12.5786288,
  "tags": {
    "alt_name:es": "Museo_del_Teatro",
    "amenity": "cafe",
    "fvst:navnelbnr": "110662",
    "name": "Teatermuseet",
    "tourism": "museum",
    "website": "http://www.teatermuseet.dk/",
    "wikidata": "Q3072878"
  }
},
{
  "type": "node",
  "id": 285227204,
  "lat": 55.6721506,
  "lon": 12.5534962,
  "tags": {
    "loc_name": "Bymuseet",
    "museum": "local",
    "name": "Københavns Museum",
    "name:da": "Københavns Museum",
    "name:en": "Museum of Copenhagen",
    "name:fr": "Musée de Copenhague",
    "name:pt": "Museu de Copenhaga",
    "old_name": "Københavns Bymuseum",
    "opening_hours": "mo-su 10:00-17:00",
    "phone": "+45 33210772",
    "tourism": "museum",
    "website": "http://www.copenhagen.dk/",
    "wikidata": "Q2398527",
    "wikipedia": "da:Københavns Museum"
  }
},
{
  "type": "node",
  "id": 496564342,
  "lat": 55.6873712,
  "lon": 12.5880529,
  "tags": {
    "description": "Nyboder mindestuer showcases everyday life in the neighborhood from it's inception in 1631",
    "museum": "local",
    "name": "Nyboder Mindestuer",
    "tourism": "museum"
  }
},
{
  "type": "node",
  "id": 687303281,
  "lat": 55.6763244,
  "lon": 12.5699496,
  "tags": {
    "name": "Ripley's Believe It or Not",
    "tourism": "museum"
  }
},
{
  "type": "node",
  "id": 738986844,
  "lat": 55.6743653,
  "lon": 12.5823025,
  "tags": {
    "name": "Dansk Jødisk Museum",
    "name:da": "Dansk Jødisk Museum",
    "name:de": "Dänisches Jüdisches Museum",
    "name:en": "Danish Jewish Museum",
    "name:fr": "Musée Juif Danois",
    "phone": "+45 33112218",
    "tourism": "museum",
    "website": "https://jewmus.dk/",
    "wheelchair": "yes",
    "wikidata": "Q872947",
    "wikipedia": "da:Dansk Jødisk Museum"
  }
},
{
  "type": "node",
  "id": 894315602,
  "lat": 55.6859579,
  "lon": 12.5918956,
  "tags": {
    "name": "Medicinsk Museion",
    "name:en": "Medical Museion",
    "opening_hours": "We,Fr,Su 12:00-16:00",
    "tourism": "museum",
    "website": "https://www.museion.ku.dk/",
    "wikidata": "Q6806387",
    "wikipedia": "da:Medicinsk Museion"
  }
},
{
  "type": "node",
  "id": 949910419,
  "lat": 55.8395948,
  "lon": 13.3050099,
  "tags": {
    "tourism": "museum"
  }
},
{
  "type": "node",
  "id": 1224762659,
  "lat": 55.6752141,
  "lon": 12.6023368,
  "tags": {
    "name": "Spejdermuseet",
    "tourism": "museum",
    "website": "http://spejdermuseet.dk/"
  }
},
{
  "type": "node",
  "id": 1279089429,
  "lat": 55.7044787,
  "lon": 13.2018560,
  "tags": {
    "contact:website": "http://www.botaniskatradgarden.se/",
    "name": "Botaniska trädgårdens museum",
    "operator": "Lunds universitet",
    "tourism": "museum",
    "website": "http://www.botaniskatradgarden.se/"
  }
},
{
  "type": "node",
  "id": 1291394245,
  "lat": 55.6842896,
  "lon": 12.5822424,
  "tags": {
    "email": "museum@davidmus.dk",
    "fee": "no",
    "name": "Davids Samling",
    "name:en": "The David Collection",
    "opening_hours": "Mo off; Tu,Th-Su 10:00-17:00; We 10:00-21:00",
    "operator": "C.L. Davids Fond og Samling",
    "phone": "+45 33 73 49 49",
    "tourism": "museum",
    "website": "http://davidmus.dk/",
    "wikidata": "Q536499",
    "wikipedia": "da:Davids Samling"
  }
},
{
  "type": "node",
  "id": 1517820296,
  "lat": 55.6900307,
  "lon": 12.5608467,
  "tags": {
    "name": "Politihistorisk Museum",
    "opening_hours": "Mo,We,Fr,Sa off; Tu,Th,Su 11:00-16:00",
    "source": "survey",
    "tourism": "museum",
    "wikidata": "Q11995980"
  }
},
{
  "type": "node",
  "id": 1656756879,
  "lat": 55.6806956,
  "lon": 12.5691197,
  "tags": {
    "tourism": "museum"
  }
},
{
  "type": "node",
  "id": 1812847225,
  "lat": 55.4002384,
  "lon": 12.9827549,
  "tags": {
    "name": "Bärnstensmuseet",
    "name:en": "The Amber Museum",
    "source": "www.brost.se",
    "tourism": "museum"
  }
},
{
  "type": "node",
  "id": 1883166254,
  "lat": 55.7059959,
  "lon": 13.1962677,
  "tags": {
    "addr:city": "Lund",
    "addr:country": "SE",
    "addr:housenumber": "9",
    "addr:street": "Sankt Annegatan",
    "alt_name": "E. H. Larsson Win & Delikatessaffär",
    "contact:phone": "+46-46-211 66 22",
    "contact:website": "http://www.kulturen.com/ovriga-besoksmal/hokeriet/",
    "fee": "no",
    "image": "http://www.kulturen.com/wp-content/uploads/2011/11/H%C3%B6keriet.jpg",
    "name": "Hökeriet",
    "opening_hours": "Sa-Su 12:00-16:00",
    "tourism": "museum",
    "wheelchair": "limited"
  }
},
{
  "type": "node",
  "id": 1901891762,
  "lat": 55.6670602,
  "lon": 13.1722999,
  "tags": {
    "tourism": "museum"
  }
},
{
  "type": "node",
  "id": 1985226638,
  "lat": 55.7089471,
  "lon": 13.1950799,
  "tags": {
    "addr:city": "Lund",
    "addr:country": "SE",
    "addr:housenumber": "5b",
    "addr:street": "Lasarettsgatan",
    "entrance": "yes",
    "name": "Livets Museum",
    "tourism": "museum"
  }
},
{
  "type": "node",
  "id": 2473702013,
  "lat": 55.6724683,
  "lon": 12.5901952,
  "tags": {
    "contact:email": "info@overgaden.org",
    "museum": "art",
    "name": "Overgaden",
    "opening_hours": "Tu-Su 13:00-17:00; Th 13:00-20:00",
    "phone": "+45 32577273",
    "price": "0",
    "tourism": "museum",
    "website": "https://overgaden.org/",
    "wikidata": "Q12330704"
  }
},
{
  "type": "node",
  "id": 2555515937,
  "lat": 55.5935244,
  "lon": 12.6749124,
  "tags": {
    "name": "Danmarks Lodsmuseum",
    "tourism": "museum",
    "wikidata": "Q12307241"
  }
},
{
  "type": "node",
  "id": 2555532563,
  "lat": 55.5951392,
  "lon": 12.6702093,
  "tags": {
    "fee": "no",
    "name": "Dragør Lokalarkiv",
    "tourism": "museum"
  }
},
{
  "type": "node",
  "id": 2712714149,
  "lat": 55.6762959,
  "lon": 12.5640628,
  "tags": {
    "name": "Væggen",
    "name:en": "The Wall",
    "tourism": "museum",
    "website": "http://vaeggen.copenhagen.dk/en/"
  }
},
{
  "type": "node",
  "id": 3203769160,
  "lat": 55.5000984,
  "lon": 13.5219482,
  "tags": {
    "name": "Johannamuseet",
    "tourism": "museum"
  }
},
{
  "type": "node",
  "id": 3404320834,
  "lat": 55.6892100,
  "lon": 12.5823100,
  "tags": {
    "name": "Jónshús",
    "tourism": "museum"
  }
},
{
  "type": "node",
  "id": 3404321018,
  "lat": 55.6823130,
  "lon": 12.5523771,
  "tags": {
    "name": "Musikmuseet",
    "name:en": "The Danish Music Museum",
    "tourism": "museum",
    "wikidata": "Q21107738"
  }
},
{
  "type": "node",
  "id": 3414497893,
  "lat": 55.6059398,
  "lon": 13.0027471,
  "tags": {
    "name": "Teatermuseet",
    "opening_hours": "Th-Su 13:00-16:00",
    "tourism": "museum",
    "wikidata": "Q10576141"
  }
},
{
  "type": "node",
  "id": 3491726139,
  "lat": 55.6972662,
  "lon": 12.5255698,
  "tags": {
    "name": "Barbie Museum",
    "note": "Price: 30 kr.",
    "opening_hours": "\"on appointment\"",
    "phone": "+45 38 10 30 23",
    "source": "http://www.b.dk/kultur/et-dukkehjem-i-nordvest",
    "tourism": "museum"
  }
},
{
  "type": "node",
  "id": 3554343005,
  "lat": 55.6801679,
  "lon": 12.5838463,
  "tags": {
    "name": "Guinness World Records",
    "name:es": "récord Guinness",
    "opening_hours": "Su-Th 10:00-18:00;Fr-Sa 10:00-20:00; Jun 15-Aug 31 10:00-22:00",
    "tourism": "museum",
    "website": "https://www.ripleys.com/copenhagen/da/guinness-world-records/"
  }
},
{
  "type": "node",
  "id": 3599580310,
  "lat": 55.5715454,
  "lon": 13.2065129,
  "tags": {
    "name": "Statarmuseet",
    "tourism": "museum",
    "wikidata": "Q26253299"
  }
},
{
  "type": "node",
  "id": 3726094585,
  "lat": 55.5934259,
  "lon": 12.6754921,
  "tags": {
    "name": "Lodsstationen",
    "tourism": "museum"
  }
},
{
  "type": "node",
  "id": 3858601945,
  "lat": 55.6844546,
  "lon": 12.5924522,
  "tags": {
    "name": "Kongernes Samling Amalienborg",
    "operator": "Kongernes Samling",
    "subject": "history",
    "tourism": "museum",
    "url": "http://www.kongernessamling.dk/amalienborg/",
    "wikidata": "Q11957657",
    "wikipedia": "da:Amalienborgmuseet"
  }
},
{
  "type": "node",
  "id": 3867388207,
  "lat": 55.6858301,
  "lon": 12.5773432,
  "tags": {
    "name": "Kongernes Samling Rosenborg",
    "subject": "history",
    "tourism": "museum",
    "wikidata": "Q11964882",
    "wikipedia": "da:Kongernes Samling"
  }
},
{
  "type": "node",
  "id": 3908208867,
  "lat": 55.7098274,
  "lon": 12.5784022,
  "tags": {
    "name": "Østerbro lille Museum",
    "opening_hours": "Fr 10:00-15:00; Sa-Th off; Dec 16-Jan 10 off",
    "tourism": "museum",
    "website": "http://www.detlillemuseum.dk/",
    "wikidata": "Q84940121",
    "wikimedia_commons": "Category:Østerbro lille Museum"
  }
},
{
  "type": "node",
  "id": 4010329494,
  "lat": 55.6754011,
  "lon": 12.5504716,
  "tags": {
    "fvst:navnelbnr": "560355",
    "name": "Børnemuseet",
    "opening_hours": "Tu-Th 10:00-17:30; Fr-Su 10:00-18:00; Mo off",
    "tourism": "museum",
    "website": "http://boernemuseet.dk/"
  }
},
{
  "type": "node",
  "id": 4305819589,
  "lat": 55.7076122,
  "lon": 12.5277763,
  "tags": {
    "name": "David Risley Gallery",
    "tourism": "museum",
    "website": "http://davidrisleygallery.com"
  }
},
{
  "type": "node",
  "id": 4315966262,
  "lat": 55.6731268,
  "lon": 12.5797395,
  "tags": {
    "description": "museum of royal stone sculptures",
    "name": "Kongernes Lapidarium",
    "name:en": "The Lapidarium of Kings",
    "note": "Kun i 2016?",
    "opening_hours": "May 17-Aug 31 Tu-Su 12:00-16:00",
    "tourism": "museum",
    "website": "http://www.kongerneslapidarium.dk/",
    "wikidata": "Q17166231",
    "wikipedia": "da:Kongernes Lapidarium"
  }
},
{
  "type": "node",
  "id": 4329579150,
  "lat": 55.6787536,
  "lon": 12.5840098,
  "tags": {
    "name": "Magasin du Nord Museum",
    "opening_hours": "Th-Fr 13:00-15:00, Sa-Su 11:00-17:00",
    "subject": "history",
    "tourism": "museum",
    "website": "http://magasinmuseum.dk",
    "wikidata": "Q26225437",
    "wikipedia": "da:Magasin du Nord Museum"
  }
},
{
  "type": "node",
  "id": 4331285861,
  "lat": 55.6775993,
  "lon": 12.5966749,
  "tags": {
    "description:en": "Culture from Iceland, Faroes Islands and Greenland",
    "fee": "yes",
    "fvst:navnelbnr": "528011",
    "name": "Nordatlantens Brygge",
    "opening_hours": "Mo-Fr 10:00-17:00; Sa-Su 12:00-17:00",
    "phone": "+45 3283 3700",
    "tourism": "museum",
    "website": "https://www.nordatlantens.dk/",
    "wikidata": "Q841018"
  }
},
{
  "type": "node",
  "id": 4366628717,
  "lat": 55.6574058,
  "lon": 13.0789652,
  "tags": {
    "addr:country": "SE",
    "addr:housenumber": "3",
    "addr:street": "Elevenborgsvägen",
    "name": "Alnarps Lantbruksmuseum",
    "tourism": "museum",
    "website": "http://www.alnarpsmuseerna.se/"
  }
},
{
  "type": "node",
  "id": 4460696827,
  "lat": 55.7101065,
  "lon": 12.5995141,
  "tags": {
    "name": "Faurschou Foundation",
    "opening_hours": "Tu-Fr 11:00-18:00",
    "tourism": "museum",
    "website": "http://www.faurschou.com"
  }
},
{
  "type": "node",
  "id": 4575935485,
  "lat": 55.6762498,
  "lon": 12.5701546,
  "tags": {
    "name": "H.C. Andersen Museum",
    "tourism": "museum",
    "website": "https://www.ripleys.com/copenhagen/hc-andersen/"
  }
},
{
  "type": "node",
  "id": 4596217357,
  "lat": 55.7019168,
  "lon": 12.5756085,
  "tags": {
    "fee": "yes",
    "museum": "one of the oldest coop stores in Denmark",
    "name": "Brumleby Museum",
    "opening_hours": "Su 11:00-15:00",
    "tourism": "museum",
    "website": "http://www.brumlebymuseum.dk/"
  }
},
{
  "type": "node",
  "id": 4809605098,
  "lat": 55.7267014,
  "lon": 12.5800624,
  "tags": {
    "email": "info@experimentarium.dk",
    "fvst:navnelbnr": "921756",
    "name": "Experimentarium",
    "phone": "+4539273333",
    "tourism": "museum",
    "website": "https://www.experimentarium.dk/",
    "wikidata": "Q12310799"
  }
},
{
  "type": "node",
  "id": 4881558364,
  "lat": 55.7081968,
  "lon": 12.5979173,
  "tags": {
    "name": "Himmel og Hav",
    "tourism": "museum",
    "website": "http://www.nordhavnen.dk/oplev+nordhavnen/udstilling.aspx"
  }
},
{
  "type": "node",
  "id": 4895458698,
  "lat": 55.6047507,
  "lon": 12.9869844,
  "tags": {
    "addr:city": "Malmö",
    "addr:country": "SE",
    "addr:housenumber": "6",
    "addr:postcode": "211 18",
    "addr:street": "Malmöhusvägen",
    "name": "Malmö Museer Slottsholmen",
    "phone": "+46-40-344438",
    "tourism": "museum",
    "wheelchair": "yes"
  }
},
{
  "type": "node",
  "id": 4959567012,
  "lat": 55.6716950,
  "lon": 12.5496090,
  "tags": {
    "amenity": "cafe",
    "fvst:navnelbnr": "736512",
    "museum": "Manuel Mustapha Tafat",
    "name": "Mosaic - Gallery og Cafe",
    "office": "organization",
    "opening_hours": "09:00-18:00; Sa-Su 11:00-17:00",
    "phone": "+45 60694696",
    "tourism": "museum",
    "website": "https://www.artandcolour.dk/"
  }
},
{
  "type": "node",
  "id": 5175810623,
  "lat": 55.6873130,
  "lon": 12.5769992,
  "tags": {
    "fixme": "I præcist hvilke bygninger holder museet til?",
    "name": "Statens Naturhistoriske Museum",
    "name:en": "Danish Natural History Museum",
    "name:es": "Museo de Historia Natural de Dinamarca",
    "opening_hours": "Tu-Su 10:00-16:00",
    "tourism": "museum",
    "website": "https://snm.ku.dk/",
    "wikidata": "Q978464",
    "wikipedia": "da:Statens Naturhistoriske Museum"
  }
},
{
  "type": "node",
  "id": 5349775440,
  "lat": 55.5827535,
  "lon": 13.0103432,
  "tags": {
    "addr:city": "Malmö",
    "addr:country": "SE",
    "addr:housenumber": "15",
    "addr:street": "Ystadvägen",
    "name": "Oscar Olsson-museet",
    "tourism": "museum",
    "website": "http://www.oomuseet.se/",
    "wikidata": "Q17487669",
    "wikipedia": "sv:Oscar Olsson-museet"
  }
},
{
  "type": "node",
  "id": 5424355522,
  "lat": 55.6737818,
  "lon": 12.5969554,
  "tags": {
    "alt_name": "Stadens Museum for Kunst",
    "museum": "art",
    "name": "Gallopperiet",
    "name:en": "Christiania Art Gallery",
    "opening_hours": "Tu-Su 14:00-19:00",
    "tourism": "museum",
    "website": "http://www.gallopperiet.dk/"
  }
},
{
  "type": "node",
  "id": 5522015289,
  "lat": 55.5889206,
  "lon": 13.5602833,
  "tags": {
    "name": "Lilla Rödde Museum",
    "tourism": "museum",
    "wikidata": "Q28934203"
  }
},
{
  "type": "node",
  "id": 5936280185,
  "lat": 55.6719886,
  "lon": 12.5790588,
  "tags": {
    "email": "info@dac.dk",
    "internet_access": "wlan",
    "name": "Dansk Arkitektur Center",
    "phone": "+45 4532571930",
    "tourism": "museum",
    "website": "https://www.dac.dk/",
    "wikidata": "Q3434214",
    "wikipedia": "da:Dansk Arkitektur Center"
  }
},
{
  "type": "node",
  "id": 5951744375,
  "lat": 55.6924980,
  "lon": 12.6131567,
  "tags": {
    "fvst:navnelbnr": "763447",
    "name": "Copenhagen Contemporary",
    "tourism": "museum",
    "website": "http://cphco.org/",
    "wikidata": "Q62623077",
    "wikipedia": "sv:Copenhagen Contemporary"
  }
},
{
  "type": "node",
  "id": 5993493203,
  "lat": 55.7070836,
  "lon": 13.1990561,
  "tags": {
    "addr:city": "Lund",
    "addr:country": "SE",
    "addr:housenumber": "3",
    "addr:postcode": "221 00",
    "addr:street": "Biskopsgatan",
    "name": "Antikmuseet",
    "tourism": "museum",
    "website": "http://bevaringsprogram.lund.se/wiki/bevaringsprogram/index.php/Klassiska_institutionen_och_Antikmuseet"
  }
},
{
  "type": "node",
  "id": 6171911185,
  "lat": 55.6110068,
  "lon": 13.0032287,
  "tags": {
    "addr:country": "SE",
    "addr:housenumber": "12",
    "addr:postcode": "21120",
    "addr:street": "Carlsgatan",
    "name:en": "Disgusting Food Museum",
    "opening_hours": "We-Su 12:00-18:00",
    "tourism": "museum",
    "website": "https://disgustingfoodmuseum.com/malmo/"
  }
},
{
  "type": "node",
  "id": 6614536664,
  "lat": 55.4978455,
  "lon": 13.4376142,
  "tags": {
    "name": "Flygmuseum Stenbäcks",
    "name:ru": "Музей авиации Стенбекс",
    "tourism": "museum"
  }
},
{
  "type": "node",
  "id": 6797013185,
  "lat": 55.6045029,
  "lon": 12.9992059,
  "tags": {
    "name:en": "Form Design centre",
    "tourism": "museum"
  }
},
{
  "type": "way",
  "id": 25451113,
  "nodes": [
    277356009,
    283572722,
    1223734857,
    1223733814,
    277356011,
    283572742,
    277356012,
    277356009
  ],
  "tags": {
    "building": "yes",
    "museum": "military",
    "name": "Krigsmuseet",
    "name:de": "Zeughausmuseum",
    "name:en": "Danish War Museum",
    "name:fi": "Tanskan sotamuseo",
    "tourism": "museum",
    "url": "https://natmus.dk/museer-og-slotte/krigsmuseet/",
    "wheelchair": "yes",
    "wikidata": "Q653100",
    "wikipedia": "da:Krigsmuseet"
  }
},
{
  "type": "way",
  "id": 25451349,
  "nodes": [
    277357499,
    277357500,
    277357501,
    277357502,
    277357503,
    4186875482,
    4186875473,
    277357504,
    277357505,
    277357507,
    277357499
  ],
  "tags": {
    "building": "yes",
    "name": "Geologisk Museum",
    "name:da": "Geologisk Museum",
    "name:de": "Geologisches Museum",
    "name:sv": "Geologisk Museum, Köpenhamn",
    "operator": "Københavns Universitet",
    "tourism": "museum",
    "website": "https://geologi.snm.ku.dk/",
    "wheelchair": "no",
    "wikidata": "Q3275232",
    "wikipedia": "da:Geologisk Museum"
  }
},
{
  "type": "way",
  "id": 25451373,
  "nodes": [
    277357678,
    1479146133,
    1479146139,
    340549978,
    1479146142,
    1479146140,
    277357679,
    277357680,
    1479146130,
    1479146128,
    1479146136,
    1479146134,
    277357681,
    277357678
  ],
  "tags": {
    "building": "yes",
    "contact:email": "dhs@hirschsprung.dk",
    "contact:phone": "+45 3542 0336",
    "description:en": "The museum hosts an impressive collection of Danish 19th-century art in a beautiful building displaying furniture from the artists homes.",
    "museum": "art",
    "name": "Den Hirschsprungske Samling",
    "name:da": "Den Hirschsprungske Samling",
    "name:de": "Die Sammlung Hirschsprung",
    "name:en": "Hirschsprung Collection",
    "name:es": "Colección Hirschsprung",
    "name:fr": "Collection Hirschsprung",
    "name:ja": "ヒアシュプロング美術館",
    "tourism": "museum",
    "wheelchair": "yes",
    "wikidata": "Q2982867",
    "wikipedia": "da:Den Hirschsprungske Samling"
  }
},
{
  "type": "way",
  "id": 25451395,
  "nodes": [
    277357724,
    1330913774,
    1330913943,
    1330913730,
    1330913890,
    7084018441,
    1330913904,
    1330913795,
    1330913859,
    1330913744,
    277357725,
    1330913875,
    1330913961,
    1330913918,
    1330913756,
    277357726,
    278328201,
    278328161,
    277357727,
    1330913834,
    1330913731,
    277357724
  ],
  "tags": {
    "building": "yes",
    "museum": "art",
    "name": "Statens Museum for Kunst",
    "name:be": "Дзяржаўны музей мастацтваў",
    "name:da": "Statens Museum for Kunst",
    "name:de": "Staatliches Kunstmuseum",
    "name:en": "National Gallery of Art",
    "name:eo": "Nacia Artmuzeo de Danio",
    "name:es": "Galeria Nacional de Arte",
    "name:ja": "コペンハーゲン国立美術館",
    "name:pt": "Museu Nacional de Arte da Dinamarca",
    "name:ru": "Государственный музей искусств",
    "name:zh": "國家美術館",
    "toilets:wheelchair": "yes",
    "tourism": "museum",
    "website": "https://www.smk.dk/",
    "wheelchair": "yes",
    "wikidata": "Q671384",
    "wikipedia": "da:Statens Museum for Kunst"
  }
},
{
  "type": "way",
  "id": 25524570,
  "nodes": [
    278164385,
    278164386,
    278164387,
    278164388,
    278164385
  ],
  "tags": {
    "building": "yes",
    "name": "Botanisk Museum",
    "name:da": "Botanisk Museum",
    "name:de": "Botanisches Museum",
    "name:en": "Botanical Museum",
    "tourism": "museum",
    "wikidata": "Q5168497",
    "wikimedia_commons": "Category:Botanisk Museum"
  }
},
{
  "type": "way",
  "id": 25524744,
  "nodes": [
    278167146,
    278167148,
    3357426574,
    3357426573,
    3357426575,
    3357426576,
    278167149,
    278167150,
    278167146
  ],
  "tags": {
    "architect": "C.F. Harsdorff",
    "architect:wikipedia": "da:C.F. Harsdorff",
    "building": "yes",
    "name": "Den Kongelige Afstøbningssamling",
    "old_name": "Vestindisk Pakhus",
    "old_name:wikipedia": "da:Vestindisk Pakhus",
    "operator": "SMK",
    "tourism": "museum",
    "website": "https://www.smk.dk/besoeg-museet/udstillinger/den-kgl-afstoebningssamling/",
    "wikidata": "Q11965101",
    "wikipedia": "da:Den Kongelige Afstøbningssamling"
  }
},
{
  "type": "way",
  "id": 25657488,
  "nodes": [
    279696555,
    279696556,
    1020890914,
    5914568861,
    1020890979,
    4332888090,
    4332888089,
    4332887886,
    4332887888,
    279696557,
    4332888091,
    4332888092,
    279696558,
    4332888093,
    4332888094,
    279696555
  ],
  "tags": {
    "building": "yes",
    "description": "This museum is run by the University of Copenhagen. In the exhibitions, you can experience how the fauna changes as you travel from the North Pole to the South Pole",
    "name": "Zoologisk Museum",
    "opening_hours": "Tu-Su 10:00-16:00",
    "phone": "+45 35322222",
    "tourism": "museum",
    "website": "https://zoologi.snm.ku.dk/",
    "wikidata": "Q220274",
    "wikipedia": "da:Zoologisk Museum"
  }
},
{
  "type": "way",
  "id": 26543143,
  "nodes": [
    290925845,
    3013003684,
    290925846,
    290925790,
    3013003683,
    442948297,
    442948299,
    442948296,
    290925848,
    290926000,
    290925939,
    290925852,
    290925845
  ],
  "tags": {
    "building": "yes",
    "name": "Visit Carlsberg",
    "opening_hours": "Tu-Su 10:00-20:00",
    "tourism": "museum",
    "website": "http://www.visitcarlsberg.dk/"
  }
},
{
  "type": "way",
  "id": 28463593,
  "nodes": [
    312710909,
    2653432011,
    5908150498,
    5908150497,
    5908150496,
    5908150495,
    3207955219,
    312710910,
    894446151,
    312710912,
    2653432013,
    312710909
  ],
  "tags": {
    "alt_name": "Tivolislottet",
    "building": "yes",
    "name": "H.C. Andersen Slottet",
    "name:ru": "Музей Андерсена",
    "tourism": "museum",
    "wikidata": "Q11973533",
    "wikipedia": "da:H.C. Andersen Slottet"
  }
},
{
  "type": "way",
  "id": 29856773,
  "nodes": [
    329006869,
    329006871,
    329006872,
    329006874,
    329006869
  ],
  "tags": {
    "building": "yes",
    "name": "Kommendanthuset",
    "tourism": "museum",
    "wheelchair": "yes",
    "wikidata": "Q17487666",
    "wikipedia": "sv:Kommendanthuset"
  }
},
{
  "type": "way",
  "id": 32876564,
  "nodes": [
    370319434,
    853524183,
    370319436,
    370319437,
    370319434
  ],
  "tags": {
    "building": "yes",
    "name": "Dragør Museum",
    "tourism": "museum",
    "url": "http://museumamager.dk/index.php/en/dragor-museum",
    "wikidata": "Q56613132"
  }
},
{
  "type": "way",
  "id": 39440935,
  "nodes": [
    472412850,
    472412853,
    472412854,
    1373851650,
    1373851647,
    472412856,
    3502026171,
    472412850
  ],
  "tags": {
    "addr:city": "Lund",
    "addr:country": "SE",
    "addr:housenumber": "1",
    "addr:street": "Krafts torg",
    "building": "yes",
    "name": "Historiska museet",
    "operator": "Lunds universitet",
    "tourism": "museum",
    "wheelchair": "limited",
    "wikidata": "Q3330592"
  }
},
{
  "type": "way",
  "id": 50139701,
  "nodes": [
    637290874,
    637290897,
    637290914,
    637290945,
    637290967,
    637290987,
    637291007,
    637291025,
    637291044,
    637300165,
    637291080,
    637291106,
    637291130,
    637291169,
    2582227199,
    637291202,
    637291230,
    637290874
  ],
  "tags": {
    "building": "yes",
    "name": "Teknikens och sjöfartens hus",
    "phone": "+46-40-344438",
    "toilets:wheelchair": "yes",
    "tourism": "museum",
    "wheelchair": "yes",
    "wikidata": "Q10692063",
    "wikipedia": "sv:Teknikens och sjöfartens hus"
  }
},
{
  "type": "way",
  "id": 54179971,
  "nodes": [
    683407148,
    683407113,
    683407117,
    683407134,
    683407149,
    683407148
  ],
  "tags": {
    "name": "Falsterbo museum",
    "tourism": "museum",
    "wikidata": "Q1252030"
  }
},
{
  "type": "way",
  "id": 54180106,
  "nodes": [
    683408703,
    683408705,
    683408699,
    683408706,
    683408708,
    683408702,
    683408707,
    683408700,
    683408704,
    2364694592,
    2364694593,
    683408709,
    683408703
  ],
  "tags": {
    "building": "yes",
    "name": "Andreas Lundbergagården",
    "tourism": "museum",
    "wikidata": "Q28934130"
  }
},
{
  "type": "way",
  "id": 58858370,
  "nodes": [
    729262156,
    2447798410,
    2447798413,
    2447798412,
    2447798418,
    2447798420,
    2447798419,
    2447798423,
    729262206,
    729262120,
    2447790990,
    2447790992,
    2447790991,
    2447790989,
    729262156
  ],
  "tags": {
    "building": "yes",
    "name": "Trelleborgs museum",
    "tourism": "museum",
    "wheelchair": "yes"
  }
},
{
  "type": "way",
  "id": 88300237,
  "nodes": [
    1025606189,
    1029488872,
    3465709223,
    3465709245,
    3465709236,
    1029489115,
    1029489121,
    1029489141,
    1029489035,
    3465709221,
    3465709217,
    3465709213,
    3465709211,
    3465709212,
    3465709214,
    3465709219,
    3465709222,
    3465709225,
    1025606091,
    4697696344,
    4697696343,
    4697696346,
    4697696345,
    3465709247,
    3465709249,
    4697696348,
    4697696349,
    1025606189
  ],
  "tags": {
    "building": "yes",
    "name": "Skissernas museum",
    "operator": "Lunds universitet",
    "source": "Bing",
    "tourism": "museum",
    "wikidata": "Q683097"
  }
},
{
  "type": "way",
  "id": 93473493,
  "nodes": [
    795771514,
    795771336,
    795771584,
    795771561,
    795771342,
    544488804,
    795533901,
    1029437442,
    1029436417,
    795771426,
    795771226,
    3482232625,
    795771144,
    795771286,
    795771549,
    1240875369,
    1240875564,
    795771236,
    795771133,
    1974471223,
    1974471217,
    1974471213,
    1974471203,
    795771232,
    795771494,
    795771296,
    795771474,
    795771438,
    795771121,
    795771127,
    795771146,
    795771315,
    795771202,
    795771323,
    1973878964,
    795792139,
    1973878992,
    3770909741,
    1974471241,
    1974471243,
    795771264,
    795771250,
    795771326,
    795771235,
    795771559,
    795771577,
    795771514
  ],
  "tags": {
    "alt_name": "Kulturhistoriska museet",
    "contact:website": "http://www.kulturen.com/",
    "museum": "history",
    "name": "Kulturen",
    "official_name": "Kulturhistoriska föreningen för södra Sverige",
    "opening_hours": "May-Aug: Mo-Su 10:00-17:00; Sep-Apr: Tu-Su 12:00-16:00; Sep-Apr: Mo off; Dec 24,Dec 25,Dec 31,Jan 1 off",
    "start_date": "1892",
    "tourism": "museum",
    "wikidata": "Q1363442",
    "wikipedia": "sv:Kulturen"
  }
},
{
  "type": "way",
  "id": 104486877,
  "nodes": [
    1205566228,
    1205566241,
    1205566210,
    1205566227,
    1205566225,
    1205566196,
    1205566144,
    1205566147,
    1205566185,
    1205566245,
    1205566228
  ],
  "tags": {
    "building": "yes",
    "description": "Danmarks Ældste Radiostation",
    "name": "OXA",
    "tourism": "museum",
    "website": "http://www.oxa.dk/",
    "wikidata": "Q11993007",
    "wikipedia": "da:OXA"
  }
},
{
  "type": "way",
  "id": 104505568,
  "nodes": [
    1205736061,
    1205735932,
    4665271396,
    4665271395,
    4665271398,
    4620754558,
    1205736046,
    1205736191,
    3798545701,
    1205736136,
    1205736061
  ],
  "tags": {
    "alt_name:es": "Real_Museo_Naval",
    "building": "yes",
    "museum": "maritime",
    "name": "Orlogsmuseet",
    "tourism": "museum",
    "wikidata": "Q3375972",
    "wikipedia": "da:Orlogsmuseet"
  }
},
{
  "type": "way",
  "id": 104564097,
  "nodes": [
    1206449828,
    1206449531,
    1206449570,
    1206449522,
    3624957931,
    2116275796,
    1206449876,
    1206449873,
    1206449869,
    1206449867,
    1206449749,
    1206449726,
    1206449753,
    1206449591,
    1206449573,
    1206449556,
    1206449558,
    1206449828
  ],
  "tags": {
    "building": "yes",
    "comment": "Book tour in advance",
    "contact:email": "undervisning@natmus.dk",
    "name": "Lille Mølle",
    "phone": "+45 41206066",
    "tourism": "museum",
    "website": "http://natmus.dk/tre-historiske-hjem/lille-moelle/",
    "wikidata": "Q12061168",
    "wikipedia": "da:Lille Mølle"
  }
},
{
  "type": "way",
  "id": 113974090,
  "nodes": [
    1291669508,
    1291669576,
    283649347,
    1291669510,
    1291669598,
    1291669590,
    1291669518,
    1291669536,
    1291669535,
    1291669520,
    1291669577,
    1291669583,
    1291669508
  ],
  "tags": {
    "building": "yes",
    "description:en": "This art exhibition was established in 1891, as a protest against a censored exhibition sponsored by the royal art board — hence the name. Mainly shows contemporary art",
    "fee": "yes",
    "museum": "art",
    "name": "Den Frie Udstilling",
    "tourism": "museum",
    "wikidata": "Q3022270",
    "wikipedia": "da:Den Frie"
  }
},
{
  "type": "way",
  "id": 141759800,
  "nodes": [
    1551737638,
    1551737548,
    1551737554,
    1551737605,
    1551737608,
    1551737648,
    1551737638
  ],
  "tags": {
    "building": "yes",
    "name": "Storm P. Museet",
    "opening_hours": "Tu-Sa 10:00-16:00",
    "tourism": "museum",
    "wheelchair": "no",
    "wikidata": "Q3433002",
    "wikipedia": "da:Storm P. Museet"
  }
},
{
  "type": "way",
  "id": 147007470,
  "nodes": [
    1602042919,
    1602042891,
    1602042762,
    1602042915,
    1602042919
  ],
  "tags": {
    "building": "yes",
    "name": "Revymuseet",
    "tourism": "museum",
    "wikidata": "Q3432921",
    "wikipedia": "da:Alhambra - Museet for humor og satire"
  }
},
{
  "type": "way",
  "id": 150092019,
  "nodes": [
    4737200924,
    1630153827,
    1630153795,
    1793450871,
    1793450874,
    4737200924
  ],
  "tags": {
    "fvst:name": "Bakkehuset",
    "fvst:navnelbnr": "697207",
    "name": "Bakkehusmuseet",
    "tourism": "museum",
    "website": "https://www.bakkehusmuseet.dk/",
    "wikidata": "Q3434260",
    "wikipedia": "da:Bakkehusmuseet"
  }
},
{
  "type": "way",
  "id": 166353796,
  "nodes": [
    1778048294,
    1579873537,
    1778048297,
    1778048299,
    1778048294
  ],
  "tags": {
    "building": "yes",
    "location": "underground",
    "museum": "art",
    "name": "Cisternerne",
    "name:fr": "Citerne",
    "tourism": "museum",
    "wikidata": "Q3432620",
    "wikipedia": "da:Cisternerne"
  }
},
{
  "type": "way",
  "id": 176714011,
  "nodes": [
    507939401,
    507939414,
    7068114841,
    7068114840,
    7068114839,
    4596426279,
    507939412,
    507939411,
    507939407,
    1871908160,
    7068114843,
    7068114842,
    507939401
  ],
  "tags": {
    "alt_name": "Museum for Post, Tele og Kommunikation",
    "building": "office",
    "building:levels": "3",
    "name": "Enigma",
    "old_name": "Østerbro Posthus",
    "opening_hours": "11:00-21:00; Fr 08:00-18:00; Sa-Su 10:00-16:00",
    "phone": "+45 33410900",
    "tourism": "museum",
    "website": "https://www.enigma.dk/",
    "wikidata": "Q28226147",
    "wikipedia": "da:Enigma (museum)"
  }
},
{
  "type": "way",
  "id": 184070826,
  "nodes": [
    1945024344,
    1945024345,
    1945024341,
    1945024343,
    1945024346,
    1945024348,
    1945024344
  ],
  "tags": {
    "building": "yes",
    "name": "DieselHouse",
    "tourism": "museum",
    "website": "http://www.dieselhouse.dk/",
    "wikidata": "Q5275006",
    "wikipedia": "da:DieselHouse"
  }
},
{
  "type": "way",
  "id": 208001743,
  "nodes": [
    2182978071,
    2182977959,
    2182977963,
    2182978075,
    2182978071
  ],
  "tags": {
    "name": "Möllegården kultur",
    "tourism": "museum"
  }
},
{
  "type": "way",
  "id": 211680568,
  "nodes": [
    2216508089,
    2216508093,
    2216508115,
    2216508113,
    2216508089
  ],
  "tags": {
    "building": "yes",
    "museum": "person",
    "tourism": "museum",
    "wikidata": "Q28934230"
  }
},
{
  "type": "way",
  "id": 231814765,
  "nodes": [
    2401456466,
    5052317539,
    2401456476,
    5052317537,
    5052317538,
    2401456506,
    2401456582,
    2401456663,
    2401456682,
    2401456696,
    2401456698,
    2401456694,
    2401456677,
    2401456669,
    2401456659,
    2401456587,
    2401456546,
    2401456532,
    2401456528,
    1088096433,
    1088096422,
    5052317531,
    5052317532,
    1088096421,
    5052317533,
    1088096420,
    2401456468,
    5052317540,
    2401456466
  ],
  "tags": {
    "contact:email": "info@foteviken.se",
    "contact:phone": "+46 40 330800",
    "contact:website": "http://www.fotevikensmuseum.se/",
    "name": "Fotevikens vikingamuseum",
    "tourism": "museum"
  }
},
{
  "type": "way",
  "id": 235266211,
  "nodes": [
    2433517207,
    2433517208,
    2433517205,
    2433517206,
    2433517201,
    2433517200,
    2433517202,
    2433517203,
    2433517207
  ],
  "tags": {
    "addr:city": "Löddeköpinge",
    "addr:country": "SE",
    "addr:housenumber": "12",
    "addr:street": "Landskronavägen",
    "building": "yes",
    "name": "Skolmuseet i Löddeköpinge",
    "tourism": "museum"
  }
},
{
  "type": "way",
  "id": 236809548,
  "nodes": [
    2447800397,
    2447800400,
    2447800398,
    2447800385,
    2447800386,
    2447800383,
    2447800387,
    2447800401,
    2447800397
  ],
  "tags": {
    "building": "museum",
    "building:colour": "firebrick",
    "building:material": "brick",
    "name": "Axel Ebbes Konsthall",
    "roof:material": "copper",
    "start_date": "1935",
    "tourism": "museum",
    "website": "https://www.trelleborg.se/sv/uppleva-gora/kultur/axel-ebbes-konsthall/",
    "wikidata": "Q10423688",
    "wikipedia": "sv:Axel Ebbes Konsthall"
  }
},
{
  "type": "way",
  "id": 237117065,
  "nodes": [
    2450649125,
    2450649090,
    2450649074,
    2450649103,
    2450649125
  ],
  "tags": {
    "building": "yes",
    "name": "Landskrona museum",
    "tourism": "museum",
    "wikidata": "Q1253439"
  }
},
{
  "type": "way",
  "id": 256464711,
  "nodes": [
    2621288351,
    2621288462,
    2621288347,
    2621288257,
    2621288351
  ],
  "tags": {
    "building": "yes",
    "fee": "no",
    "name": "Saltholms Museum",
    "tourism": "museum",
    "wikimedia_commons": "File:SaltholmMuseum.jpg"
  }
},
{
  "type": "way",
  "id": 264570191,
  "nodes": [
    2702347711,
    2702347708,
    2702347705,
    2702347704,
    2702347707,
    2702347710,
    2702347712,
    2702347717,
    2702347720,
    2702347726,
    2702347724,
    2702347727,
    2702347730,
    2702347732,
    2702347733,
    2702347736,
    1478887926,
    266497631,
    5964591503,
    1478887893,
    5964591504,
    266497632,
    5964591505,
    2702347740,
    266497633,
    2702347738,
    522430416,
    1219207467,
    1219207537,
    266497635,
    522430411,
    266497636,
    2702347729,
    2702347725,
    2702347728,
    266497638,
    2702347722,
    1478887914,
    2702347718,
    2702347714,
    266497639,
    2702347709,
    2702347702,
    2702347699,
    2702347697,
    2702347698,
    2702347700,
    2702347706,
    2702347701,
    2702347711
  ],
  "tags": {
    "building": "yes",
    "name": "Palmehuset",
    "name:da": "Palmehuset",
    "name:de": "Palmenhaus",
    "name:en": "The Palm House",
    "name:fr": "Palmeraie",
    "tourism": "museum",
    "wheelchair": "limited",
    "wikidata": "Q17344241",
    "wikimedia_commons": "File:Botanisk have drivhus 2.jpg"
  }
},
{
  "type": "way",
  "id": 308557140,
  "nodes": [
    3138211606,
    3138211633,
    3138211639,
    3138211258,
    3138211256,
    3138211249,
    3138211523,
    3138211597,
    3138211600,
    3138211606
  ],
  "tags": {
    "building": "yes",
    "name": "Mølsteds Museum",
    "tourism": "museum"
  }
},
{
  "type": "way",
  "id": 360706967,
  "nodes": [
    3652670105,
    3652670110,
    3652670104,
    3652670109,
    3652670106,
    3652670112,
    3652670102,
    3652670107,
    3652670108,
    3652670111,
    3652670103,
    3652670105
  ],
  "tags": {
    "name": "Amagermuseet",
    "phone": "+45 30 10 88 69",
    "tourism": "museum",
    "website": "https://museumamager.dk/",
    "wikidata": "Q12301240",
    "wikipedia": "da:Amagermuseet"
  }
},
{
  "type": "way",
  "id": 367503944,
  "nodes": [
    3714215575,
    3714215576,
    3714215577,
    3714215578,
    3714215579,
    3714215580,
    3714215581,
    3714215582,
    3714215583,
    3714215584,
    3714215585,
    3714215586,
    3714215587,
    3714215575
  ],
  "tags": {
    "building": "yes",
    "name": "Elisabeth K571",
    "tourism": "museum"
  }
},
{
  "type": "way",
  "id": 415756575,
  "nodes": [
    4167236867,
    4167236861,
    4167236862,
    4167236856,
    4167236859,
    4167236874,
    4167236875,
    4167236879,
    4167236878,
    4167236873,
    4167236872,
    4167236869,
    4167236867
  ],
  "tags": {
    "building": "yes",
    "building:levels": "2",
    "name": "Øregaard Museum",
    "tourism": "museum",
    "wikidata": "Q3430210",
    "wikipedia": "da:Øregaard Museum"
  }
},
{
  "type": "way",
  "id": 495825859,
  "nodes": [
    4875620599,
    4875620598,
    4875620597,
    4875620596,
    4875620599
  ],
  "tags": {
    "addr:city": "Eslöv",
    "addr:country": "SE",
    "addr:housenumber": "2",
    "addr:place": "Eslövs flygplats",
    "addr:postcode": "241 40",
    "addr:street": "Flygfältsvägen",
    "building": "yes",
    "name": "Mellanskånes Hemvärnsmuseum",
    "tourism": "museum"
  }
},
{
  "type": "way",
  "id": 595835662,
  "nodes": [
    1445841715,
    1445841735,
    1445841736,
    1445841737,
    1445841738,
    2446937908,
    1445841739,
    1445841740,
    2446937911,
    2446937905,
    1445841715
  ],
  "tags": {
    "historic": "archaeological_site",
    "name": "Trelleborgen",
    "site_type": "fortification",
    "tourism": "museum",
    "wikidata": "Q2451282",
    "wikipedia": "sv:Vikingaborgen i Trelleborg"
  }
},
{
  "type": "way",
  "id": 622466023,
  "nodes": [
    5879580522,
    5879580521,
    5879580520,
    5879580519,
    5879580518,
    5879580517,
    5879580516,
    5879580515,
    5879580514,
    5879580513,
    5879580512,
    5879580511,
    5879580510,
    5879580522
  ],
  "tags": {
    "name": "Soldattorpet",
    "operator": "Limhamns museieförening",
    "tourism": "museum"
  }
},
{
  "type": "way",
  "id": 681243145,
  "nodes": [
    6379423476,
    6379423478,
    6379423477,
    6379423479,
    6379423476
  ],
  "tags": {
    "building": "yes",
    "name": "Ebbas hus",
    "tourism": "museum",
    "wikidata": "Q10478963",
    "wikipedia": "sv:Ebbas hus"
  }
},
{
  "type": "relation",
  "id": 1322262,
  "members": [
    {
      "type": "way",
      "ref": 25452023,
      "role": "outer"
    },
    {
      "type": "way",
      "ref": 89696806,
      "role": "inner"
    },
    {
      "type": "way",
      "ref": 314828179,
      "role": "inner"
    },
    {
      "type": "way",
      "ref": 314828177,
      "role": "inner"
    }
  ],
  "tags": {
    "building": "yes",
    "email": "info@glyptoteket.dk",
    "museum": "art",
    "name": "Ny Carlsberg Glyptotek",
    "name:da": "Ny Carlsberg Glyptotek",
    "name:es": "Gliptoteca Ny Carlsberg",
    "name:fr": "Glyptothèque Ny Carlsberg",
    "name:ja": "ニイ・カールスベルグ・グリプトテク美術館",
    "name:ko": "글립토테크 미술관",
    "name:pt": "Gliptoteca Ny Carlsberg",
    "name:ru": "Новая глиптотека Карлсберга",
    "name:uk": "Нова гліптотека Карлсберга",
    "opening_hours": "Tu-We, Fr-Su 11:00-18:00; Th 11:00-22:00",
    "phone": "+ 45 3341 8141",
    "tourism": "museum",
    "type": "multipolygon",
    "website": "https://www.glyptoteket.dk/",
    "wikidata": "Q1140507",
    "wikipedia": "da:Ny Carlsberg Glyptotek"
  }
},
{
  "type": "relation",
  "id": 1364131,
  "members": [
    {
      "type": "way",
      "ref": 93981885,
      "role": "inner"
    },
    {
      "type": "way",
      "ref": 93981881,
      "role": "outer"
    }
  ],
  "tags": {
    "addr:city": "Lund",
    "addr:country": "SE",
    "addr:housenumber": "3b",
    "addr:street": "Mårtenstorget",
    "amenity": "arts_centre",
    "building": "yes",
    "name": "Konsthallen",
    "tourism": "museum",
    "type": "multipolygon"
  }
},
{
  "type": "relation",
  "id": 1989714,
  "members": [
    {
      "type": "way",
      "ref": 147340117,
      "role": "inner"
    },
    {
      "type": "way",
      "ref": 25452046,
      "role": "outer"
    },
    {
      "type": "way",
      "ref": 147340120,
      "role": "inner"
    },
    {
      "type": "way",
      "ref": 147340119,
      "role": "inner"
    },
    {
      "type": "way",
      "ref": 417635088,
      "role": "inner"
    }
  ],
  "tags": {
    "alt_name": "Prinsens Palæ",
    "building": "yes",
    "name": "Nationalmuseet",
    "name:ca": "Museu Nacional de Dinamarca",
    "name:da": "Nationalmuseet",
    "name:de": "Dänisches Nationalmuseum",
    "name:en": "National Museum of Denmark",
    "name:es": "Museo Nacional de Dinamarca",
    "name:fi": "Tanskan kansallismuseo",
    "name:fr": "Musée national du Danemark",
    "name:hu": "Dán Nemzeti Múzeum",
    "name:id": "Museum Nasional Denmark",
    "name:it": "Museo nazionale danese",
    "name:ja": "デンマーク国立博物館",
    "name:ko": "국립박물관",
    "name:ru": "Датский национальный музей",
    "name:sv": "Nationalmuseet i Köpenhamn",
    "name:tr": "Danimarka Millî Müzesi",
    "opening_hours": "Tu-Su 10:00-17:00",
    "phone": "+45 33134411",
    "tourism": "museum",
    "type": "multipolygon",
    "website": "https://natmus.dk/",
    "wheelchair": "yes",
    "wikidata": "Q648166",
    "wikipedia": "da:Nationalmuseet"
  }
},
{
  "type": "relation",
  "id": 2351676,
  "members": [
    {
      "type": "way",
      "ref": 25451038,
      "role": "outer"
    },
    {
      "type": "way",
      "ref": 176142680,
      "role": "inner"
    }
  ],
  "tags": {
    "building": "yes",
    "building:colour": "#cb976e",
    "height": "18",
    "museum": "art",
    "name": "Thorvaldsens Museum",
    "name:de": "Thorvaldsen-Museum",
    "name:en": "Thorvaldsen Museum",
    "name:fr": "Musée Thorvaldsen",
    "name:it": "Museo Thorvaldsen",
    "name:ja": "トーヴァルセン美術館",
    "name:pl": "Muzeum Thorvaldsena w Kopenhadze",
    "name:pt": "Museu Thorvaldsen",
    "name:ru": "Музей Торвальдсена",
    "name:zh": "托瓦爾森博物館",
    "roof:colour": "#889590",
    "roof:height": "2",
    "roof:material": "copper",
    "roof:shape": "hipped",
    "tourism": "museum",
    "type": "multipolygon",
    "website": "http://www.thorvaldsensmuseum.dk/",
    "wheelchair": "no",
    "wikidata": "Q1992413",
    "wikipedia": "da:Thorvaldsens Museum"
  }
},
{
  "type": "relation",
  "id": 4118614,
  "members": [
    {
      "type": "way",
      "ref": 308403691,
      "role": "outer"
    },
    {
      "type": "way",
      "ref": 308403694,
      "role": "inner"
    }
  ],
  "tags": {
    "building": "yes",
    "name": "Amagermuseet",
    "tourism": "museum",
    "type": "multipolygon",
    "website": "https://www.museumamager.dk/"
  }
},
{
  "type": "relation",
  "id": 4640798,
  "members": [
    {
      "type": "way",
      "ref": 27099107,
      "role": "outer"
    },
    {
      "type": "way",
      "ref": 330912062,
      "role": "inner"
    }
  ],
  "tags": {
    "alt_name": "Kastrupgård",
    "building": "yes",
    "heritage": "2",
    "name": "Kastrupgårdsamlingen",
    "tourism": "museum",
    "type": "multipolygon",
    "website": "http://www.kastrupgaardsamlingen.dk",
    "wheelchair": "yes",
    "wikidata": "Q3370686",
    "wikipedia": "da:Kastrupgårdsamlingen"
  }
},
{
  "type": "relation",
  "id": 5693118,
  "members": [
    {
      "type": "way",
      "ref": 25524936,
      "role": "outer"
    },
    {
      "type": "way",
      "ref": 27291215,
      "role": "inner"
    }
  ],
  "tags": {
    "building": "yes",
    "museum": "art",
    "name": "Designmuseum Danmark",
    "name:de": "Designmuseum Danmark",
    "name:en": "Danish Museum of Art & Design",
    "name:fr": "Musée du Design danois",
    "name:ru": "Музей дизайна",
    "name:zh": "設計博物館",
    "old_name": "Kunstindustrimuseet",
    "opening_hours": "Tu, Th-Su 10:00-18:00; We 10:00-21:00; Mo closed",
    "phone": "+45 3318 5656",
    "type": "multipolygon",
    "website": "https://designmuseum.dk",
    "wikidata": "Q834603",
    "wikipedia": "da:Designmuseum Danmark"
  }
},
{
  "type": "node",
  "id": 290925790,
  "lat": 55.6649925,
  "lon": 12.5303744
},
{
  "type": "node",
  "id": 290925846,
  "lat": 55.6648273,
  "lon": 12.5303709
},
{
  "type": "node",
  "id": 1579873537,
  "lat": 55.6694596,
  "lon": 12.5249031
},
{
  "type": "node",
  "id": 1778048294,
  "lat": 55.6694898,
  "lon": 12.5248573
},
{
  "type": "node",
  "id": 1778048297,
  "lat": 55.6694785,
  "lon": 12.5249589
},
{
  "type": "node",
  "id": 1778048299,
  "lat": 55.6695569,
  "lon": 12.5249320
},
{
  "type": "node",
  "id": 3013003683,
  "lat": 55.6649923,
  "lon": 12.5304429
},
{
  "type": "node",
  "id": 3013003684,
  "lat": 55.6648271,
  "lon": 12.5304428
},
{
  "type": "node",
  "id": 1945024344,
  "lat": 55.6563119,
  "lon": 12.5549858
},
{
  "type": "node",
  "id": 1945024345,
  "lat": 55.6564037,
  "lon": 12.5555893
},
{
  "type": "node",
  "id": 290925845,
  "lat": 55.6648248,
  "lon": 12.5311030
},
{
  "type": "node",
  "id": 290925848,
  "lat": 55.6642891,
  "lon": 12.5314591
},
{
  "type": "node",
  "id": 290925852,
  "lat": 55.6644145,
  "lon": 12.5310986
},
{
  "type": "node",
  "id": 290925939,
  "lat": 55.6644153,
  "lon": 12.5308639
},
{
  "type": "node",
  "id": 290926000,
  "lat": 55.6642911,
  "lon": 12.5308626
},
{
  "type": "node",
  "id": 442948296,
  "lat": 55.6648173,
  "lon": 12.5314648
},
{
  "type": "node",
  "id": 442948297,
  "lat": 55.6649879,
  "lon": 12.5317089
},
{
  "type": "node",
  "id": 442948299,
  "lat": 55.6648165,
  "lon": 12.5317071
},
{
  "type": "node",
  "id": 1630153795,
  "lat": 55.6685693,
  "lon": 12.5321677
},
{
  "type": "node",
  "id": 1630153827,
  "lat": 55.6681779,
  "lon": 12.5324942
},
{
  "type": "node",
  "id": 1793450871,
  "lat": 55.6683691,
  "lon": 12.5314660
},
{
  "type": "node",
  "id": 1793450874,
  "lat": 55.6682982,
  "lon": 12.5314318
},
{
  "type": "node",
  "id": 4737200924,
  "lat": 55.6680191,
  "lon": 12.5316460
},
{
  "type": "node",
  "id": 1945024341,
  "lat": 55.6568929,
  "lon": 12.5553613
},
{
  "type": "node",
  "id": 1945024343,
  "lat": 55.6567961,
  "lon": 12.5546747
},
{
  "type": "node",
  "id": 1945024346,
  "lat": 55.6565691,
  "lon": 12.5547712
},
{
  "type": "node",
  "id": 1945024348,
  "lat": 55.6565812,
  "lon": 12.5548732
},
{
  "type": "node",
  "id": 1551737548,
  "lat": 55.6743319,
  "lon": 12.5320367
},
{
  "type": "node",
  "id": 1551737554,
  "lat": 55.6743462,
  "lon": 12.5318865
},
{
  "type": "node",
  "id": 1551737605,
  "lat": 55.6744442,
  "lon": 12.5319158
},
{
  "type": "node",
  "id": 1551737608,
  "lat": 55.6744509,
  "lon": 12.5318454
},
{
  "type": "node",
  "id": 1551737638,
  "lat": 55.6745093,
  "lon": 12.5320898
},
{
  "type": "node",
  "id": 1551737648,
  "lat": 55.6745303,
  "lon": 12.5318691
},
{
  "type": "node",
  "id": 1602042762,
  "lat": 55.6753613,
  "lon": 12.5316169
},
{
  "type": "node",
  "id": 1602042891,
  "lat": 55.6755284,
  "lon": 12.5316679
},
{
  "type": "node",
  "id": 1602042915,
  "lat": 55.6753764,
  "lon": 12.5314560
},
{
  "type": "node",
  "id": 1602042919,
  "lat": 55.6755435,
  "lon": 12.5315096
},
{
  "type": "node",
  "id": 312710909,
  "lat": 55.6747916,
  "lon": 12.5686125
},
{
  "type": "node",
  "id": 312710910,
  "lat": 55.6749214,
  "lon": 12.5689014
},
{
  "type": "node",
  "id": 312710912,
  "lat": 55.6749161,
  "lon": 12.5683708
},
{
  "type": "node",
  "id": 894446151,
  "lat": 55.6750680,
  "lon": 12.5686170
},
{
  "type": "node",
  "id": 2653432011,
  "lat": 55.6747774,
  "lon": 12.5686401
},
{
  "type": "node",
  "id": 2653432013,
  "lat": 55.6748891,
  "lon": 12.5684234
},
{
  "type": "node",
  "id": 3207955219,
  "lat": 55.6749095,
  "lon": 12.5688821
},
{
  "type": "node",
  "id": 5908150495,
  "lat": 55.6748187,
  "lon": 12.5687349
},
{
  "type": "node",
  "id": 5908150496,
  "lat": 55.6747978,
  "lon": 12.5687755
},
{
  "type": "node",
  "id": 5908150497,
  "lat": 55.6747583,
  "lon": 12.5687114
},
{
  "type": "node",
  "id": 5908150498,
  "lat": 55.6747870,
  "lon": 12.5686557
},
{
  "type": "node",
  "id": 277363368,
  "lat": 55.6730799,
  "lon": 12.5721079
},
{
  "type": "node",
  "id": 277363369,
  "lat": 55.6727666,
  "lon": 12.5730057
},
{
  "type": "node",
  "id": 277363370,
  "lat": 55.6723493,
  "lon": 12.5723642
},
{
  "type": "node",
  "id": 277363371,
  "lat": 55.6722802,
  "lon": 12.5725033
},
{
  "type": "node",
  "id": 277363372,
  "lat": 55.6719039,
  "lon": 12.5719156
},
{
  "type": "node",
  "id": 277363374,
  "lat": 55.6724335,
  "lon": 12.5708492
},
{
  "type": "node",
  "id": 277363375,
  "lat": 55.6728100,
  "lon": 12.5714373
},
{
  "type": "node",
  "id": 277363376,
  "lat": 55.6727401,
  "lon": 12.5715781
},
{
  "type": "node",
  "id": 277363465,
  "lat": 55.6754017,
  "lon": 12.5756144
},
{
  "type": "node",
  "id": 277363466,
  "lat": 55.6747930,
  "lon": 12.5763287
},
{
  "type": "node",
  "id": 277363467,
  "lat": 55.6740254,
  "lon": 12.5742008
},
{
  "type": "node",
  "id": 277363468,
  "lat": 55.6744878,
  "lon": 12.5732628
},
{
  "type": "node",
  "id": 283576326,
  "lat": 55.6742393,
  "lon": 12.5748033
},
{
  "type": "node",
  "id": 283576327,
  "lat": 55.6743233,
  "lon": 12.5750270
},
{
  "type": "node",
  "id": 283576328,
  "lat": 55.6744955,
  "lon": 12.5748259
},
{
  "type": "node",
  "id": 723140554,
  "lat": 55.6744187,
  "lon": 12.5745948
},
{
  "type": "node",
  "id": 1039436902,
  "lat": 55.6730876,
  "lon": 12.5720923
},
{
  "type": "node",
  "id": 1039436903,
  "lat": 55.6724026,
  "lon": 12.5724831
},
{
  "type": "node",
  "id": 1039436904,
  "lat": 55.6725648,
  "lon": 12.5714273
},
{
  "type": "node",
  "id": 1039436905,
  "lat": 55.6726753,
  "lon": 12.5729090
},
{
  "type": "node",
  "id": 1039436908,
  "lat": 55.6724126,
  "lon": 12.5724630
},
{
  "type": "node",
  "id": 1039436912,
  "lat": 55.6726881,
  "lon": 12.5728831
},
{
  "type": "node",
  "id": 1039436914,
  "lat": 55.6728053,
  "lon": 12.5716799
},
{
  "type": "node",
  "id": 1039436918,
  "lat": 55.6731546,
  "lon": 12.5722246
},
{
  "type": "node",
  "id": 1039436926,
  "lat": 55.6724666,
  "lon": 12.5712751
},
{
  "type": "node",
  "id": 1039436927,
  "lat": 55.6724127,
  "lon": 12.5713845
},
{
  "type": "node",
  "id": 1039436931,
  "lat": 55.6728133,
  "lon": 12.5716638
},
{
  "type": "node",
  "id": 1039436935,
  "lat": 55.6725108,
  "lon": 12.5715367
},
{
  "type": "node",
  "id": 1605597593,
  "lat": 55.6747460,
  "lon": 12.5758792
},
{
  "type": "node",
  "id": 1605597596,
  "lat": 55.6750430,
  "lon": 12.5755209
},
{
  "type": "node",
  "id": 1605597598,
  "lat": 55.6752712,
  "lon": 12.5755468
},
{
  "type": "node",
  "id": 1605597600,
  "lat": 55.6744761,
  "lon": 12.5751537
},
{
  "type": "node",
  "id": 1605597629,
  "lat": 55.6747718,
  "lon": 12.5748000
},
{
  "type": "node",
  "id": 1605597633,
  "lat": 55.6751367,
  "lon": 12.5757652
},
{
  "type": "node",
  "id": 1605597635,
  "lat": 55.6749703,
  "lon": 12.5753221
},
{
  "type": "node",
  "id": 1605597640,
  "lat": 55.6751119,
  "lon": 12.5754519
},
{
  "type": "node",
  "id": 1605597642,
  "lat": 55.6746746,
  "lon": 12.5756758
},
{
  "type": "node",
  "id": 1605597644,
  "lat": 55.6751904,
  "lon": 12.5756483
},
{
  "type": "node",
  "id": 1605597645,
  "lat": 55.6751927,
  "lon": 12.5753504
},
{
  "type": "node",
  "id": 1605597647,
  "lat": 55.6748396,
  "lon": 12.5761235
},
{
  "type": "node",
  "id": 3208182416,
  "lat": 55.6744612,
  "lon": 12.5747227
},
{
  "type": "node",
  "id": 3208723236,
  "lat": 55.6723985,
  "lon": 12.5722669
},
{
  "type": "node",
  "id": 3208723237,
  "lat": 55.6724616,
  "lon": 12.5723654
},
{
  "type": "node",
  "id": 3208723238,
  "lat": 55.6724709,
  "lon": 12.5723465
},
{
  "type": "node",
  "id": 3208723239,
  "lat": 55.6724844,
  "lon": 12.5723676
},
{
  "type": "node",
  "id": 3208723240,
  "lat": 55.6725207,
  "lon": 12.5720210
},
{
  "type": "node",
  "id": 3208723241,
  "lat": 55.6725477,
  "lon": 12.5721434
},
{
  "type": "node",
  "id": 3208723242,
  "lat": 55.6725631,
  "lon": 12.5719291
},
{
  "type": "node",
  "id": 3208723243,
  "lat": 55.6725701,
  "lon": 12.5720983
},
{
  "type": "node",
  "id": 3208723244,
  "lat": 55.6725747,
  "lon": 12.5721856
},
{
  "type": "node",
  "id": 3208723245,
  "lat": 55.6726146,
  "lon": 12.5720095
},
{
  "type": "node",
  "id": 3208723246,
  "lat": 55.6726356,
  "lon": 12.5719673
},
{
  "type": "node",
  "id": 3208723247,
  "lat": 55.6726561,
  "lon": 12.5719993
},
{
  "type": "node",
  "id": 3208723248,
  "lat": 55.6726878,
  "lon": 12.5716781
},
{
  "type": "node",
  "id": 3208723249,
  "lat": 55.6727598,
  "lon": 12.5717906
},
{
  "type": "node",
  "id": 4181510707,
  "lat": 55.6749656,
  "lon": 12.5748761
},
{
  "type": "node",
  "id": 4181510708,
  "lat": 55.6750370,
  "lon": 12.5747891
},
{
  "type": "node",
  "id": 4181510709,
  "lat": 55.6750984,
  "lon": 12.5752184
},
{
  "type": "node",
  "id": 4181510710,
  "lat": 55.6751698,
  "lon": 12.5751314
},
{
  "type": "node",
  "id": 277356009,
  "lat": 55.6749438,
  "lon": 12.5797487
},
{
  "type": "node",
  "id": 277356011,
  "lat": 55.6735807,
  "lon": 12.5808490
},
{
  "type": "node",
  "id": 277356012,
  "lat": 55.6748204,
  "lon": 12.5794163
},
{
  "type": "node",
  "id": 283572722,
  "lat": 55.6748358,
  "lon": 12.5798834
},
{
  "type": "node",
  "id": 283572742,
  "lat": 55.6747180,
  "lon": 12.5795366
},
{
  "type": "node",
  "id": 1223733814,
  "lat": 55.6737109,
  "lon": 12.5811929
},
{
  "type": "node",
  "id": 1223734857,
  "lat": 55.6737250,
  "lon": 12.5811765
},
{
  "type": "node",
  "id": 277355155,
  "lat": 55.6770578,
  "lon": 12.5786886
},
{
  "type": "node",
  "id": 277355156,
  "lat": 55.6767741,
  "lon": 12.5790163
},
{
  "type": "node",
  "id": 277355157,
  "lat": 55.6764433,
  "lon": 12.5781156
},
{
  "type": "node",
  "id": 277355158,
  "lat": 55.6767271,
  "lon": 12.5777879
},
{
  "type": "node",
  "id": 1867039773,
  "lat": 55.6766213,
  "lon": 12.5782622
},
{
  "type": "node",
  "id": 1867039774,
  "lat": 55.6767321,
  "lon": 12.5781323
},
{
  "type": "node",
  "id": 1867039775,
  "lat": 55.6767829,
  "lon": 12.5786957
},
{
  "type": "node",
  "id": 1867039777,
  "lat": 55.6768937,
  "lon": 12.5785659
},
{
  "type": "node",
  "id": 266497631,
  "lat": 55.6876412,
  "lon": 12.5736820
},
{
  "type": "node",
  "id": 266497632,
  "lat": 55.6876593,
  "lon": 12.5735018
},
{
  "type": "node",
  "id": 266497633,
  "lat": 55.6876098,
  "lon": 12.5731290
},
{
  "type": "node",
  "id": 266497635,
  "lat": 55.6876182,
  "lon": 12.5728150
},
{
  "type": "node",
  "id": 266497636,
  "lat": 55.6875592,
  "lon": 12.5727306
},
{
  "type": "node",
  "id": 266497638,
  "lat": 55.6875130,
  "lon": 12.5723287
},
{
  "type": "node",
  "id": 266497639,
  "lat": 55.6874126,
  "lon": 12.5722136
},
{
  "type": "node",
  "id": 277357499,
  "lat": 55.6873261,
  "lon": 12.5763192
},
{
  "type": "node",
  "id": 278164385,
  "lat": 55.6851229,
  "lon": 12.5724970
},
{
  "type": "node",
  "id": 278164386,
  "lat": 55.6850102,
  "lon": 12.5729131
},
{
  "type": "node",
  "id": 278164387,
  "lat": 55.6851720,
  "lon": 12.5730510
},
{
  "type": "node",
  "id": 278164388,
  "lat": 55.6852847,
  "lon": 12.5726349
},
{
  "type": "node",
  "id": 522430411,
  "lat": 55.6875936,
  "lon": 12.5727683
},
{
  "type": "node",
  "id": 522430416,
  "lat": 55.6876425,
  "lon": 12.5730111
},
{
  "type": "node",
  "id": 1219207467,
  "lat": 55.6876470,
  "lon": 12.5729456
},
{
  "type": "node",
  "id": 1219207537,
  "lat": 55.6876359,
  "lon": 12.5728589
},
{
  "type": "node",
  "id": 1478887893,
  "lat": 55.6876679,
  "lon": 12.5735975
},
{
  "type": "node",
  "id": 1478887914,
  "lat": 55.6874869,
  "lon": 12.5722483
},
{
  "type": "node",
  "id": 1478887926,
  "lat": 55.6876177,
  "lon": 12.5737081
},
{
  "type": "node",
  "id": 2702347697,
  "lat": 55.6873469,
  "lon": 12.5723460
},
{
  "type": "node",
  "id": 2702347698,
  "lat": 55.6873487,
  "lon": 12.5723929
},
{
  "type": "node",
  "id": 2702347699,
  "lat": 55.6873534,
  "lon": 12.5723005
},
{
  "type": "node",
  "id": 2702347700,
  "lat": 55.6873586,
  "lon": 12.5724365
},
{
  "type": "node",
  "id": 2702347701,
  "lat": 55.6873608,
  "lon": 12.5724835
},
{
  "type": "node",
  "id": 2702347702,
  "lat": 55.6873675,
  "lon": 12.5722607
},
{
  "type": "node",
  "id": 2702347704,
  "lat": 55.6873673,
  "lon": 12.5729849
},
{
  "type": "node",
  "id": 2702347705,
  "lat": 55.6873692,
  "lon": 12.5729169
},
{
  "type": "node",
  "id": 2702347706,
  "lat": 55.6873757,
  "lon": 12.5724724
},
{
  "type": "node",
  "id": 2702347707,
  "lat": 55.6873759,
  "lon": 12.5730513
},
{
  "type": "node",
  "id": 2702347708,
  "lat": 55.6873815,
  "lon": 12.5728524
},
{
  "type": "node",
  "id": 2702347709,
  "lat": 55.6873879,
  "lon": 12.5722308
},
{
  "type": "node",
  "id": 2702347710,
  "lat": 55.6873944,
  "lon": 12.5731110
},
{
  "type": "node",
  "id": 2702347711,
  "lat": 55.6874033,
  "lon": 12.5727963
},
{
  "type": "node",
  "id": 2702347712,
  "lat": 55.6874213,
  "lon": 12.5731594
},
{
  "type": "node",
  "id": 2702347714,
  "lat": 55.6874390,
  "lon": 12.5722109
},
{
  "type": "node",
  "id": 2702347717,
  "lat": 55.6874547,
  "lon": 12.5731931
},
{
  "type": "node",
  "id": 2702347718,
  "lat": 55.6874647,
  "lon": 12.5722228
},
{
  "type": "node",
  "id": 2702347720,
  "lat": 55.6874978,
  "lon": 12.5735199
},
{
  "type": "node",
  "id": 2702347722,
  "lat": 55.6875036,
  "lon": 12.5722848
},
{
  "type": "node",
  "id": 2702347724,
  "lat": 55.6875025,
  "lon": 12.5735658
},
{
  "type": "node",
  "id": 2702347725,
  "lat": 55.6875073,
  "lon": 12.5724210
},
{
  "type": "node",
  "id": 2702347726,
  "lat": 55.6875081,
  "lon": 12.5735177
},
{
  "type": "node",
  "id": 2702347727,
  "lat": 55.6875060,
  "lon": 12.5736145
},
{
  "type": "node",
  "id": 2702347728,
  "lat": 55.6875143,
  "lon": 12.5723756
},
{
  "type": "node",
  "id": 2702347729,
  "lat": 55.6875207,
  "lon": 12.5724173
},
{
  "type": "node",
  "id": 2702347730,
  "lat": 55.6875184,
  "lon": 12.5736585
},
{
  "type": "node",
  "id": 2702347732,
  "lat": 55.6875381,
  "lon": 12.5736928
},
{
  "type": "node",
  "id": 2702347733,
  "lat": 55.6875632,
  "lon": 12.5737138
},
{
  "type": "node",
  "id": 2702347736,
  "lat": 55.6875907,
  "lon": 12.5737191
},
{
  "type": "node",
  "id": 2702347738,
  "lat": 55.6876289,
  "lon": 12.5730793
},
{
  "type": "node",
  "id": 2702347740,
  "lat": 55.6876509,
  "lon": 12.5734565
},
{
  "type": "node",
  "id": 5964591503,
  "lat": 55.6876585,
  "lon": 12.5736438
},
{
  "type": "node",
  "id": 5964591504,
  "lat": 55.6876681,
  "lon": 12.5735484
},
{
  "type": "node",
  "id": 5964591505,
  "lat": 55.6876424,
  "lon": 12.5734630
},
{
  "type": "node",
  "id": 277357500,
  "lat": 55.6877430,
  "lon": 12.5769213
},
{
  "type": "node",
  "id": 277357501,
  "lat": 55.6875113,
  "lon": 12.5774283
},
{
  "type": "node",
  "id": 277357502,
  "lat": 55.6873968,
  "lon": 12.5772653
},
{
  "type": "node",
  "id": 277357503,
  "lat": 55.6875170,
  "lon": 12.5770005
},
{
  "type": "node",
  "id": 277357504,
  "lat": 55.6873288,
  "lon": 12.5767282
},
{
  "type": "node",
  "id": 277357505,
  "lat": 55.6872055,
  "lon": 12.5769904
},
{
  "type": "node",
  "id": 277357507,
  "lat": 55.6870925,
  "lon": 12.5768275
},
{
  "type": "node",
  "id": 277357724,
  "lat": 55.6883893,
  "lon": 12.5772937
},
{
  "type": "node",
  "id": 277357725,
  "lat": 55.6885669,
  "lon": 12.5795506
},
{
  "type": "node",
  "id": 277357726,
  "lat": 55.6890767,
  "lon": 12.5797449
},
{
  "type": "node",
  "id": 277357727,
  "lat": 55.6889111,
  "lon": 12.5769837
},
{
  "type": "node",
  "id": 278328161,
  "lat": 55.6889833,
  "lon": 12.5779018
},
{
  "type": "node",
  "id": 278328201,
  "lat": 55.6890769,
  "lon": 12.5778995
},
{
  "type": "node",
  "id": 1330913730,
  "lat": 55.6885084,
  "lon": 12.5781290
},
{
  "type": "node",
  "id": 1330913731,
  "lat": 55.6888681,
  "lon": 12.5771770
},
{
  "type": "node",
  "id": 1330913744,
  "lat": 55.6885497,
  "lon": 12.5792484
},
{
  "type": "node",
  "id": 1330913756,
  "lat": 55.6890465,
  "lon": 12.5797505
},
{
  "type": "node",
  "id": 1330913774,
  "lat": 55.6884140,
  "lon": 12.5775876
},
{
  "type": "node",
  "id": 1330913795,
  "lat": 55.6885497,
  "lon": 12.5786887
},
{
  "type": "node",
  "id": 1330913834,
  "lat": 55.6888829,
  "lon": 12.5769913
},
{
  "type": "node",
  "id": 1330913859,
  "lat": 55.6885954,
  "lon": 12.5792379
},
{
  "type": "node",
  "id": 1330913875,
  "lat": 55.6889669,
  "lon": 12.5794550
},
{
  "type": "node",
  "id": 1330913890,
  "lat": 55.6884479,
  "lon": 12.5781420
},
{
  "type": "node",
  "id": 1330913904,
  "lat": 55.6884892,
  "lon": 12.5786965
},
{
  "type": "node",
  "id": 1330913918,
  "lat": 55.6890318,
  "lon": 12.5795753
},
{
  "type": "node",
  "id": 1330913943,
  "lat": 55.6884627,
  "lon": 12.5775797
},
{
  "type": "node",
  "id": 1330913961,
  "lat": 55.6889772,
  "lon": 12.5795884
},
{
  "type": "node",
  "id": 4186875473,
  "lat": 55.6873749,
  "lon": 12.5767215
},
{
  "type": "node",
  "id": 4186875482,
  "lat": 55.6875121,
  "lon": 12.5769200
},
{
  "type": "node",
  "id": 7084018441,
  "lat": 55.6884686,
  "lon": 12.5784193
},
{
  "type": "node",
  "id": 277357678,
  "lat": 55.6898680,
  "lon": 12.5770897
},
{
  "type": "node",
  "id": 277357679,
  "lat": 55.6900975,
  "lon": 12.5776949
},
{
  "type": "node",
  "id": 277357680,
  "lat": 55.6899530,
  "lon": 12.5778673
},
{
  "type": "node",
  "id": 277357681,
  "lat": 55.6897270,
  "lon": 12.5772580
},
{
  "type": "node",
  "id": 340549978,
  "lat": 55.6899978,
  "lon": 12.5773808
},
{
  "type": "node",
  "id": 1479146128,
  "lat": 55.6898160,
  "lon": 12.5776715
},
{
  "type": "node",
  "id": 1479146130,
  "lat": 55.6898593,
  "lon": 12.5776200
},
{
  "type": "node",
  "id": 1479146133,
  "lat": 55.6899632,
  "lon": 12.5773406
},
{
  "type": "node",
  "id": 1479146134,
  "lat": 55.6898185,
  "lon": 12.5774993
},
{
  "type": "node",
  "id": 1479146136,
  "lat": 55.6897719,
  "lon": 12.5775550
},
{
  "type": "node",
  "id": 1479146139,
  "lat": 55.6899765,
  "lon": 12.5773247
},
{
  "type": "node",
  "id": 1479146140,
  "lat": 55.6900057,
  "lon": 12.5774529
},
{
  "type": "node",
  "id": 1479146142,
  "lat": 55.6900191,
  "lon": 12.5774369
},
{
  "type": "node",
  "id": 279696557,
  "lat": 55.7020959,
  "lon": 12.5591528
},
{
  "type": "node",
  "id": 1020890914,
  "lat": 55.7023187,
  "lon": 12.5593215
},
{
  "type": "node",
  "id": 1020890979,
  "lat": 55.7022942,
  "lon": 12.5593941
},
{
  "type": "node",
  "id": 4332887886,
  "lat": 55.7021274,
  "lon": 12.5593002
},
{
  "type": "node",
  "id": 4332887888,
  "lat": 55.7021536,
  "lon": 12.5592168
},
{
  "type": "node",
  "id": 4332888089,
  "lat": 55.7022326,
  "lon": 12.5594154
},
{
  "type": "node",
  "id": 4332888090,
  "lat": 55.7022564,
  "lon": 12.5593524
},
{
  "type": "node",
  "id": 5914568861,
  "lat": 55.7023092,
  "lon": 12.5593484
},
{
  "type": "node",
  "id": 279696555,
  "lat": 55.7028608,
  "lon": 12.5588237
},
{
  "type": "node",
  "id": 279696556,
  "lat": 55.7025796,
  "lon": 12.5596223
},
{
  "type": "node",
  "id": 279696558,
  "lat": 55.7024651,
  "lon": 12.5584302
},
{
  "type": "node",
  "id": 4332888091,
  "lat": 55.7023513,
  "lon": 12.5584277
},
{
  "type": "node",
  "id": 4332888092,
  "lat": 55.7024338,
  "lon": 12.5585192
},
{
  "type": "node",
  "id": 4332888093,
  "lat": 55.7027919,
  "lon": 12.5587927
},
{
  "type": "node",
  "id": 4332888094,
  "lat": 55.7028034,
  "lon": 12.5587601
},
{
  "type": "node",
  "id": 507939401,
  "lat": 55.6998827,
  "lon": 12.5748175
},
{
  "type": "node",
  "id": 507939407,
  "lat": 55.6996739,
  "lon": 12.5748243
},
{
  "type": "node",
  "id": 507939411,
  "lat": 55.6996396,
  "lon": 12.5747663
},
{
  "type": "node",
  "id": 507939412,
  "lat": 55.6995037,
  "lon": 12.5750194
},
{
  "type": "node",
  "id": 507939414,
  "lat": 55.6996455,
  "lon": 12.5752593
},
{
  "type": "node",
  "id": 1871908160,
  "lat": 55.6997752,
  "lon": 12.5746356
},
{
  "type": "node",
  "id": 4596426279,
  "lat": 55.6995342,
  "lon": 12.5750711
},
{
  "type": "node",
  "id": 7068114839,
  "lat": 55.6995299,
  "lon": 12.5750792
},
{
  "type": "node",
  "id": 7068114840,
  "lat": 55.6996101,
  "lon": 12.5752148
},
{
  "type": "node",
  "id": 7068114841,
  "lat": 55.6996144,
  "lon": 12.5752067
},
{
  "type": "node",
  "id": 7068114842,
  "lat": 55.6998559,
  "lon": 12.5747721
},
{
  "type": "node",
  "id": 7068114843,
  "lat": 55.6998114,
  "lon": 12.5746969
},
{
  "type": "node",
  "id": 4167236856,
  "lat": 55.7387019,
  "lon": 12.5729647
},
{
  "type": "node",
  "id": 4167236859,
  "lat": 55.7387257,
  "lon": 12.5727575
},
{
  "type": "node",
  "id": 4167236861,
  "lat": 55.7387398,
  "lon": 12.5730206
},
{
  "type": "node",
  "id": 4167236862,
  "lat": 55.7387445,
  "lon": 12.5729801
},
{
  "type": "node",
  "id": 4167236867,
  "lat": 55.7388090,
  "lon": 12.5730456
},
{
  "type": "node",
  "id": 4167236869,
  "lat": 55.7388136,
  "lon": 12.5730051
},
{
  "type": "node",
  "id": 4167236872,
  "lat": 55.7388763,
  "lon": 12.5730278
},
{
  "type": "node",
  "id": 4167236873,
  "lat": 55.7388909,
  "lon": 12.5729005
},
{
  "type": "node",
  "id": 4167236874,
  "lat": 55.7389038,
  "lon": 12.5728218
},
{
  "type": "node",
  "id": 4167236875,
  "lat": 55.7389134,
  "lon": 12.5727376
},
{
  "type": "node",
  "id": 4167236878,
  "lat": 55.7389559,
  "lon": 12.5729239
},
{
  "type": "node",
  "id": 4167236879,
  "lat": 55.7389747,
  "lon": 12.5727598
},
{
  "type": "node",
  "id": 1445841715,
  "lat": 55.3760538,
  "lon": 13.1466580
},
{
  "type": "node",
  "id": 1445841735,
  "lat": 55.3761848,
  "lon": 13.1466486
},
{
  "type": "node",
  "id": 1445841736,
  "lat": 55.3763203,
  "lon": 13.1466960
},
{
  "type": "node",
  "id": 1445841737,
  "lat": 55.3764424,
  "lon": 13.1467956
},
{
  "type": "node",
  "id": 1445841738,
  "lat": 55.3765479,
  "lon": 13.1469426
},
{
  "type": "node",
  "id": 1445841739,
  "lat": 55.3766872,
  "lon": 13.1473442
},
{
  "type": "node",
  "id": 1445841740,
  "lat": 55.3767132,
  "lon": 13.1475767
},
{
  "type": "node",
  "id": 2446937905,
  "lat": 55.3759833,
  "lon": 13.1473625
},
{
  "type": "node",
  "id": 2446937908,
  "lat": 55.3766311,
  "lon": 13.1471289
},
{
  "type": "node",
  "id": 2446937911,
  "lat": 55.3766394,
  "lon": 13.1477192
},
{
  "type": "node",
  "id": 729262120,
  "lat": 55.3761875,
  "lon": 13.1578456
},
{
  "type": "node",
  "id": 729262156,
  "lat": 55.3760294,
  "lon": 13.1584081
},
{
  "type": "node",
  "id": 729262206,
  "lat": 55.3760887,
  "lon": 13.1577597
},
{
  "type": "node",
  "id": 2447790989,
  "lat": 55.3761613,
  "lon": 13.1579383
},
{
  "type": "node",
  "id": 2447790990,
  "lat": 55.3761794,
  "lon": 13.1578746
},
{
  "type": "node",
  "id": 2447790991,
  "lat": 55.3762138,
  "lon": 13.1579840
},
{
  "type": "node",
  "id": 2447790992,
  "lat": 55.3762317,
  "lon": 13.1579201
},
{
  "type": "node",
  "id": 2447798410,
  "lat": 55.3758459,
  "lon": 13.1582487
},
{
  "type": "node",
  "id": 2447798412,
  "lat": 55.3758772,
  "lon": 13.1580693
},
{
  "type": "node",
  "id": 2447798413,
  "lat": 55.3758925,
  "lon": 13.1580826
},
{
  "type": "node",
  "id": 2447798418,
  "lat": 55.3759832,
  "lon": 13.1576919
},
{
  "type": "node",
  "id": 2447798419,
  "lat": 55.3760509,
  "lon": 13.1577715
},
{
  "type": "node",
  "id": 2447798420,
  "lat": 55.3760556,
  "lon": 13.1577549
},
{
  "type": "node",
  "id": 2447798423,
  "lat": 55.3760786,
  "lon": 13.1577956
},
{
  "type": "node",
  "id": 2447800383,
  "lat": 55.3752711,
  "lon": 13.1612847
},
{
  "type": "node",
  "id": 2447800385,
  "lat": 55.3752810,
  "lon": 13.1613485
},
{
  "type": "node",
  "id": 2447800386,
  "lat": 55.3752934,
  "lon": 13.1613043
},
{
  "type": "node",
  "id": 2447800387,
  "lat": 55.3753005,
  "lon": 13.1611809
},
{
  "type": "node",
  "id": 2447800397,
  "lat": 55.3754554,
  "lon": 13.1614239
},
{
  "type": "node",
  "id": 2447800398,
  "lat": 55.3754593,
  "lon": 13.1615048
},
{
  "type": "node",
  "id": 2447800400,
  "lat": 55.3754769,
  "lon": 13.1614427
},
{
  "type": "node",
  "id": 2447800401,
  "lat": 55.3754797,
  "lon": 13.1613380
},
{
  "type": "node",
  "id": 683407113,
  "lat": 55.3887473,
  "lon": 12.8352969
},
{
  "type": "node",
  "id": 683407117,
  "lat": 55.3887457,
  "lon": 12.8358130
},
{
  "type": "node",
  "id": 683407134,
  "lat": 55.3888175,
  "lon": 12.8359232
},
{
  "type": "node",
  "id": 683407148,
  "lat": 55.3889992,
  "lon": 12.8352700
},
{
  "type": "node",
  "id": 683407149,
  "lat": 55.3890664,
  "lon": 12.8358775
},
{
  "type": "node",
  "id": 683408699,
  "lat": 55.3925356,
  "lon": 12.8370005
},
{
  "type": "node",
  "id": 683408700,
  "lat": 55.3926358,
  "lon": 12.8371384
},
{
  "type": "node",
  "id": 683408702,
  "lat": 55.3927149,
  "lon": 12.8368450
},
{
  "type": "node",
  "id": 683408703,
  "lat": 55.3927750,
  "lon": 12.8367779
},
{
  "type": "node",
  "id": 683408704,
  "lat": 55.3926245,
  "lon": 12.8372210
},
{
  "type": "node",
  "id": 683408705,
  "lat": 55.3925775,
  "lon": 12.8366941
},
{
  "type": "node",
  "id": 683408706,
  "lat": 55.3925898,
  "lon": 12.8370235
},
{
  "type": "node",
  "id": 683408707,
  "lat": 55.3926727,
  "lon": 12.8371541
},
{
  "type": "node",
  "id": 683408708,
  "lat": 55.3926197,
  "lon": 12.8368046
},
{
  "type": "node",
  "id": 683408709,
  "lat": 55.3927200,
  "lon": 12.8371800
},
{
  "type": "node",
  "id": 2364694592,
  "lat": 55.3926860,
  "lon": 12.8372471
},
{
  "type": "node",
  "id": 2364694593,
  "lat": 55.3926965,
  "lon": 12.8371700
},
{
  "type": "node",
  "id": 1088096420,
  "lat": 55.4279700,
  "lon": 12.9522937
},
{
  "type": "node",
  "id": 1088096421,
  "lat": 55.4281730,
  "lon": 12.9523890
},
{
  "type": "node",
  "id": 1088096422,
  "lat": 55.4283082,
  "lon": 12.9527971
},
{
  "type": "node",
  "id": 1088096433,
  "lat": 55.4284205,
  "lon": 12.9536517
},
{
  "type": "node",
  "id": 2401456466,
  "lat": 55.4278691,
  "lon": 12.9518827
},
{
  "type": "node",
  "id": 2401456468,
  "lat": 55.4278884,
  "lon": 12.9523188
},
{
  "type": "node",
  "id": 2401456476,
  "lat": 55.4279565,
  "lon": 12.9516710
},
{
  "type": "node",
  "id": 2401456506,
  "lat": 55.4282906,
  "lon": 12.9516035
},
{
  "type": "node",
  "id": 2401456528,
  "lat": 55.4283394,
  "lon": 12.9536945
},
{
  "type": "node",
  "id": 2401456532,
  "lat": 55.4283752,
  "lon": 12.9538829
},
{
  "type": "node",
  "id": 2401456546,
  "lat": 55.4284372,
  "lon": 12.9539817
},
{
  "type": "node",
  "id": 2401456582,
  "lat": 55.4288638,
  "lon": 12.9516906
},
{
  "type": "node",
  "id": 2401456587,
  "lat": 55.4288572,
  "lon": 12.9538595
},
{
  "type": "node",
  "id": 2401456659,
  "lat": 55.4295281,
  "lon": 12.9537747
},
{
  "type": "node",
  "id": 2401456663,
  "lat": 55.4297979,
  "lon": 12.9518999
},
{
  "type": "node",
  "id": 2401456669,
  "lat": 55.4300405,
  "lon": 12.9537647
},
{
  "type": "node",
  "id": 2401456677,
  "lat": 55.4301339,
  "lon": 12.9538595
},
{
  "type": "node",
  "id": 2401456682,
  "lat": 55.4302703,
  "lon": 12.9519281
},
{
  "type": "node",
  "id": 2401456694,
  "lat": 55.4303859,
  "lon": 12.9538346
},
{
  "type": "node",
  "id": 2401456696,
  "lat": 55.4308067,
  "lon": 12.9520163
},
{
  "type": "node",
  "id": 2401456698,
  "lat": 55.4310171,
  "lon": 12.9537996
},
{
  "type": "node",
  "id": 5052317531,
  "lat": 55.4282799,
  "lon": 12.9526448
},
{
  "type": "node",
  "id": 5052317532,
  "lat": 55.4282342,
  "lon": 12.9525000
},
{
  "type": "node",
  "id": 5052317533,
  "lat": 55.4280866,
  "lon": 12.9523230
},
{
  "type": "node",
  "id": 5052317537,
  "lat": 55.4280272,
  "lon": 12.9516202
},
{
  "type": "node",
  "id": 5052317538,
  "lat": 55.4281307,
  "lon": 12.9515961
},
{
  "type": "node",
  "id": 5052317539,
  "lat": 55.4279070,
  "lon": 12.9517463
},
{
  "type": "node",
  "id": 5052317540,
  "lat": 55.4278720,
  "lon": 12.9520279
},
{
  "type": "node",
  "id": 5879580510,
  "lat": 55.5894712,
  "lon": 12.9419562
},
{
  "type": "node",
  "id": 5879580511,
  "lat": 55.5895606,
  "lon": 12.9420568
},
{
  "type": "node",
  "id": 5879580512,
  "lat": 55.5895076,
  "lon": 12.9422191
},
{
  "type": "node",
  "id": 5879580513,
  "lat": 55.5897372,
  "lon": 12.9424712
},
{
  "type": "node",
  "id": 5879580514,
  "lat": 55.5897645,
  "lon": 12.9424833
},
{
  "type": "node",
  "id": 5879580515,
  "lat": 55.5897979,
  "lon": 12.9424725
},
{
  "type": "node",
  "id": 5879580516,
  "lat": 55.5898251,
  "lon": 12.9424497
},
{
  "type": "node",
  "id": 5879580517,
  "lat": 55.5900283,
  "lon": 12.9419388
},
{
  "type": "node",
  "id": 5879580518,
  "lat": 55.5900374,
  "lon": 12.9419066
},
{
  "type": "node",
  "id": 5879580519,
  "lat": 55.5900358,
  "lon": 12.9418784
},
{
  "type": "node",
  "id": 5879580520,
  "lat": 55.5900290,
  "lon": 12.9418503
},
{
  "type": "node",
  "id": 5879580521,
  "lat": 55.5897433,
  "lon": 12.9412977
},
{
  "type": "node",
  "id": 5879580522,
  "lat": 55.5896599,
  "lon": 12.9413152
},
{
  "type": "node",
  "id": 2216508089,
  "lat": 55.5731479,
  "lon": 12.9982653
},
{
  "type": "node",
  "id": 2216508093,
  "lat": 55.5731555,
  "lon": 12.9981360
},
{
  "type": "node",
  "id": 2216508113,
  "lat": 55.5733457,
  "lon": 12.9983017
},
{
  "type": "node",
  "id": 2216508115,
  "lat": 55.5733533,
  "lon": 12.9981725
},
{
  "type": "node",
  "id": 3652670106,
  "lat": 55.6003521,
  "lon": 12.6347704
},
{
  "type": "node",
  "id": 3652670109,
  "lat": 55.6001218,
  "lon": 12.6348052
},
{
  "type": "node",
  "id": 3136895342,
  "lat": 55.6007398,
  "lon": 12.6362088
},
{
  "type": "node",
  "id": 3136895368,
  "lat": 55.6007995,
  "lon": 12.6358608
},
{
  "type": "node",
  "id": 3136895370,
  "lat": 55.6008033,
  "lon": 12.6362524
},
{
  "type": "node",
  "id": 3136895371,
  "lat": 55.6008052,
  "lon": 12.6362438
},
{
  "type": "node",
  "id": 3136895372,
  "lat": 55.6008199,
  "lon": 12.6357589
},
{
  "type": "node",
  "id": 3136895373,
  "lat": 55.6008236,
  "lon": 12.6358737
},
{
  "type": "node",
  "id": 3136895374,
  "lat": 55.6008316,
  "lon": 12.6361382
},
{
  "type": "node",
  "id": 3136895376,
  "lat": 55.6008381,
  "lon": 12.6356531
},
{
  "type": "node",
  "id": 3136895378,
  "lat": 55.6008413,
  "lon": 12.6357705
},
{
  "type": "node",
  "id": 3136895380,
  "lat": 55.6008495,
  "lon": 12.6362783
},
{
  "type": "node",
  "id": 3136895387,
  "lat": 55.6008708,
  "lon": 12.6359129
},
{
  "type": "node",
  "id": 3136895398,
  "lat": 55.6008851,
  "lon": 12.6362984
},
{
  "type": "node",
  "id": 3136895408,
  "lat": 55.6009002,
  "lon": 12.6357901
},
{
  "type": "node",
  "id": 3136895410,
  "lat": 55.6009024,
  "lon": 12.6357558
},
{
  "type": "node",
  "id": 3136895412,
  "lat": 55.6009057,
  "lon": 12.6357576
},
{
  "type": "node",
  "id": 3136895414,
  "lat": 55.6009131,
  "lon": 12.6356933
},
{
  "type": "node",
  "id": 3136895419,
  "lat": 55.6009300,
  "lon": 12.6359451
},
{
  "type": "node",
  "id": 3136895420,
  "lat": 55.6009304,
  "lon": 12.6363237
},
{
  "type": "node",
  "id": 3136895421,
  "lat": 55.6009319,
  "lon": 12.6363154
},
{
  "type": "node",
  "id": 3136895423,
  "lat": 55.6009339,
  "lon": 12.6359226
},
{
  "type": "node",
  "id": 3136895430,
  "lat": 55.6009481,
  "lon": 12.6362014
},
{
  "type": "node",
  "id": 3136895449,
  "lat": 55.6009909,
  "lon": 12.6363469
},
{
  "type": "node",
  "id": 3136895450,
  "lat": 55.6009913,
  "lon": 12.6359537
},
{
  "type": "node",
  "id": 3136895455,
  "lat": 55.6010151,
  "lon": 12.6358515
},
{
  "type": "node",
  "id": 3136895459,
  "lat": 55.6010224,
  "lon": 12.6358092
},
{
  "type": "node",
  "id": 3136895476,
  "lat": 55.6010780,
  "lon": 12.6358389
},
{
  "type": "node",
  "id": 3652670102,
  "lat": 55.6013007,
  "lon": 12.6357203
},
{
  "type": "node",
  "id": 3652670103,
  "lat": 55.6008840,
  "lon": 12.6364011
},
{
  "type": "node",
  "id": 3652670104,
  "lat": 55.6000718,
  "lon": 12.6354758
},
{
  "type": "node",
  "id": 3652670105,
  "lat": 55.5999672,
  "lon": 12.6360659
},
{
  "type": "node",
  "id": 3652670107,
  "lat": 55.6013219,
  "lon": 12.6358544
},
{
  "type": "node",
  "id": 3652670108,
  "lat": 55.6012886,
  "lon": 12.6364203
},
{
  "type": "node",
  "id": 3652670110,
  "lat": 55.6000324,
  "lon": 12.6354570
},
{
  "type": "node",
  "id": 3652670111,
  "lat": 55.6010977,
  "lon": 12.6364280
},
{
  "type": "node",
  "id": 3652670112,
  "lat": 55.6009022,
  "lon": 12.6353578
},
{
  "type": "node",
  "id": 370319434,
  "lat": 55.5935029,
  "lon": 12.6745948
},
{
  "type": "node",
  "id": 370319437,
  "lat": 55.5935603,
  "lon": 12.6745882
},
{
  "type": "node",
  "id": 3138211249,
  "lat": 55.5921383,
  "lon": 12.6715744
},
{
  "type": "node",
  "id": 3138211256,
  "lat": 55.5921398,
  "lon": 12.6716666
},
{
  "type": "node",
  "id": 3138211258,
  "lat": 55.5921401,
  "lon": 12.6716793
},
{
  "type": "node",
  "id": 3138211523,
  "lat": 55.5922126,
  "lon": 12.6715702
},
{
  "type": "node",
  "id": 3138211597,
  "lat": 55.5922293,
  "lon": 12.6715696
},
{
  "type": "node",
  "id": 3138211600,
  "lat": 55.5922298,
  "lon": 12.6715852
},
{
  "type": "node",
  "id": 3138211606,
  "lat": 55.5922317,
  "lon": 12.6716513
},
{
  "type": "node",
  "id": 3138211633,
  "lat": 55.5922376,
  "lon": 12.6716508
},
{
  "type": "node",
  "id": 3138211639,
  "lat": 55.5922385,
  "lon": 12.6716800
},
{
  "type": "node",
  "id": 370319436,
  "lat": 55.5935739,
  "lon": 12.6749583
},
{
  "type": "node",
  "id": 853524183,
  "lat": 55.5935165,
  "lon": 12.6749649
},
{
  "type": "node",
  "id": 3714215575,
  "lat": 55.5935395,
  "lon": 12.6759873
},
{
  "type": "node",
  "id": 3714215576,
  "lat": 55.5935259,
  "lon": 12.6759695
},
{
  "type": "node",
  "id": 3714215577,
  "lat": 55.5935077,
  "lon": 12.6759628
},
{
  "type": "node",
  "id": 3714215578,
  "lat": 55.5934912,
  "lon": 12.6759662
},
{
  "type": "node",
  "id": 3714215579,
  "lat": 55.5934800,
  "lon": 12.6759690
},
{
  "type": "node",
  "id": 3714215580,
  "lat": 55.5934686,
  "lon": 12.6759811
},
{
  "type": "node",
  "id": 3714215581,
  "lat": 55.5934613,
  "lon": 12.6759945
},
{
  "type": "node",
  "id": 3714215582,
  "lat": 55.5934564,
  "lon": 12.6760041
},
{
  "type": "node",
  "id": 3714215583,
  "lat": 55.5934697,
  "lon": 12.6760176
},
{
  "type": "node",
  "id": 3714215584,
  "lat": 55.5934920,
  "lon": 12.6760267
},
{
  "type": "node",
  "id": 3714215585,
  "lat": 55.5935137,
  "lon": 12.6760243
},
{
  "type": "node",
  "id": 3714215586,
  "lat": 55.5935303,
  "lon": 12.6760142
},
{
  "type": "node",
  "id": 3714215587,
  "lat": 55.5935371,
  "lon": 12.6759993
},
{
  "type": "node",
  "id": 25261726,
  "lat": 55.6344615,
  "lon": 12.6383802
},
{
  "type": "node",
  "id": 297326275,
  "lat": 55.6350051,
  "lon": 12.6388245
},
{
  "type": "node",
  "id": 297326297,
  "lat": 55.6349087,
  "lon": 12.6381716
},
{
  "type": "node",
  "id": 297326320,
  "lat": 55.6348532,
  "lon": 12.6383412
},
{
  "type": "node",
  "id": 297326321,
  "lat": 55.6349130,
  "lon": 12.6387413
},
{
  "type": "node",
  "id": 297326322,
  "lat": 55.6345115,
  "lon": 12.6389575
},
{
  "type": "node",
  "id": 297326323,
  "lat": 55.6344664,
  "lon": 12.6386126
},
{
  "type": "node",
  "id": 297326326,
  "lat": 55.6343809,
  "lon": 12.6385391
},
{
  "type": "node",
  "id": 297326327,
  "lat": 55.6344590,
  "lon": 12.6391185
},
{
  "type": "node",
  "id": 3379469183,
  "lat": 55.6344774,
  "lon": 12.6384699
},
{
  "type": "node",
  "id": 3379469185,
  "lat": 55.6347952,
  "lon": 12.6381521
},
{
  "type": "node",
  "id": 3379469186,
  "lat": 55.6348227,
  "lon": 12.6382246
},
{
  "type": "node",
  "id": 1205735932,
  "lat": 55.6742461,
  "lon": 12.5956431
},
{
  "type": "node",
  "id": 1205736046,
  "lat": 55.6742265,
  "lon": 12.5942549
},
{
  "type": "node",
  "id": 1205736061,
  "lat": 55.6743488,
  "lon": 12.5954428
},
{
  "type": "node",
  "id": 1205736136,
  "lat": 55.6740716,
  "lon": 12.5949777
},
{
  "type": "node",
  "id": 1205736191,
  "lat": 55.6743270,
  "lon": 12.5944163
},
{
  "type": "node",
  "id": 1206449531,
  "lat": 55.6714483,
  "lon": 12.5959862
},
{
  "type": "node",
  "id": 3798545701,
  "lat": 55.6741576,
  "lon": 12.5947911
},
{
  "type": "node",
  "id": 4620754558,
  "lat": 55.6738946,
  "lon": 12.5950077
},
{
  "type": "node",
  "id": 4665271395,
  "lat": 55.6742321,
  "lon": 12.5955570
},
{
  "type": "node",
  "id": 4665271396,
  "lat": 55.6742168,
  "lon": 12.5955955
},
{
  "type": "node",
  "id": 4665271398,
  "lat": 55.6740213,
  "lon": 12.5952135
},
{
  "type": "node",
  "id": 1206449522,
  "lat": 55.6715497,
  "lon": 12.5962517
},
{
  "type": "node",
  "id": 1206449556,
  "lat": 55.6714498,
  "lon": 12.5961847
},
{
  "type": "node",
  "id": 1206449558,
  "lat": 55.6714604,
  "lon": 12.5961632
},
{
  "type": "node",
  "id": 1206449570,
  "lat": 55.6715814,
  "lon": 12.5961793
},
{
  "type": "node",
  "id": 1206449573,
  "lat": 55.6714362,
  "lon": 12.5961739
},
{
  "type": "node",
  "id": 1206449591,
  "lat": 55.6713954,
  "lon": 12.5961873
},
{
  "type": "node",
  "id": 1206449726,
  "lat": 55.6713670,
  "lon": 12.5963282
},
{
  "type": "node",
  "id": 1206449749,
  "lat": 55.6713999,
  "lon": 12.5963778
},
{
  "type": "node",
  "id": 1206449753,
  "lat": 55.6713666,
  "lon": 12.5962490
},
{
  "type": "node",
  "id": 1206449828,
  "lat": 55.6714014,
  "lon": 12.5960774
},
{
  "type": "node",
  "id": 1206449867,
  "lat": 55.6714438,
  "lon": 12.5963724
},
{
  "type": "node",
  "id": 1206449869,
  "lat": 55.6714256,
  "lon": 12.5964046
},
{
  "type": "node",
  "id": 1206449873,
  "lat": 55.6714681,
  "lon": 12.5964646
},
{
  "type": "node",
  "id": 1206449876,
  "lat": 55.6714590,
  "lon": 12.5964860
},
{
  "type": "node",
  "id": 2116275796,
  "lat": 55.6715360,
  "lon": 12.5965843
},
{
  "type": "node",
  "id": 3624957931,
  "lat": 55.6716316,
  "lon": 12.5963626
},
{
  "type": "node",
  "id": 278169518,
  "lat": 55.6862382,
  "lon": 12.5924354
},
{
  "type": "node",
  "id": 278169519,
  "lat": 55.6858059,
  "lon": 12.5940524
},
{
  "type": "node",
  "id": 278169525,
  "lat": 55.6859766,
  "lon": 12.5939471
},
{
  "type": "node",
  "id": 278169529,
  "lat": 55.6867717,
  "lon": 12.5931316
},
{
  "type": "node",
  "id": 278169531,
  "lat": 55.6864440,
  "lon": 12.5943444
},
{
  "type": "node",
  "id": 278169533,
  "lat": 55.6865141,
  "lon": 12.5946482
},
{
  "type": "node",
  "id": 278169535,
  "lat": 55.6869442,
  "lon": 12.5930394
},
{
  "type": "node",
  "id": 1217537068,
  "lat": 55.6865962,
  "lon": 12.5927223
},
{
  "type": "node",
  "id": 2248488930,
  "lat": 55.6863043,
  "lon": 12.5927342
},
{
  "type": "node",
  "id": 6726781871,
  "lat": 55.6864684,
  "lon": 12.5926291
},
{
  "type": "node",
  "id": 6726781872,
  "lat": 55.6864716,
  "lon": 12.5926174
},
{
  "type": "node",
  "id": 6726781873,
  "lat": 55.6866868,
  "lon": 12.5928229
},
{
  "type": "node",
  "id": 6726781874,
  "lat": 55.6866921,
  "lon": 12.5928030
},
{
  "type": "node",
  "id": 283649347,
  "lat": 55.6913581,
  "lon": 12.5874030
},
{
  "type": "node",
  "id": 1291669508,
  "lat": 55.6916333,
  "lon": 12.5872341
},
{
  "type": "node",
  "id": 1291669510,
  "lat": 55.6913203,
  "lon": 12.5874030
},
{
  "type": "node",
  "id": 1291669518,
  "lat": 55.6912175,
  "lon": 12.5871482
},
{
  "type": "node",
  "id": 1291669520,
  "lat": 55.6914745,
  "lon": 12.5868961
},
{
  "type": "node",
  "id": 1291669535,
  "lat": 55.6914201,
  "lon": 12.5868881
},
{
  "type": "node",
  "id": 1291669536,
  "lat": 55.6913868,
  "lon": 12.5868264
},
{
  "type": "node",
  "id": 1291669576,
  "lat": 55.6914594,
  "lon": 12.5875613
},
{
  "type": "node",
  "id": 1291669577,
  "lat": 55.6915244,
  "lon": 12.5869739
},
{
  "type": "node",
  "id": 1291669583,
  "lat": 55.6915274,
  "lon": 12.5870490
},
{
  "type": "node",
  "id": 1291669590,
  "lat": 55.6912599,
  "lon": 12.5872126
},
{
  "type": "node",
  "id": 1291669598,
  "lat": 55.6912659,
  "lon": 12.5873118
},
{
  "type": "node",
  "id": 278167146,
  "lat": 55.6859695,
  "lon": 12.5970034
},
{
  "type": "node",
  "id": 278167148,
  "lat": 55.6858879,
  "lon": 12.5973264
},
{
  "type": "node",
  "id": 278167149,
  "lat": 55.6862667,
  "lon": 12.5976277
},
{
  "type": "node",
  "id": 278167150,
  "lat": 55.6863483,
  "lon": 12.5973043
},
{
  "type": "node",
  "id": 3357426573,
  "lat": 55.6860193,
  "lon": 12.5975412
},
{
  "type": "node",
  "id": 3357426574,
  "lat": 55.6860425,
  "lon": 12.5974492
},
{
  "type": "node",
  "id": 3357426575,
  "lat": 55.6860751,
  "lon": 12.5975854
},
{
  "type": "node",
  "id": 3357426576,
  "lat": 55.6860982,
  "lon": 12.5974938
},
{
  "type": "node",
  "id": 1205566144,
  "lat": 55.6877563,
  "lon": 12.6075583
},
{
  "type": "node",
  "id": 1205566147,
  "lat": 55.6878239,
  "lon": 12.6075366
},
{
  "type": "node",
  "id": 1205566185,
  "lat": 55.6878079,
  "lon": 12.6073802
},
{
  "type": "node",
  "id": 1205566196,
  "lat": 55.6877392,
  "lon": 12.6073903
},
{
  "type": "node",
  "id": 1205566210,
  "lat": 55.6877329,
  "lon": 12.6073053
},
{
  "type": "node",
  "id": 1205566225,
  "lat": 55.6877236,
  "lon": 12.6073953
},
{
  "type": "node",
  "id": 1205566227,
  "lat": 55.6877150,
  "lon": 12.6073111
},
{
  "type": "node",
  "id": 1205566228,
  "lat": 55.6878262,
  "lon": 12.6072461
},
{
  "type": "node",
  "id": 1205566241,
  "lat": 55.6877300,
  "lon": 12.6072769
},
{
  "type": "node",
  "id": 1205566245,
  "lat": 55.6878389,
  "lon": 12.6073703
},
{
  "type": "node",
  "id": 2621288257,
  "lat": 55.6650347,
  "lon": 12.7466719
},
{
  "type": "node",
  "id": 2621288347,
  "lat": 55.6650135,
  "lon": 12.7466146
},
{
  "type": "node",
  "id": 2621288351,
  "lat": 55.6651642,
  "lon": 12.7465217
},
{
  "type": "node",
  "id": 2621288462,
  "lat": 55.6651430,
  "lon": 12.7464644
},
{
  "type": "node",
  "id": 637290874,
  "lat": 55.6044015,
  "lon": 12.9825408
},
{
  "type": "node",
  "id": 637290897,
  "lat": 55.6045469,
  "lon": 12.9822833
},
{
  "type": "node",
  "id": 637290914,
  "lat": 55.6046075,
  "lon": 12.9823906
},
{
  "type": "node",
  "id": 637290945,
  "lat": 55.6047348,
  "lon": 12.9821653
},
{
  "type": "node",
  "id": 637290967,
  "lat": 55.6048742,
  "lon": 12.9824121
},
{
  "type": "node",
  "id": 637290987,
  "lat": 55.6051651,
  "lon": 12.9819507
},
{
  "type": "node",
  "id": 637291007,
  "lat": 55.6052439,
  "lon": 12.9821009
},
{
  "type": "node",
  "id": 637291025,
  "lat": 55.6052197,
  "lon": 12.9821438
},
{
  "type": "node",
  "id": 637291044,
  "lat": 55.6052439,
  "lon": 12.9821975
},
{
  "type": "node",
  "id": 329006869,
  "lat": 55.6055766,
  "lon": 12.9847430
},
{
  "type": "node",
  "id": 329006871,
  "lat": 55.6054398,
  "lon": 12.9846777
},
{
  "type": "node",
  "id": 329006872,
  "lat": 55.6053264,
  "lon": 12.9854228
},
{
  "type": "node",
  "id": 329006874,
  "lat": 55.6054632,
  "lon": 12.9854881
},
{
  "type": "node",
  "id": 637291080,
  "lat": 55.6049894,
  "lon": 12.9830451
},
{
  "type": "node",
  "id": 637291106,
  "lat": 55.6050560,
  "lon": 12.9829485
},
{
  "type": "node",
  "id": 637291130,
  "lat": 55.6052848,
  "lon": 12.9833803
},
{
  "type": "node",
  "id": 637291169,
  "lat": 55.6050165,
  "lon": 12.9836061
},
{
  "type": "node",
  "id": 637291202,
  "lat": 55.6047386,
  "lon": 12.9830543
},
{
  "type": "node",
  "id": 637291230,
  "lat": 55.6046924,
  "lon": 12.9831202
},
{
  "type": "node",
  "id": 637300165,
  "lat": 55.6048681,
  "lon": 12.9828198
},
{
  "type": "node",
  "id": 2582227199,
  "lat": 55.6048049,
  "lon": 12.9831897
},
{
  "type": "node",
  "id": 6379423476,
  "lat": 55.6054051,
  "lon": 13.0057592
},
{
  "type": "node",
  "id": 6379423477,
  "lat": 55.6053366,
  "lon": 13.0057905
},
{
  "type": "node",
  "id": 6379423478,
  "lat": 55.6053469,
  "lon": 13.0057286
},
{
  "type": "node",
  "id": 6379423479,
  "lat": 55.6053939,
  "lon": 13.0058246
},
{
  "type": "node",
  "id": 2182977959,
  "lat": 55.6500773,
  "lon": 13.1114377
},
{
  "type": "node",
  "id": 2182977963,
  "lat": 55.6500886,
  "lon": 13.1123974
},
{
  "type": "node",
  "id": 2182978071,
  "lat": 55.6507624,
  "lon": 13.1114124
},
{
  "type": "node",
  "id": 2182978075,
  "lat": 55.6507737,
  "lon": 13.1123721
},
{
  "type": "node",
  "id": 2433517200,
  "lat": 55.7611457,
  "lon": 13.0163304
},
{
  "type": "node",
  "id": 2433517201,
  "lat": 55.7611808,
  "lon": 13.0166318
},
{
  "type": "node",
  "id": 2433517202,
  "lat": 55.7612405,
  "lon": 13.0162954
},
{
  "type": "node",
  "id": 2433517203,
  "lat": 55.7612477,
  "lon": 13.0163573
},
{
  "type": "node",
  "id": 2433517205,
  "lat": 55.7612674,
  "lon": 13.0165259
},
{
  "type": "node",
  "id": 2433517206,
  "lat": 55.7612757,
  "lon": 13.0165968
},
{
  "type": "node",
  "id": 2433517207,
  "lat": 55.7613894,
  "lon": 13.0163051
},
{
  "type": "node",
  "id": 2433517208,
  "lat": 55.7614091,
  "lon": 13.0164737
},
{
  "type": "node",
  "id": 1092525578,
  "lat": 55.7023182,
  "lon": 13.1958136
},
{
  "type": "node",
  "id": 1092525622,
  "lat": 55.7021210,
  "lon": 13.1954183
},
{
  "type": "node",
  "id": 1092525663,
  "lat": 55.7021521,
  "lon": 13.1954156
},
{
  "type": "node",
  "id": 1092525788,
  "lat": 55.7021805,
  "lon": 13.1957213
},
{
  "type": "node",
  "id": 1092525793,
  "lat": 55.7021831,
  "lon": 13.1958264
},
{
  "type": "node",
  "id": 1092525848,
  "lat": 55.7022791,
  "lon": 13.1955075
},
{
  "type": "node",
  "id": 1092525971,
  "lat": 55.7020625,
  "lon": 13.1954470
},
{
  "type": "node",
  "id": 1092525975,
  "lat": 55.7021864,
  "lon": 13.1954095
},
{
  "type": "node",
  "id": 1092526037,
  "lat": 55.7022832,
  "lon": 13.1957150
},
{
  "type": "node",
  "id": 1092526057,
  "lat": 55.7020697,
  "lon": 13.1958315
},
{
  "type": "node",
  "id": 1092526078,
  "lat": 55.7021764,
  "lon": 13.1955139
},
{
  "type": "node",
  "id": 1837386812,
  "lat": 55.7023174,
  "lon": 13.1958052
},
{
  "type": "node",
  "id": 3496049307,
  "lat": 55.7020524,
  "lon": 13.1955620
},
{
  "type": "node",
  "id": 3496049308,
  "lat": 55.7020525,
  "lon": 13.1955412
},
{
  "type": "node",
  "id": 3496049309,
  "lat": 55.7020527,
  "lon": 13.1955190
},
{
  "type": "node",
  "id": 3496049315,
  "lat": 55.7020625,
  "lon": 13.1955190
},
{
  "type": "node",
  "id": 3496049316,
  "lat": 55.7020637,
  "lon": 13.1955626
},
{
  "type": "node",
  "id": 3496049327,
  "lat": 55.7021211,
  "lon": 13.1954412
},
{
  "type": "node",
  "id": 3496049336,
  "lat": 55.7021828,
  "lon": 13.1957885
},
{
  "type": "node",
  "id": 3496049353,
  "lat": 55.7022837,
  "lon": 13.1958164
},
{
  "type": "node",
  "id": 3496049354,
  "lat": 55.7022843,
  "lon": 13.1957843
},
{
  "type": "node",
  "id": 472412850,
  "lat": 55.7043261,
  "lon": 13.1947228
},
{
  "type": "node",
  "id": 472412853,
  "lat": 55.7044501,
  "lon": 13.1948202
},
{
  "type": "node",
  "id": 472412854,
  "lat": 55.7043183,
  "lon": 13.1953481
},
{
  "type": "node",
  "id": 472412856,
  "lat": 55.7041944,
  "lon": 13.1952507
},
{
  "type": "node",
  "id": 544488804,
  "lat": 55.7054469,
  "lon": 13.1977055
},
{
  "type": "node",
  "id": 795533901,
  "lat": 55.7054976,
  "lon": 13.1977479
},
{
  "type": "node",
  "id": 795771121,
  "lat": 55.7042111,
  "lon": 13.1968112
},
{
  "type": "node",
  "id": 795771127,
  "lat": 55.7042267,
  "lon": 13.1967514
},
{
  "type": "node",
  "id": 795771133,
  "lat": 55.7049265,
  "lon": 13.1986081
},
{
  "type": "node",
  "id": 795771144,
  "lat": 55.7052572,
  "lon": 13.1984488
},
{
  "type": "node",
  "id": 795771146,
  "lat": 55.7042403,
  "lon": 13.1967053
},
{
  "type": "node",
  "id": 795771202,
  "lat": 55.7043799,
  "lon": 13.1962967
},
{
  "type": "node",
  "id": 795771226,
  "lat": 55.7053902,
  "lon": 13.1981541
},
{
  "type": "node",
  "id": 795771232,
  "lat": 55.7045221,
  "lon": 13.1978995
},
{
  "type": "node",
  "id": 795771235,
  "lat": 55.7053604,
  "lon": 13.1962523
},
{
  "type": "node",
  "id": 795771236,
  "lat": 55.7049849,
  "lon": 13.1987392
},
{
  "type": "node",
  "id": 795771250,
  "lat": 55.7051132,
  "lon": 13.1961012
},
{
  "type": "node",
  "id": 795771264,
  "lat": 55.7050224,
  "lon": 13.1960346
},
{
  "type": "node",
  "id": 795771286,
  "lat": 55.7051176,
  "lon": 13.1987265
},
{
  "type": "node",
  "id": 795771296,
  "lat": 55.7040677,
  "lon": 13.1973761
},
{
  "type": "node",
  "id": 795771315,
  "lat": 55.7042445,
  "lon": 13.1966956
},
{
  "type": "node",
  "id": 795771323,
  "lat": 55.7043882,
  "lon": 13.1962717
},
{
  "type": "node",
  "id": 795771326,
  "lat": 55.7052739,
  "lon": 13.1962077
},
{
  "type": "node",
  "id": 795771336,
  "lat": 55.7055961,
  "lon": 13.1965386
},
{
  "type": "node",
  "id": 795771342,
  "lat": 55.7054542,
  "lon": 13.1976478
},
{
  "type": "node",
  "id": 795771426,
  "lat": 55.7054456,
  "lon": 13.1979635
},
{
  "type": "node",
  "id": 795771438,
  "lat": 55.7041530,
  "lon": 13.1970553
},
{
  "type": "node",
  "id": 795771474,
  "lat": 55.7041168,
  "lon": 13.1972056
},
{
  "type": "node",
  "id": 795771494,
  "lat": 55.7040314,
  "lon": 13.1975254
},
{
  "type": "node",
  "id": 795771514,
  "lat": 55.7056165,
  "lon": 13.1963781
},
{
  "type": "node",
  "id": 795771549,
  "lat": 55.7051137,
  "lon": 13.1987342
},
{
  "type": "node",
  "id": 795771559,
  "lat": 55.7053637,
  "lon": 13.1962752
},
{
  "type": "node",
  "id": 795771561,
  "lat": 55.7054605,
  "lon": 13.1975992
},
{
  "type": "node",
  "id": 795771577,
  "lat": 55.7054836,
  "lon": 13.1963251
},
{
  "type": "node",
  "id": 795771584,
  "lat": 55.7055515,
  "lon": 13.1968918
},
{
  "type": "node",
  "id": 795792139,
  "lat": 55.7046936,
  "lon": 13.1960664
},
{
  "type": "node",
  "id": 1025606091,
  "lat": 55.7077704,
  "lon": 13.1979925
},
{
  "type": "node",
  "id": 1025606189,
  "lat": 55.7080380,
  "lon": 13.1981375
},
{
  "type": "node",
  "id": 1029436417,
  "lat": 55.7054590,
  "lon": 13.1979158
},
{
  "type": "node",
  "id": 1029437442,
  "lat": 55.7054457,
  "lon": 13.1979015
},
{
  "type": "node",
  "id": 1029488872,
  "lat": 55.7078220,
  "lon": 13.1987652
},
{
  "type": "node",
  "id": 1029489035,
  "lat": 55.7076124,
  "lon": 13.1984518
},
{
  "type": "node",
  "id": 1029489115,
  "lat": 55.7076721,
  "lon": 13.1986008
},
{
  "type": "node",
  "id": 1029489121,
  "lat": 55.7076193,
  "lon": 13.1987544
},
{
  "type": "node",
  "id": 1029489141,
  "lat": 55.7075384,
  "lon": 13.1986667
},
{
  "type": "node",
  "id": 1092525518,
  "lat": 55.7023416,
  "lon": 13.1953887
},
{
  "type": "node",
  "id": 1092526072,
  "lat": 55.7023605,
  "lon": 13.1957898
},
{
  "type": "node",
  "id": 1240875369,
  "lat": 55.7050613,
  "lon": 13.1987505
},
{
  "type": "node",
  "id": 1240875564,
  "lat": 55.7050200,
  "lon": 13.1988085
},
{
  "type": "node",
  "id": 1373851647,
  "lat": 55.7042165,
  "lon": 13.1952681
},
{
  "type": "node",
  "id": 1373851650,
  "lat": 55.7042473,
  "lon": 13.1952923
},
{
  "type": "node",
  "id": 1837386814,
  "lat": 55.7023462,
  "lon": 13.1954733
},
{
  "type": "node",
  "id": 1973878964,
  "lat": 55.7045091,
  "lon": 13.1958877
},
{
  "type": "node",
  "id": 1973878992,
  "lat": 55.7048889,
  "lon": 13.1962555
},
{
  "type": "node",
  "id": 1974471203,
  "lat": 55.7045947,
  "lon": 13.1979531
},
{
  "type": "node",
  "id": 1974471213,
  "lat": 55.7046290,
  "lon": 13.1980355
},
{
  "type": "node",
  "id": 1974471217,
  "lat": 55.7047212,
  "lon": 13.1982219
},
{
  "type": "node",
  "id": 1974471223,
  "lat": 55.7047879,
  "lon": 13.1983497
},
{
  "type": "node",
  "id": 1974471241,
  "lat": 55.7049609,
  "lon": 13.1962271
},
{
  "type": "node",
  "id": 1974471243,
  "lat": 55.7049966,
  "lon": 13.1960809
},
{
  "type": "node",
  "id": 3465709211,
  "lat": 55.7077151,
  "lon": 13.1980835
},
{
  "type": "node",
  "id": 3465709212,
  "lat": 55.7077157,
  "lon": 13.1980711
},
{
  "type": "node",
  "id": 3465709213,
  "lat": 55.7077170,
  "lon": 13.1980971
},
{
  "type": "node",
  "id": 3465709214,
  "lat": 55.7077195,
  "lon": 13.1980626
},
{
  "type": "node",
  "id": 3465709217,
  "lat": 55.7077230,
  "lon": 13.1981033
},
{
  "type": "node",
  "id": 3465709219,
  "lat": 55.7077259,
  "lon": 13.1980604
},
{
  "type": "node",
  "id": 3465709221,
  "lat": 55.7077306,
  "lon": 13.1981072
},
{
  "type": "node",
  "id": 3465709222,
  "lat": 55.7077332,
  "lon": 13.1980621
},
{
  "type": "node",
  "id": 3465709223,
  "lat": 55.7077356,
  "lon": 13.1986715
},
{
  "type": "node",
  "id": 3465709225,
  "lat": 55.7077421,
  "lon": 13.1980734
},
{
  "type": "node",
  "id": 3465709236,
  "lat": 55.7078024,
  "lon": 13.1982222
},
{
  "type": "node",
  "id": 3465709245,
  "lat": 55.7078664,
  "lon": 13.1982916
},
{
  "type": "node",
  "id": 3465709247,
  "lat": 55.7078855,
  "lon": 13.1978080
},
{
  "type": "node",
  "id": 3465709249,
  "lat": 55.7079930,
  "lon": 13.1978417
},
{
  "type": "node",
  "id": 3482232625,
  "lat": 55.7053180,
  "lon": 13.1983242
},
{
  "type": "node",
  "id": 3502026171,
  "lat": 55.7042624,
  "lon": 13.1949780
},
{
  "type": "node",
  "id": 3770909741,
  "lat": 55.7049437,
  "lon": 13.1963053
},
{
  "type": "node",
  "id": 4697696343,
  "lat": 55.7078169,
  "lon": 13.1978229
},
{
  "type": "node",
  "id": 4697696344,
  "lat": 55.7078026,
  "lon": 13.1978926
},
{
  "type": "node",
  "id": 4697696345,
  "lat": 55.7078895,
  "lon": 13.1977438
},
{
  "type": "node",
  "id": 4697696346,
  "lat": 55.7078267,
  "lon": 13.1977371
},
{
  "type": "node",
  "id": 4697696348,
  "lat": 55.7079763,
  "lon": 13.1979436
},
{
  "type": "node",
  "id": 4697696349,
  "lat": 55.7080685,
  "lon": 13.1979959
},
{
  "type": "node",
  "id": 2450649074,
  "lat": 55.8705205,
  "lon": 12.8293984
},
{
  "type": "node",
  "id": 2450649090,
  "lat": 55.8706647,
  "lon": 12.8294645
},
{
  "type": "node",
  "id": 2450649103,
  "lat": 55.8707057,
  "lon": 12.8281144
},
{
  "type": "node",
  "id": 2450649125,
  "lat": 55.8708499,
  "lon": 12.8281805
},
{
  "type": "node",
  "id": 4875620596,
  "lat": 55.8502026,
  "lon": 13.3214908
},
{
  "type": "node",
  "id": 4875620597,
  "lat": 55.8503858,
  "lon": 13.3214804
},
{
  "type": "node",
  "id": 4875620598,
  "lat": 55.8503834,
  "lon": 13.3213640
},
{
  "type": "node",
  "id": 4875620599,
  "lat": 55.8502014,
  "lon": 13.3213744
},
{
  "type": "way",
  "id": 25452023,
  "nodes": [
    277363368,
    1039436918,
    277363369,
    1039436912,
    1039436905,
    1039436903,
    1039436908,
    277363370,
    277363371,
    277363372,
    277363374,
    277363375,
    277363376,
    1039436914,
    1039436931,
    1039436902,
    277363368
  ]
},
{
  "type": "way",
  "id": 25452046,
  "nodes": [
    277363465,
    277363466,
    283576327,
    283576328,
    3208182416,
    723140554,
    283576326,
    277363467,
    277363468,
    277363465
  ]
},
{
  "type": "way",
  "id": 89696806,
  "nodes": [
    1039436926,
    1039436927,
    1039436935,
    1039436904,
    1039436926
  ]
},
{
  "type": "way",
  "id": 147340117,
  "nodes": [
    1605597629,
    1605597635,
    1605597642,
    1605597600,
    1605597629
  ]
},
{
  "type": "way",
  "id": 147340119,
  "nodes": [
    1605597633,
    1605597596,
    1605597593,
    1605597647,
    1605597633
  ]
},
{
  "type": "way",
  "id": 147340120,
  "nodes": [
    1605597645,
    1605597598,
    1605597644,
    1605597640,
    1605597645
  ]
},
{
  "type": "way",
  "id": 314828177,
  "nodes": [
    3208723248,
    3208723249,
    3208723247,
    3208723246,
    3208723245,
    3208723242,
    3208723248
  ]
},
{
  "type": "way",
  "id": 314828179,
  "nodes": [
    3208723240,
    3208723243,
    3208723241,
    3208723244,
    3208723239,
    3208723238,
    3208723237,
    3208723236,
    3208723240
  ]
},
{
  "type": "way",
  "id": 417635088,
  "nodes": [
    4181510710,
    4181510709,
    4181510707,
    4181510708,
    4181510710
  ]
},
{
  "type": "way",
  "id": 25451038,
  "nodes": [
    277355155,
    277355156,
    277355157,
    277355158,
    277355155
  ]
},
{
  "type": "way",
  "id": 176142680,
  "nodes": [
    1867039774,
    1867039773,
    1867039775,
    1867039777,
    1867039774
  ]
},
{
  "type": "way",
  "id": 308403691,
  "nodes": [
    3136895476,
    3136895449,
    3136895421,
    3136895420,
    3136895398,
    3136895380,
    3136895370,
    3136895371,
    3136895342,
    3136895368,
    3136895373,
    3136895378,
    3136895372,
    3136895376,
    3136895414,
    3136895410,
    3136895412,
    3136895408,
    3136895455,
    3136895459,
    3136895476
  ]
},
{
  "type": "way",
  "id": 308403694,
  "nodes": [
    3136895450,
    3136895423,
    3136895419,
    3136895387,
    3136895374,
    3136895430,
    3136895450
  ]
},
{
  "type": "way",
  "id": 27099107,
  "nodes": [
    25261726,
    3379469183,
    297326326,
    297326327,
    297326275,
    297326297,
    3379469186,
    3379469185,
    25261726
  ]
},
{
  "type": "way",
  "id": 330912062,
  "nodes": [
    297326320,
    297326321,
    297326322,
    297326323,
    297326320
  ]
},
{
  "type": "way",
  "id": 25524936,
  "nodes": [
    278169533,
    278169535,
    6726781873,
    6726781874,
    1217537068,
    6726781872,
    6726781871,
    278169518,
    278169519,
    278169533
  ]
},
{
  "type": "way",
  "id": 27291215,
  "nodes": [
    278169525,
    2248488930,
    278169529,
    278169531,
    278169525
  ]
},
{
  "type": "way",
  "id": 93981885,
  "nodes": [
    1092526078,
    1092525788,
    1092526037,
    1092525848,
    1092526078
  ]
},
{
  "type": "way",
  "id": 93981881,
  "nodes": [
    1092525663,
    1092525975,
    1092525518,
    1837386814,
    1092526072,
    1837386812,
    1092525578,
    3496049353,
    3496049354,
    3496049336,
    1092525793,
    1092526057,
    3496049316,
    3496049307,
    3496049308,
    3496049309,
    3496049315,
    1092525971,
    3496049327,
    1092525622,
    1092525663
  ]
}

  ]
}
