{
  "version": 0.6,
  "generator": "Overpass API 0.7.55.1011 6c2efc30",
  "osm3s": {
    "timestamp_osm_base": "2020-02-14T17:53:02Z",
    "copyright": "The data included in this document is from www.openstreetmap.org. The data is made available under ODbL."
  },
  "elements": [

{
  "type": "node",
  "id": 30310859,
  "lat": 59.9357546,
  "lon": 10.7115263,
  "tags": {
    "name": "Det internasjonale barnekunstmuseet",
    "name:en": "The International Museum of Children's Art",
    "tourism": "museum",
    "wikidata": "Q11960263"
  }
},
{
  "type": "node",
  "id": 270315261,
  "lat": 59.9078026,
  "lon": 10.7357625,
  "tags": {
    "addr:city": "Oslo",
    "name": "Norges hjemmefrontmuseum",
    "name:de": "Norwegisches Heimatfront-Museum",
    "name:en": "Norway's Resistance Museum",
    "name:ru": "Музей движения Сопротивления",
    "tourism": "museum",
    "website": "http://www.mil.no/felles/nhm/",
    "wikidata": "Q1781522"
  }
},
{
  "type": "node",
  "id": 293030286,
  "lat": 59.9219410,
  "lon": 11.1537386,
  "tags": {
    "name": "Fetsund Lensemuseum",
    "tourism": "museum",
    "website": "https://mia.no/fetsundlenser",
    "website_1": "https://youtu.be/d8cMPSSERrQ",
    "wheelchair": "yes"
  }
},
{
  "type": "node",
  "id": 305913819,
  "lat": 59.9312732,
  "lon": 10.7163625,
  "tags": {
    "addr:city": "Oslo",
    "addr:housenumber": "15",
    "addr:postcode": "0363",
    "addr:street": "Gardeveien",
    "email": "postboks@sporveismuseet.no",
    "name": "Sporveismuseet",
    "name:en": "The Tramway Museum",
    "opening_hours": "Sa-Mo 12:00-15:00",
    "phone": "+47 22609409",
    "tourism": "museum",
    "website": "http://www.sporveismuseet.no/",
    "wheelchair": "limited",
    "wikidata": "Q7107052"
  }
},
{
  "type": "node",
  "id": 330082033,
  "lat": 59.9239720,
  "lon": 10.7026390,
  "tags": {
    "addr:city": "Oslo",
    "addr:housenumber": "67",
    "addr:postcode": "0266",
    "addr:street": "Frognerveien",
    "alt_name": "Oslo bymuseum",
    "fee": "no",
    "name": "Bymuseet",
    "name:en": "Oslo City Museum",
    "name:ru": "Городской музей",
    "old_name": "Oslo Bymuseum",
    "opening_hours": "Tu-Su 11:00-16:00",
    "toilets:wheelchair": "yes",
    "tourism": "museum",
    "wheelchair": "limited",
    "wikidata": "Q2578922",
    "wikipedia": "en:Oslo City Museum"
  }
},
{
  "type": "node",
  "id": 364804178,
  "lat": 59.9183802,
  "lon": 10.7430197,
  "tags": {
    "addr:city": "Oslo",
    "addr:housenumber": "1",
    "addr:postcode": "0165",
    "addr:street": "St. Olavs gate",
    "email": "info@nasjonalmuseet.no",
    "fax": "+47 21982093",
    "name": "Kunstindustrimuseet",
    "name:en": "The Museum of Decorative Arts and Design",
    "opening_hours": "Tu-We 11:00-17:00; Th 11:00-19:00; Fr 11:00-17:00; Sa-Su 12:00-16:00",
    "operator": "Nasjonalmuseet for kunst, arkitektur og design",
    "phone": "+47 21982000",
    "tourism": "museum",
    "website": "http://nasjonalmuseet.no/",
    "wikidata": "Q7061182"
  }
},
{
  "type": "node",
  "id": 380254654,
  "lat": 59.8395811,
  "lon": 10.5114941,
  "tags": {
    "name": "Strandsitterhuset",
    "tourism": "museum"
  }
},
{
  "type": "node",
  "id": 384929828,
  "lat": 59.8067443,
  "lon": 10.4922554,
  "tags": {
    "alt_name": "Selvikvillaen",
    "name": "Vollen Kystkultursenter",
    "operator": "Asker museum",
    "tourism": "museum"
  }
},
{
  "type": "node",
  "id": 855363455,
  "lat": 59.9087590,
  "lon": 10.7402266,
  "tags": {
    "addr:city": "Oslo",
    "addr:housenumber": "3",
    "addr:postcode": "0151",
    "addr:street": "Bankplassen",
    "email": "info@nasjonalmuseet.no",
    "fax": "+47 21982093",
    "name": "Nasjonalmuseet - Arkitektur",
    "name:en": "The National Museum – Architecture",
    "opening_hours": "Tu-We 11:00-17:00; Th 11:00-19:00; Fr 11:00-17:00; Sa-Su 12:00-17:00",
    "operator": "Nasjonalmuseet for kunst, arkitektur og design",
    "phone": "+47 21982000",
    "tourism": "museum",
    "website": "http://nasjonalmuseet.no/",
    "wheelchair": "yes"
  }
},
{
  "type": "node",
  "id": 973793392,
  "lat": 59.9028325,
  "lon": 10.6986618,
  "tags": {
    "addr:city": "Oslo",
    "addr:housenumber": "37",
    "addr:postcode": "N-0286",
    "addr:street": "Bygdøynesveien",
    "loc_name": "Norsk Sjøfartsmuseum",
    "name": "Norsk Maritimt Museum",
    "name:de": "Norwegischen Seefahrtsmuseum",
    "name:en": "Norwegian Maritime Museum",
    "name:fr": "Museé Maritime Norvégien",
    "name:ru": "Норвежский морской музей",
    "old_name": "Norsk Sjøfartsmuseum",
    "opening_hours": "Tu-Su 10:00-16:00",
    "tourism": "museum",
    "website": "ww.marmuseum.no",
    "wikidata": "Q1334270"
  }
},
{
  "type": "node",
  "id": 973803934,
  "lat": 59.9103106,
  "lon": 10.6921920,
  "tags": {
    "description": "Royal summer palace. Built by Oscar I 1847 - 1852 and is \"finest example of Neo-Gothic architecture in Norway.\" Open as a museum since 1881.",
    "name": "Lystslottet Oscarshall",
    "name:en": "Oscarshall palace",
    "name:ru": "Дворец короля Оскара",
    "operator": "Det Norske Kongehus",
    "tourism": "museum",
    "website": "https://www.kongehuset.no/c79771/seksjonstekst/vis.html?tid=79776",
    "wikidata": "Q1818601"
  }
},
{
  "type": "node",
  "id": 974731248,
  "lat": 59.9471099,
  "lon": 10.6926345,
  "tags": {
    "name": "Emanuel Vigelands museum",
    "tourism": "museum",
    "website": "http://www.emanuelvigeland.museum.no/"
  }
},
{
  "type": "node",
  "id": 1241000043,
  "lat": 59.9196326,
  "lon": 10.7542796,
  "tags": {
    "designation": "Art Gallery",
    "name": "Office for Contemporary Art Norway",
    "operator": "Office for Contemporary Art Norway",
    "tourism": "museum",
    "wikidata": "Q19384344",
    "wikipedia": "no:Office for Contemporary Art Norway"
  }
},
{
  "type": "node",
  "id": 1413865842,
  "lat": 60.1245279,
  "lon": 10.3609605,
  "tags": {
    "name": "Kjerratmuseet",
    "opening_hours": "Jun-Aug: Su 11:00-16:00",
    "tourism": "museum",
    "website": "https://kjerraten.no/"
  }
},
{
  "type": "node",
  "id": 1552239245,
  "lat": 59.7816744,
  "lon": 10.4969984,
  "tags": {
    "name": "Cementmuseet",
    "tourism": "museum"
  }
},
{
  "type": "node",
  "id": 1552249946,
  "lat": 59.7816069,
  "lon": 10.4969170,
  "tags": {
    "name": "Geologisenteret",
    "tourism": "museum",
    "wheelchair": "yes"
  }
},
{
  "type": "node",
  "id": 1626300010,
  "lat": 59.6587165,
  "lon": 11.0012397,
  "tags": {
    "addr:city": "Tomter",
    "addr:housenumber": "5",
    "addr:postcode": "1825",
    "addr:street": "Hobølveien",
    "name": "Ole Kjærbus Krigshistoriske samlinger",
    "toilets:wheelchair": "no",
    "tourism": "museum",
    "wheelchair": "limited"
  }
},
{
  "type": "node",
  "id": 1728456802,
  "lat": 59.9197770,
  "lon": 10.7610330,
  "tags": {
    "addr:city": "Oslo",
    "addr:housename": "Bygg T",
    "addr:housenumber": "2",
    "addr:postcode": "0560",
    "addr:street": "Trondheimsveien",
    "description": "Interactive museum of popular music. Experience Centre for and history of Norwegian Popular Music",
    "name": "Popsenteret",
    "phone": "+47 22468020",
    "tourism": "museum",
    "website": "https://www.popsenteret.no/"
  }
},
{
  "type": "node",
  "id": 1931359713,
  "lat": 59.9069250,
  "lon": 10.7219380,
  "tags": {
    "addr:city": "Oslo",
    "addr:housenumber": "2",
    "addr:postcode": "0252",
    "addr:street": "Strandpromenaden",
    "architect": "Renzo Piano",
    "contact:email": "info@fearnleys.no",
    "contact:facebook": "http://www.facebook.com/astrupfearnley",
    "contact:phone": "+47 22936060",
    "contact:twitter": "astrupfearnley",
    "contact:website": "http://afmuseet.no",
    "description": "A privately owned museum, which presents temporary exhibitions of international art. First opened in 1993 in Dronningensgtate 4.",
    "fee": "General admission 100 NOK, seniors 80 NOK, students 60 NOK, 19 or younger free entry",
    "name": "Astrup Fearnley Museet",
    "name:en": "Astrup Fearnley Museum",
    "opening_hours": "Tu-We 12:00-17:00; Th 12:00-19:00; Fr 12:00-17:00; Sa-Su 11:00-17:00",
    "start_date": "2012-09-29",
    "tourism": "museum",
    "wheelchair": "yes",
    "wikidata": "Q761048",
    "wikipedia": "no:Astrup Fearnley Museet for Moderne Kunst"
  }
},
{
  "type": "node",
  "id": 2344715265,
  "lat": 59.9819171,
  "lon": 10.4836961,
  "tags": {
    "name": "Lommedalsbanen",
    "tourism": "museum"
  }
},
{
  "type": "node",
  "id": 2600008018,
  "lat": 59.7990421,
  "lon": 10.2578455,
  "tags": {
    "addr:city": "Lier",
    "addr:housenumber": "29",
    "addr:postcode": "3403",
    "addr:street": "Paradisbakkene",
    "historic": "farm",
    "name": "Lier Bygdetun",
    "tourism": "museum",
    "website": "https://lier-bygdetun.no/"
  }
},
{
  "type": "node",
  "id": 2785920876,
  "lat": 59.9080300,
  "lon": 10.7442090,
  "tags": {
    "addr:city": "Oslo",
    "addr:housenumber": "4",
    "addr:postcode": "0152",
    "addr:street": "Dronningens gate",
    "name:en": "Gamle Museet Konferanse og Selskapslokaler",
    "tourism": "museum"
  }
},
{
  "type": "node",
  "id": 2789321759,
  "lat": 59.9308923,
  "lon": 10.7557602,
  "tags": {
    "addr:city": "Oslo",
    "addr:housenumber": "28",
    "addr:postcode": "0459",
    "addr:street": "Sagveien",
    "description": "\"Opplev historien om Akerselva, industrieventyrene og arbeiderbevegelsen\"",
    "name": "Arbeidermuseet",
    "name:en": "Labour Museum",
    "opening_hours": "Sa-Su 11:00-16:00",
    "tourism": "museum",
    "website": "https://www.oslomuseum.no/oslo-museum/english/"
  }
},
{
  "type": "node",
  "id": 2953794199,
  "lat": 59.7611463,
  "lon": 11.1518142,
  "tags": {
    "name": "Enebakk bygdetun",
    "tourism": "museum"
  }
},
{
  "type": "node",
  "id": 3650497118,
  "lat": 59.9130477,
  "lon": 10.7632511,
  "tags": {
    "addr:city": "Oslo",
    "addr:housenumber": "5",
    "addr:postcode": "0188",
    "addr:street": "Tøyenbekken",
    "name": "Interkulturelt museum",
    "operator": "Oslo kommune",
    "tourism": "museum"
  }
},
{
  "type": "node",
  "id": 3661699625,
  "lat": 59.9152315,
  "lon": 10.7455450,
  "tags": {
    "name": "22. juli-senteret",
    "tourism": "museum",
    "wheelchair": "yes",
    "wikidata": "Q20669453",
    "wikipedia": "no:22. juli-senteret"
  }
},
{
  "type": "node",
  "id": 4143471151,
  "lat": 59.8283093,
  "lon": 10.7680339,
  "tags": {
    "tourism": "museum"
  }
},
{
  "type": "node",
  "id": 5310240228,
  "lat": 59.9095556,
  "lon": 10.7458091,
  "tags": {
    "name": "Filmmuseet",
    "name:en": "Film Museum",
    "tourism": "museum",
    "website": "https://www.cinemateket.no/"
  }
},
{
  "type": "node",
  "id": 5412354900,
  "lat": 59.9197827,
  "lon": 10.7717139,
  "tags": {
    "name": "Naturhistorisk museum",
    "name:en": "Natural History Museum at the University of Oslo",
    "tourism": "museum",
    "wikidata": "Q1840963",
    "wikipedia": "en:Natural History Museum at the University of Oslo"
  }
},
{
  "type": "node",
  "id": 5446566958,
  "lat": 59.9555244,
  "lon": 10.5847226,
  "tags": {
    "description": "Location and other info on website (Norwegian) https://mia.no/grinimuseet/besok/kart",
    "name": "Grini museum",
    "operator": "Museene i Akershus",
    "source": "survey;local knowledge",
    "tourism": "museum",
    "website": "https://mia.no/grinimuseet",
    "wikidata": "Q637411",
    "wikipedia": "en:Grini detention camp"
  }
},
{
  "type": "node",
  "id": 5679245260,
  "lat": 59.8989460,
  "lon": 10.6781400,
  "tags": {
    "addr:city": "Oslo",
    "addr:housenumber": "56",
    "addr:postcode": "0286",
    "addr:street": "Huk aveny",
    "contact:facebook": "http://www.facebook.com/HLsenteret",
    "name": "Senter for studier av Holocaust og livssynsminoriteter",
    "name:en": "Holocaust museum at the Center for Studies of Holocaust and Religious Minorities",
    "phone": "+47 22 84 21 00",
    "tourism": "museum",
    "website": "https://www.hlsenteret.no/",
    "wikidata": "Q7061042"
  }
},
{
  "type": "node",
  "id": 6128306457,
  "lat": 59.9162096,
  "lon": 10.7233622,
  "tags": {
    "name": "Dronning Sonjas kunststall",
    "tourism": "museum"
  }
},
{
  "type": "node",
  "id": 6576228640,
  "lat": 60.0241914,
  "lon": 10.2496630,
  "tags": {
    "access": "private",
    "description": "history of Utøya",
    "tourism": "museum"
  }
},
{
  "type": "node",
  "id": 6588462246,
  "lat": 59.6911052,
  "lon": 10.3962490,
  "tags": {
    "name": "Hernestangen bygdemuseum",
    "tourism": "museum"
  }
},
{
  "type": "node",
  "id": 6593405615,
  "lat": 59.6635161,
  "lon": 10.6284074,
  "tags": {
    "name": "Drøbak båtforening Maritime samlinger",
    "tourism": "museum"
  }
},
{
  "type": "node",
  "id": 6593405619,
  "lat": 59.9202161,
  "lon": 10.9580894,
  "tags": {
    "alt_name": "Skårer gård",
    "name": "Lørenskog bygdemuseum",
    "tourism": "museum",
    "website": "https://mia.no/lorenskog/kalender"
  }
},
{
  "type": "node",
  "id": 6593405621,
  "lat": 59.9862762,
  "lon": 11.2436743,
  "tags": {
    "alt_name": "Tertitten",
    "name": "Urskog-Hølandsbanen",
    "tourism": "museum",
    "website": "https://mia.no/tertitten/kalender"
  }
},
{
  "type": "node",
  "id": 6593405625,
  "lat": 59.9203765,
  "lon": 11.0818226,
  "tags": {
    "name": "Rælingen bygdetun",
    "tourism": "museum"
  }
},
{
  "type": "node",
  "id": 6593405627,
  "lat": 59.6636644,
  "lon": 10.6308961,
  "tags": {
    "name": "Avistegnernes hus",
    "tourism": "museum"
  }
},
{
  "type": "node",
  "id": 6593405628,
  "lat": 59.6634201,
  "lon": 10.6284018,
  "tags": {
    "name": "O. B. Hansens Trykkerisamling",
    "tourism": "museum"
  }
},
{
  "type": "node",
  "id": 6593405630,
  "lat": 59.8491827,
  "lon": 10.4427912,
  "tags": {
    "name": "Jansløkka skolemuseum",
    "tourism": "museum"
  }
},
{
  "type": "node",
  "id": 6593405631,
  "lat": 60.0273118,
  "lon": 11.3241844,
  "tags": {
    "name": "Rånåsfoss kraftstasjon",
    "tourism": "museum"
  }
},
{
  "type": "node",
  "id": 6593405632,
  "lat": 59.8070344,
  "lon": 10.4910148,
  "tags": {
    "name": "Oslofjordmuseet",
    "tourism": "museum"
  }
},
{
  "type": "node",
  "id": 6593405634,
  "lat": 59.6734933,
  "lon": 10.6076637,
  "tags": {
    "facebook": "https://www.facebook.com/oscarsborg/",
    "name": "Oscarsborg festningsmuseum",
    "tourism": "museum"
  }
},
{
  "type": "node",
  "id": 6593405638,
  "lat": 60.0011959,
  "lon": 11.0344146,
  "tags": {
    "name": "Skedsmo bygdemuseum",
    "tourism": "museum"
  }
},
{
  "type": "node",
  "id": 6593405642,
  "lat": 59.9484546,
  "lon": 11.0118602,
  "tags": {
    "name": "Museumsfabrikken Strømmen",
    "tourism": "museum"
  }
},
{
  "type": "node",
  "id": 6593517789,
  "lat": 59.9646108,
  "lon": 10.6666128,
  "tags": {
    "name": "Skimuseet",
    "name:en": "Ski Museum",
    "tourism": "museum",
    "wheelchair": "yes"
  }
},
{
  "type": "node",
  "id": 6593517790,
  "lat": 59.9098172,
  "lon": 10.7418568,
  "tags": {
    "name": "Kreftforeningens Vitensenter",
    "tourism": "museum"
  }
},
{
  "type": "node",
  "id": 6593517792,
  "lat": 59.9116584,
  "lon": 10.7670017,
  "tags": {
    "name": "Brannmuseet i Oslo",
    "tourism": "museum"
  }
},
{
  "type": "node",
  "id": 6593517795,
  "lat": 59.9132799,
  "lon": 10.7340478,
  "tags": {
    "name": "The Viking Planet",
    "tourism": "museum"
  }
},
{
  "type": "node",
  "id": 6593517797,
  "lat": 59.9113605,
  "lon": 10.6803409,
  "tags": {
    "name": "Bygdø Kongsgård",
    "tourism": "museum"
  }
},
{
  "type": "node",
  "id": 6593517799,
  "lat": 59.9668982,
  "lon": 10.7841371,
  "tags": {
    "name": "Telemuseet",
    "tourism": "museum"
  }
},
{
  "type": "node",
  "id": 6593517800,
  "lat": 59.9096412,
  "lon": 10.7434024,
  "tags": {
    "name": "Småflaskemuseet",
    "name:en": "The Mini Bottle Gallery",
    "tourism": "museum"
  }
},
{
  "type": "node",
  "id": 6593517801,
  "lat": 59.9112029,
  "lon": 10.7199527,
  "tags": {
    "name": "Norsk tryllemuseum",
    "tourism": "museum"
  }
},
{
  "type": "node",
  "id": 6593517802,
  "lat": 59.9182871,
  "lon": 10.7499149,
  "tags": {
    "name": "Oslo skolemuseum",
    "tourism": "museum"
  }
},
{
  "type": "node",
  "id": 6780418993,
  "lat": 59.9103256,
  "lon": 10.7409451,
  "tags": {
    "addr:housenumber": "4C",
    "addr:street": "Nedre Slottsgate",
    "email": "post@nobimu.no",
    "name:en": "Nordic Bible Museum",
    "opening_hours": "Fr-Su 11:00-16:00; Tu-We 12:00-17:00; Th 11:00-18:00",
    "phone": "+4740105777",
    "tourism": "museum",
    "website": "https://nobimu.no/"
  }
},
{
  "type": "node",
  "id": 6852139300,
  "lat": 59.9292162,
  "lon": 10.6702856,
  "tags": {
    "alt_name": "Edvard Munchs atelier på Ekely",
    "name": "Munchs Ekely",
    "tourism": "museum"
  }
},
{
  "type": "node",
  "id": 7119960777,
  "lat": 59.9116465,
  "lon": 10.7471921,
  "tags": {
    "name": "Northern Lights Xperium",
    "tourism": "museum",
    "website": "http://www.xperium.no/"
  }
},
{
  "type": "way",
  "id": 22996671,
  "nodes": [
    247922592,
    247922593,
    247922594,
    247922595,
    3292663690,
    3292663685,
    3292663700,
    247922596,
    247922597,
    2836642274,
    3292663708,
    3292663714,
    3292663707,
    3292663712,
    3292663706,
    3292663704,
    247922592
  ],
  "tags": {
    "building": "yes",
    "fixme": "Bedre tag enn museum?",
    "name": "Vitenparken Campus Ås",
    "tourism": "museum",
    "website": "https://vitenparken.no/"
  }
},
{
  "type": "way",
  "id": 23070446,
  "nodes": [
    248956576,
    1667677508,
    1667677514,
    248956578,
    3292662786,
    3292662787,
    248956580,
    3691331261,
    3691331260,
    3691331265,
    3691331266,
    248956582,
    248956576
  ],
  "tags": {
    "building": "yes",
    "name": "Meierimuseet",
    "tourism": "museum"
  }
},
{
  "type": "way",
  "id": 23979356,
  "nodes": [
    259994462,
    1077170633,
    259994463,
    301443223,
    301443224,
    259994464,
    259994465,
    259994462
  ],
  "tags": {
    "alt_name": "Hvalstads samlinger;Kunsterdalen",
    "area": "yes",
    "name": "Asker museum",
    "tourism": "museum",
    "website": "https://mia.no/askermuseum",
    "wikidata": "Q1756404"
  }
},
{
  "type": "way",
  "id": 24900008,
  "nodes": [
    2785413715,
    270540514,
    5330075983,
    270540516,
    1028562561,
    1028562559,
    270540518,
    270540521,
    5330075984,
    270540523,
    1028562557,
    270540531,
    270540532,
    3010207231,
    270540533,
    270540530,
    1028562560,
    270540524,
    5330075985,
    270540525,
    270540526,
    270540527,
    270540528,
    270540529,
    2785413715
  ],
  "tags": {
    "addr:city": "Oslo",
    "addr:housenumber": "1",
    "addr:postcode": "0250",
    "addr:street": "Brynjulf Bulls plass",
    "building": "yes",
    "image": "https://images.mapillary.com/pEP1t81PI0f5WHWTr5wggg/thumb-2048.jpg",
    "int_name": "Nobel Peace Center",
    "mapillary": "https://www.mapillary.com/map/im/pEP1t81PI0f5WHWTr5wggg",
    "name": "Nobels Fredssenter",
    "name:de": "Nobel-Friedenszentrum",
    "name:en": "Nobel Peace Center",
    "name:fr": "Centre Nobel de la paix",
    "name:ja": "ノーベル平和センター",
    "name:ko": "노벨 평화센터",
    "name:ru": "Нобелевский центр мира",
    "old_name": "Vestbanehallen",
    "opening_hours": "Mo-Su 10:00-18:00",
    "phone": "48301000",
    "toilets:wheelchair": "yes",
    "tourism": "museum",
    "website": "https://www.nobelpeacecenter.org",
    "wheelchair": "yes",
    "wikidata": "Q941120"
  }
},
{
  "type": "way",
  "id": 27011865,
  "nodes": [
    296079851,
    4298771737,
    4298771738,
    4298771730,
    4298771729,
    296079852,
    296079853,
    4298771732,
    4298771731,
    4298771739,
    4298771740,
    2467573686,
    1350778229,
    2467573682,
    296079854,
    296079851
  ],
  "tags": {
    "addr:city": "Oslo",
    "addr:housename": "Robert Collets hus",
    "addr:housenumber": "1",
    "addr:postcode": "0562",
    "addr:street": "Botanisk hage",
    "building": "yes",
    "building:levels": "4",
    "name": "Zoologisk museum",
    "name:en": "Zoology Museum",
    "opening_hours": "Jun-Aug: Mo-Su 11:00-16:00, Sep-May: Tu-Su 11:00-16:00",
    "operator": "UiO",
    "tourism": "museum",
    "website": "https://www.nhm.uio.no/om/bygninger/zoologisk-museum/",
    "wheelchair": "limited",
    "wikidata": "Q12011265",
    "wikipedia": "no:Zoologisk museum (Oslo)"
  }
},
{
  "type": "way",
  "id": 27011866,
  "nodes": [
    296079855,
    2467573672,
    3123959348,
    2467573673,
    4298771741,
    4298771742,
    4298771734,
    4298771733,
    296079858,
    296079859,
    4298771736,
    4298771735,
    4298771743,
    4298771744,
    296079860,
    296079855
  ],
  "tags": {
    "addr:city": "Oslo",
    "addr:housename": "Waldemar C. Brøggers hus",
    "addr:housenumber": "1",
    "addr:postcode": "0562",
    "addr:street": "Botanisk hage",
    "building": "yes",
    "building:levels": "4",
    "name": "Geologisk museum",
    "name:en": "Geology Museum",
    "operator": "UiO",
    "tourism": "museum",
    "website": "https://www.nhm.uio.no/om/bygninger/geologisk-museum/",
    "wheelchair": "limited",
    "wikidata": "Q11971813",
    "wikipedia": "no:Geologisk museum (Oslo)"
  }
},
{
  "type": "way",
  "id": 27011867,
  "nodes": [
    296079861,
    5875619445,
    5875619439,
    5875619438,
    5875619444,
    296079863,
    296079864,
    5875619442,
    5875619441,
    5875619440,
    5875619443,
    296079862,
    296079861
  ],
  "tags": {
    "addr:city": "Oslo",
    "addr:housename": "Lids hus",
    "addr:housenumber": "1",
    "addr:postcode": "0562",
    "addr:street": "Botanisk hage",
    "alt_name": "Botanisk museum",
    "building": "yes",
    "building:levels": "4",
    "name": "Botanisk museum",
    "name:en": "Botanical museum",
    "operator": "UiO",
    "tourism": "museum",
    "website": "https://www.nhm.uio.no/om/bygninger/botanisk-museum/",
    "wheelchair": "limited",
    "wikidata": "Q2036576",
    "wikipedia": "no:Botanisk museum (Oslo)"
  }
},
{
  "type": "way",
  "id": 28475470,
  "nodes": [
    312818501,
    5740482150,
    312818500,
    1293149089,
    5740482149,
    1293148973,
    312818499,
    5740482148,
    5740482147,
    1293148861,
    1293149072,
    5740482146,
    312818497,
    5740482145,
    5740482144,
    5740482143,
    5740482142,
    5740482141,
    5740482140,
    312818495,
    5740482139,
    312818494,
    5740482138,
    5740482137,
    5740482136,
    5740482135,
    5740482134,
    5740482133,
    5740482132,
    312818493,
    5740482131,
    5740482130,
    5740482129,
    5740482128,
    5740482127,
    5740482126,
    5551518261,
    5740482125,
    5740482124,
    5740482123,
    5740482122,
    5740482121,
    2957914485,
    5740482120,
    5740482119,
    5740482118,
    5740482117,
    312818503,
    5740482116,
    312818502,
    312818501
  ],
  "tags": {
    "alt_name:en": "The Viking Ship Museum",
    "building": "yes",
    "historic": "yes",
    "image": "https://images.mapillary.com/HbZ51yf_sWVixJH6cIqOPQ/thumb-2048.jpg",
    "mapillary": "https://www.mapillary.com/map/im/HbZ51yf_sWVixJH6cIqOPQ",
    "name": "Vikingskipshuset",
    "name:be": "Музей караблёў вікінгаў",
    "name:en": "Viking Ship Museum",
    "name:ja": "ヴァイキング船博物館",
    "name:ko": "바이킹 배 박물관",
    "name:ru": "Музей кораблей викингов",
    "opening_hours": "Mo-Su 10:00-16:00",
    "tourism": "museum",
    "url": "https://www.youtube.com/watch?v=8T913a5jP1U",
    "website": "https://www.khm.uio.no/vikingskipshuset/",
    "wheelchair": "yes",
    "wikidata": "Q961220"
  }
},
{
  "type": "way",
  "id": 28476403,
  "nodes": [
    312825619,
    312825620,
    312825621,
    312825623,
    312825624,
    312825625,
    312825619
  ],
  "tags": {
    "addr:city": "Oslo",
    "addr:housenumber": "36",
    "addr:postcode": "0286",
    "addr:street": "Bygdøynesveien",
    "building": "museum",
    "description": "Thor Heyerdahl (1914-2002) gained worldwide fame when he crossed the Pacific Ocean on Kon-Tiki in 1947 and followed up with spectacular expeditions on the reed boats Ra and Tigris.",
    "internet_access": "wlan",
    "name": "Kon-Tiki Museet",
    "name:en": "Kon-Tiki Museum",
    "name:ja": "コンチキ号博物館",
    "name:ko": "콘-티키 박물관",
    "name:ru": "Музей «Кон-Тики»",
    "operator": "Thor Heyerdahl's Research Foundation",
    "source": "Bing",
    "tourism": "museum",
    "website": "https://www.kon-tiki.no/",
    "wheelchair": "yes",
    "wikidata": "Q1415972"
  }
},
{
  "type": "way",
  "id": 31106820,
  "nodes": [
    6269642400,
    6269642399,
    6269642398,
    6269642397,
    6269642396,
    6269642395,
    6269642394,
    6269642393,
    6269642392,
    6269642391,
    6269642390,
    6269642389,
    6269642388,
    6269642387,
    6269642386,
    6269642385,
    345718073,
    6269642384,
    6269642383,
    6269642382,
    6269642381,
    6269642380,
    6269642379,
    6269642378,
    6269642377,
    6269642376,
    6269642375,
    6269642374,
    6269642373,
    6269642372,
    6269642371,
    6269642370,
    6269642369,
    6269642368,
    6269642367,
    6269642366,
    6269642365,
    6269642364,
    345718069,
    6269642363,
    6269642362,
    6269642361,
    6269642360,
    6269642359,
    6269642358,
    6269642357,
    6269642356,
    6269642400
  ],
  "tags": {
    "building": "public",
    "building:levels": "4",
    "name": "Historisk museum",
    "name:de": "Historisches Museum",
    "name:en": "Historical Museum",
    "opening_hours": "Tu-Su 11:00-16:00",
    "operator": "Universitetet i Oslo",
    "tourism": "museum",
    "website": "https://www.khm.uio.no/"
  }
},
{
  "type": "way",
  "id": 33208853,
  "nodes": [
    376700988,
    376700996,
    376701003,
    376701012,
    376701020,
    376701029,
    376701038,
    376701046,
    376701054,
    4298771720,
    376701063,
    376701069,
    376701079,
    376700988
  ],
  "tags": {
    "addr:city": "Oslo",
    "addr:housenumber": "1",
    "addr:postcode": "0562",
    "addr:street": "Sars' gate",
    "building": "yes",
    "building:levels": "3",
    "name": "Palmehuset",
    "name:de": "Palmenhaus",
    "tourism": "museum",
    "website": "https://www.nhm.uio.no/om/bygninger/palmehuset/"
  }
},
{
  "type": "way",
  "id": 33208940,
  "nodes": [
    376702617,
    376702620,
    376702630,
    376709052,
    376709059,
    376709088,
    376709103,
    376709118,
    4298771719,
    376709123,
    376709134,
    376702617
  ],
  "tags": {
    "addr:city": "Oslo",
    "addr:housenumber": "1",
    "addr:postcode": "0562",
    "addr:street": "Sars' gate",
    "building": "yes",
    "name": "Viktoriahuset",
    "tourism": "museum",
    "website": "https://www.nhm.uio.no/om/bygninger/victoriahuset/"
  }
},
{
  "type": "way",
  "id": 41801211,
  "nodes": [
    1039990754,
    1039990650,
    1039990628,
    1039990582,
    1039990786,
    1039990760,
    1039990735,
    1039990729,
    1039990716,
    1039990667,
    1039990639,
    1039990593,
    6635950102,
    515855206,
    515855200,
    541474318,
    1039990671,
    515855253,
    515855242,
    1039990644,
    1039990600,
    1039990567,
    515855239,
    515855237,
    1039990764,
    515855235,
    1039990715,
    515855233,
    515855231,
    1039990685,
    515855228,
    1039990678,
    1039990778,
    1039990544,
    515855225,
    1039990725,
    1039990773,
    1039990632,
    1039990721,
    1039990695,
    1039990536,
    515855223,
    515855221,
    515855217,
    515855214,
    1039990587,
    1039990691,
    515855210,
    1039990603,
    6635950103,
    1039990575,
    1039990770,
    1039990749,
    1039990688,
    1039990754
  ],
  "tags": {
    "building": "public",
    "name": "Henie Onstad kunstsenter",
    "toilets:wheelchair": "yes",
    "tourism": "museum",
    "wheelchair": "yes",
    "wikidata": "Q2561175"
  }
},
{
  "type": "way",
  "id": 54031035,
  "nodes": [
    6997520861,
    6997520858,
    6997520857,
    6997520856,
    6997520855,
    6997520854,
    6997520859,
    6997520853,
    6997520852,
    6997520851,
    6997520850,
    6997520849,
    6997520860,
    6997520848,
    2901483646,
    2901483642,
    681240118,
    2901483640,
    2901483637,
    2901483633,
    681240117,
    681240116,
    6997520864,
    681240115,
    6997520867,
    6997520866,
    6997520865,
    2901483627,
    681240114,
    2901483626,
    2901483623,
    2901483624,
    681240113,
    2901483620,
    2901483621,
    2901483619,
    2901483618,
    2901483616,
    2901483615,
    2901483614,
    681240111,
    3365479005,
    681240110,
    6997520869,
    681240128,
    6997520876,
    6997520875,
    681240127,
    6997520874,
    681240126,
    6997520873,
    681240124,
    6997520872,
    681240123,
    6997520871,
    6997520870,
    681240122,
    681240121,
    681240120,
    6997520863,
    6997520862,
    681240119,
    6997520861
  ],
  "tags": {
    "addr:city": "Oslo",
    "addr:housenumber": "143",
    "addr:postcode": "0491",
    "addr:street": "Kjelsåsveien",
    "alt_name": "Teknisk museum",
    "building": "yes",
    "building:levels": "3",
    "building:levels:underground": "1",
    "image": "http://www.tekniskmuseum.no/images/logo/logo.jpg",
    "name": "Norsk Teknisk Museum",
    "name:en": "Norwegian Museum of Science and Technology",
    "opening_hours": "Tu-Fr 09:00-16:00; Sa-Su 11:00-18:00; SH 11:00-18:00; PH off",
    "phone": "+47 22 79 60 00",
    "toilets": "yes",
    "toilets:wheelchair": "yes",
    "tourism": "museum",
    "website": "http://www.tekniskmuseum.no",
    "wheelchair": "yes",
    "wikidata": "Q7061184",
    "wikipedia": "no:Norsk Teknisk Museum"
  }
},
{
  "type": "way",
  "id": 54830211,
  "nodes": [
    690201159,
    5965948194,
    5965943681,
    5861548613,
    690201158,
    5861548612,
    690201156,
    2383965020,
    6268382192,
    5861548622,
    5861548623,
    5861548624,
    6367799916,
    6268382191,
    6268382190,
    6268382189,
    6268382188,
    690201153,
    5861548621,
    5861548620,
    690201152,
    690201160,
    6268381907,
    6268382187,
    690201159
  ],
  "tags": {
    "building": "yes",
    "name": "Forsvarsmuseet",
    "name:de": "Verteidigungsmuseum",
    "name:en": "Defence Musuem",
    "name:no": "Forsvarsmuseet",
    "tourism": "museum",
    "website": "https://www.forsvarsbygg.no/festningene/Festningene/Akershus-festning/Museer-og-utstillinger/Forsvarsmuseet/",
    "wikidata": "Q4793001",
    "wikipedia": "no:Forsvarsmuseet‎"
  }
},
{
  "type": "way",
  "id": 80871207,
  "nodes": [
    942772260,
    942772421,
    1337963603,
    942772272,
    1337963607,
    1337963612,
    1337963595,
    942772325,
    942772260
  ],
  "tags": {
    "building": "detached",
    "name": "Linderud gård",
    "source": "Yahoo;bing",
    "tourism": "museum",
    "wikidata": "Q11984093"
  }
},
{
  "type": "way",
  "id": 90768996,
  "nodes": [
    6267595640,
    1053666578,
    1053666457,
    6267595639,
    6267595638,
    1053666463,
    1053666473,
    6267595677,
    6267595678,
    6267595679,
    6267595680,
    1053666432,
    1053666423,
    1053666518,
    1053666491,
    6267595637,
    6267595636,
    6267595635,
    6267595634,
    6267595640
  ],
  "tags": {
    "building": "museum",
    "description": "The main attraction isplaywright and poet Henrik Ibsen's home in Oslo. The apartment is fully restored and the visitor center features an exhibit on Ibsen's life and writing.",
    "int_name": "The Ibsen Museum",
    "name": "Ibsenmuseet",
    "name:en": "The Ibsen Museum",
    "operator": "Norsk Folkemuseum",
    "tourism": "museum",
    "website": "https://www.norskfolkemuseum.no/Tilknyttede-Enheter/Ibsenmuseet/",
    "wikidata": "Q1519078",
    "wikipedia": "en:Ibsen Museum (Oslo)"
  }
},
{
  "type": "way",
  "id": 108517748,
  "nodes": [
    1244839504,
    1244839696,
    1244839458,
    1244840233,
    1244839504
  ],
  "tags": {
    "building": "residential",
    "name": "Steinhoggermuseet",
    "source": "bing",
    "tourism": "museum"
  }
},
{
  "type": "way",
  "id": 111546665,
  "nodes": [
    5887747765,
    5887747762,
    5887747763,
    1270589106,
    5887747746,
    1270588980,
    1270589355,
    6831204499,
    5887747758,
    5887747759,
    5887747760,
    5887747761,
    1270589502,
    5887747768,
    5887747764,
    5887747765
  ],
  "tags": {
    "building": "yes",
    "historic": "yes",
    "name": "Ladegården",
    "tourism": "museum"
  }
},
{
  "type": "way",
  "id": 111867428,
  "nodes": [
    6269642272,
    1273604245,
    1273604230,
    6269642271,
    6269642270,
    1273604248,
    1273604244,
    1273604269,
    1273604247,
    1273604271,
    6269642269,
    1273604236,
    1273604259,
    1273604242,
    1273604267,
    6269642268,
    6269642267,
    6269642266,
    6269642265,
    6269642264,
    6269642263,
    6269642262,
    1273604243,
    6269642261,
    1273604232,
    1273604235,
    6269642260,
    1273604255,
    1273604238,
    6269642259,
    1273604263,
    6269642258,
    6269642272
  ],
  "tags": {
    "building": "museum",
    "description": "Includes Egyptioan mummies and the only complete Viking helmet ever found",
    "fee": "yes (children under 16 free)",
    "name": "Kulturhistorisk museum",
    "name:en": "Museum of Cultural History",
    "operator": "UiO",
    "tourism": "museum",
    "website": "https://www.khm.uio.no/",
    "wikidata": "Q3356148"
  }
},
{
  "type": "way",
  "id": 112190362,
  "nodes": [
    855353281,
    5295406012,
    5295406015,
    5295406014,
    5295406013,
    1276116947,
    5295406009,
    5295406011,
    5295406010,
    5295406008,
    1276116571,
    5295406020,
    5295407123,
    5295407122,
    5295407121,
    1276116317,
    5295406017,
    5295406018,
    5295406019,
    5295406016,
    855353281
  ],
  "tags": {
    "addr:city": "Oslo",
    "addr:housenumber": "4",
    "addr:postcode": "0151",
    "addr:street": "Bankplassen",
    "building": "yes",
    "email": "info@nasjonalmuseet.no",
    "fax": "+47 21982093",
    "name": "Museet for samtidskunst",
    "name:en": "The Museum of Contemporary Art",
    "opening_hours": "Tu-We 11:00-17:00; Th 11:00-19:00; Fr 11:00-17:00; Sa-Su 12:00-17:00",
    "operator": "Nasjonalmuseet for kunst, arkitektur og design",
    "phone": "+47 21982000",
    "source": "bing",
    "tourism": "museum",
    "website": "http://nasjonalmuseet.no/",
    "wikidata": "Q7061181"
  }
},
{
  "type": "way",
  "id": 112401084,
  "nodes": [
    1277608282,
    1277608181,
    1277608034,
    1277608252,
    1277608066,
    1277608324,
    1277608343,
    1277608432,
    1277608282
  ],
  "tags": {
    "building": "yes",
    "name": "Jødisk museum",
    "tourism": "museum",
    "wikidata": "Q6189888",
    "wikipedia": "en:Jewish Museum in Oslo"
  }
},
{
  "type": "way",
  "id": 115901299,
  "nodes": [
    2785465033,
    1308169128,
    1308169354,
    1308168981,
    4725951745,
    4725951744,
    4725951743,
    4725951742,
    2785465033
  ],
  "tags": {
    "addr:city": "Oslo",
    "addr:housenumber": "23",
    "addr:postcode": "0193",
    "addr:street": "Kongsveien",
    "building": "yes",
    "name": "Ekebergparken",
    "name:ru": "Парк скульптур «Экеберг»",
    "source": "bing",
    "tourism": "museum"
  }
},
{
  "type": "way",
  "id": 130188230,
  "nodes": [
    1434868815,
    1434868817,
    1434868814,
    1434868812,
    1434868815
  ],
  "tags": {
    "building": "yes",
    "name": "Sønsteby Natur og Kultursenter",
    "tourism": "museum"
  }
},
{
  "type": "way",
  "id": 134403996,
  "nodes": [
    1477858201,
    1477858265,
    1477858270,
    1477858276,
    1477858278,
    4901890810,
    1477858298,
    1477858300,
    1477858309,
    1477858316,
    1477858321,
    1477858324,
    1477858318,
    1477858306,
    1477858303,
    1477858295,
    5241081199,
    1541508917,
    1477858281,
    1477858274,
    1477858268,
    1477858254,
    1477858252,
    1477858250,
    1477858247,
    1477858244,
    1477858241,
    1477858238,
    1477858227,
    1477858222,
    1477858212,
    1477858211,
    1477858219,
    1477858216,
    1477858225,
    1477858236,
    1477858191,
    1477858198,
    1477858194,
    1477858201
  ],
  "tags": {
    "description": "Landets største kulturhistoriske museum med verdens første friluftsmuseum og store innendørs utstillinger.",
    "description:en": "Norway's largest museum of cultural history featuring the world's oldest open air museum and large indoor collections.",
    "fixme": "resurvey",
    "name": "Norsk Folkemuseum",
    "name:en": "The Norwegian Museum of Cultural History",
    "name:ko": "노르웨이 민속박물관",
    "phone": "+47 22 12 37 00",
    "toilets:wheelchair": "yes",
    "tourism": "museum",
    "website": "https://www.norskfolkemuseum.no/",
    "wheelchair": "limited",
    "wikidata": "Q937521"
  }
},
{
  "type": "way",
  "id": 171658078,
  "nodes": [
    1826510654,
    1826510650,
    1826510646,
    1826510647,
    1826510648,
    1826510649,
    1826510652,
    1826510651,
    1826510654
  ],
  "tags": {
    "alt_name": "Uranienborg",
    "building": "yes",
    "building:levels": "2",
    "description": "Roald Amundsen's Home",
    "name": "Roald Amundsens hjem",
    "operator": "Follo Museum",
    "tourism": "museum",
    "website": "www.follomuseum.no/home/roald-amundsens-hjem",
    "wikidata": "Q12008560"
  }
},
{
  "type": "way",
  "id": 219440002,
  "nodes": [
    2285990206,
    2285990203,
    2285990209,
    2285990211,
    2285990215,
    2285990218,
    2285990213,
    2285990224,
    2285990206
  ],
  "tags": {
    "building": "residential",
    "description": "House designed by architect Arne Korsmo and was built in 1937 - 1939 for the financier, art collector and author Rolf Stenersen and his family, as a residence and as a framework for the large art collection and is regarded as one of the main works of Norw",
    "designation": "Museum",
    "name": "Villa Stenersen",
    "operator": "Norsk Form",
    "source": "bing",
    "tourism": "museum",
    "website": "www.villastenersen.net",
    "wikidata": "Q14375801",
    "wikipedia": "no:Villa Stenersen"
  }
},
{
  "type": "way",
  "id": 219498663,
  "nodes": [
    2286491538,
    2286491505,
    2286491491,
    2286491492,
    2286491498,
    2286491504,
    2286491512,
    2286491524,
    2286491537,
    2286491540,
    2286491541,
    2286491531,
    2286491544,
    2286491538
  ],
  "tags": {
    "landuse": "farmyard",
    "name": "Bogstad gård",
    "place": "farm",
    "tourism": "museum",
    "wikidata": "Q4937788"
  }
},
{
  "type": "way",
  "id": 249829265,
  "nodes": [
    2563801518,
    2563801519,
    2563801520,
    2563801522,
    2563801518
  ],
  "tags": {
    "addr:housenumber": "1004",
    "addr:street": "Solvang kolonihager",
    "building": "yes",
    "name": "Museet",
    "operator": "Solvang kolonihager, avdeling 1",
    "tourism": "museum"
  }
},
{
  "type": "way",
  "id": 253262644,
  "nodes": [
    2592151275,
    2592151277,
    2592151270,
    2592151268,
    2592151275
  ],
  "tags": {
    "building": "yes",
    "name": "Hauketo skysstasjon",
    "tourism": "museum"
  }
},
{
  "type": "way",
  "id": 274103364,
  "nodes": [
    2788759300,
    2788759227,
    2788759267,
    2788759175,
    2788759300
  ],
  "tags": {
    "building": "yes",
    "building:levels": "1",
    "building:material": "brick",
    "roof:levels": "1",
    "roof:shape": "gabled",
    "tourism": "museum"
  }
},
{
  "type": "way",
  "id": 360595435,
  "nodes": [
    3651105633,
    3651105638,
    3651105639,
    3651105636,
    3651105633
  ],
  "tags": {
    "addr:city": "Oslo",
    "addr:housenumber": "36",
    "addr:postcode": "N-0286",
    "addr:street": "Bygdøynesveien",
    "building": "museum",
    "building:levels": "0",
    "name": "Gjøa bygget",
    "name:de": "Gjøa-Gebäude",
    "name:en": "Gjøa building",
    "name:ja": "フラム号博物館",
    "name:no": "Frammuseet",
    "roof:levels": "1",
    "roof:shape": "gabled",
    "source": "survey",
    "start_date": "2013",
    "tourism": "museum",
    "url": "goo.gl/VZuRT7",
    "website": "https://frammuseum.no/",
    "wheelchair": "yes"
  }
},
{
  "type": "way",
  "id": 530743960,
  "nodes": [
    5153088661,
    5153088662,
    5153088663,
    5153088664,
    5153088661
  ],
  "tags": {
    "building": "yes",
    "email": "anne-ttv@online.no",
    "name": "Eight amcars Club 1977",
    "phone": "+47 63 82 46 59",
    "tourism": "museum",
    "url": "https://youtu.be/zSwkM54F_uE",
    "website": "http://www.eac-1977.com/index.php"
  }
},
{
  "type": "way",
  "id": 605176471,
  "nodes": [
    5740482879,
    1423948408,
    5740482878,
    5740482877,
    1423948398,
    5740482876,
    5740482879
  ],
  "tags": {
    "addr:city": "Oslo",
    "addr:housenumber": "39",
    "addr:postcode": "0286",
    "addr:street": "Bygdøynesveien",
    "building": "museum",
    "building:levels": "0",
    "name": "Frammuseet",
    "name:de": "Fram-Museum, Hauptgebäude",
    "name:en": "Fram Museum, Polar Ship Fram",
    "name:ko": "프람 박물관",
    "name:no": "Frammuseet",
    "name:pt": "Museu do Navio Polar Fram",
    "roof:levels": "1",
    "roof:shape": "gabled",
    "tourism": "museum",
    "website": "https://frammuseum.no/",
    "wheelchair": "yes",
    "wikipedia": "en:Fram Museum"
  }
},
{
  "type": "way",
  "id": 627006424,
  "nodes": [
    1783106691,
    5919132062,
    5919132063,
    5919132064,
    5919132065,
    5919132066,
    5919132067,
    5919132068,
    1783106691
  ],
  "tags": {
    "building": "yes",
    "facebook": "https://www.facebook.com/Follomuseum/",
    "image": "https://images.mapillary.com/2p6Kg9k0XaZC6-xl9doFww/thumb-2048.jpg",
    "mapillary": "https://www.mapillary.com/map/im/2p6Kg9k0XaZC6-xl9doFww",
    "name": "Follo museum",
    "phone": "+47 66 93 66 36",
    "tourism": "museum",
    "website": "https://mia.no/follomuseum"
  }
},
{
  "type": "way",
  "id": 646115965,
  "nodes": [
    6071822221,
    6071822222,
    477995355,
    477995313,
    6071822227,
    5838011110,
    6071822223,
    5838011108,
    477996291,
    477996278,
    6071822224,
    6079822707,
    6071822226,
    477995590,
    6071822221
  ],
  "tags": {
    "museum": "open_air",
    "name": "Friluftsmuseet",
    "operator": "Drammens Museum",
    "tourism": "museum"
  }
},
{
  "type": "way",
  "id": 646115966,
  "nodes": [
    6071822230,
    6071822231,
    6071822232,
    6071822233,
    6071822234,
    6071822235,
    6071822236,
    6071822237,
    6071822238,
    6071822230
  ],
  "tags": {
    "image": "https://commons.wikimedia.org/wiki/File:Drammens_museum_friluftsmuseet_IMG_4046.JPG",
    "landuse": "farmyard",
    "museum": "open_air",
    "name": "Friluftsmuseet",
    "operator": "Drammens Museum",
    "tourism": "museum"
  }
},
{
  "type": "way",
  "id": 646116178,
  "nodes": [
    6071824795,
    6075790203,
    6071824796,
    477996479,
    477996517,
    477996559,
    477996595,
    477996630,
    477996653,
    6071824795
  ],
  "tags": {
    "landuse": "farmyard",
    "museum": "open_air",
    "name": "Numedalstunet Friluftsmuseet",
    "operator": "Drammens Museum",
    "tourism": "museum"
  }
},
{
  "type": "way",
  "id": 647385049,
  "nodes": [
    6079850636,
    6079850637,
    6079850638,
    6079850639,
    6079850640,
    6079850641,
    6079850642,
    6079850643,
    6079850644,
    6079850645,
    6079850646,
    6079850636
  ],
  "tags": {
    "landuse": "farmyard",
    "museum": "open_air",
    "name": "Halling og Krødsheradtunet",
    "operator": "Drammens Museum",
    "tourism": "museum"
  }
},
{
  "type": "way",
  "id": 647407285,
  "nodes": [
    6080005132,
    6080005133,
    6080005134,
    6080005135,
    6080005136,
    6080005137,
    6080005138,
    6080005139,
    6080005140,
    6080005132
  ],
  "tags": {
    "landuse": "farmyard",
    "museum": "open_air",
    "name": "Langedragsetra",
    "operator": "Drammens Museum",
    "tourism": "museum"
  }
},
{
  "type": "way",
  "id": 772265973,
  "nodes": [
    7209571325,
    7209571340,
    7209571326,
    7209571327,
    7209571338,
    7209571328,
    7209571329,
    7209571330,
    7209571331,
    7209571332,
    7209571333,
    7209571334,
    7209571339,
    7209571335,
    7209571336,
    7209571341,
    7209571337,
    7209571325
  ],
  "tags": {
    "building": "ship",
    "name": "M314 Alta",
    "tourism": "museum"
  }
},
{
  "type": "relation",
  "id": 198509,
  "members": [
    {
      "type": "way",
      "ref": 39177697,
      "role": "outer"
    },
    {
      "type": "way",
      "ref": 39177699,
      "role": "inner"
    }
  ],
  "tags": {
    "building": "farm",
    "tourism": "museum",
    "type": "multipolygon"
  }
},
{
  "type": "relation",
  "id": 3222657,
  "members": [
    {
      "type": "way",
      "ref": 30176633,
      "role": "outer"
    },
    {
      "type": "way",
      "ref": 238948604,
      "role": "inner"
    }
  ],
  "tags": {
    "addr:city": "Oslo",
    "addr:housenumber": "32",
    "addr:postcode": "0268",
    "addr:street": "Nobels gate",
    "building": "yes",
    "description": "The Vigeland Museum is the sculpture museum of Oslo and is deicated to sculptor Gustav Vigeland.",
    "name": "Vigeland-museet",
    "name:en": "The Vigeland Museum",
    "name:ru": "Музей Вигеланд",
    "tourism": "museum",
    "type": "multipolygon",
    "website": "www.vigeland.museum.no",
    "wikidata": "Q7928869"
  }
},
{
  "type": "relation",
  "id": 5397715,
  "members": [
    {
      "type": "way",
      "ref": 31898311,
      "role": "outer"
    },
    {
      "type": "way",
      "ref": 362811619,
      "role": "inner"
    }
  ],
  "tags": {
    "building": "yes",
    "name": "Munch-museet",
    "name:en": "Munch museum",
    "name:ru": "Музей Мунка",
    "opening_hours": "Mo-Su 10:00-19:00",
    "tourism": "museum",
    "type": "multipolygon",
    "website": "https://munchmuseet.no/en/",
    "wikidata": "Q844926",
    "wikipedia": "no:Munch-museet"
  }
},
{
  "type": "node",
  "id": 6079850636,
  "lat": 59.7579511,
  "lon": 10.1952753
},
{
  "type": "node",
  "id": 6079850637,
  "lat": 59.7579268,
  "lon": 10.1949213
},
{
  "type": "node",
  "id": 6079850638,
  "lat": 59.7578160,
  "lon": 10.1947603
},
{
  "type": "node",
  "id": 6079850639,
  "lat": 59.7576890,
  "lon": 10.1947201
},
{
  "type": "node",
  "id": 6079850640,
  "lat": 59.7576242,
  "lon": 10.1948757
},
{
  "type": "node",
  "id": 6079850641,
  "lat": 59.7576024,
  "lon": 10.1950425
},
{
  "type": "node",
  "id": 6079850642,
  "lat": 59.7575580,
  "lon": 10.1953987
},
{
  "type": "node",
  "id": 6079850643,
  "lat": 59.7575539,
  "lon": 10.1956455
},
{
  "type": "node",
  "id": 6079850644,
  "lat": 59.7576397,
  "lon": 10.1958238
},
{
  "type": "node",
  "id": 6079850645,
  "lat": 59.7577491,
  "lon": 10.1956485
},
{
  "type": "node",
  "id": 6079850646,
  "lat": 59.7578187,
  "lon": 10.1954980
},
{
  "type": "node",
  "id": 477995313,
  "lat": 59.7553735,
  "lon": 10.2032228
},
{
  "type": "node",
  "id": 477995355,
  "lat": 59.7554794,
  "lon": 10.2032706
},
{
  "type": "node",
  "id": 477995590,
  "lat": 59.7558231,
  "lon": 10.2034917
},
{
  "type": "node",
  "id": 477996278,
  "lat": 59.7553758,
  "lon": 10.2024497
},
{
  "type": "node",
  "id": 477996291,
  "lat": 59.7553831,
  "lon": 10.2023439
},
{
  "type": "node",
  "id": 477996479,
  "lat": 59.7564696,
  "lon": 10.2001488
},
{
  "type": "node",
  "id": 477996517,
  "lat": 59.7563818,
  "lon": 10.1997752
},
{
  "type": "node",
  "id": 477996559,
  "lat": 59.7563639,
  "lon": 10.1995894
},
{
  "type": "node",
  "id": 477996595,
  "lat": 59.7563678,
  "lon": 10.1993628
},
{
  "type": "node",
  "id": 477996630,
  "lat": 59.7564248,
  "lon": 10.1990400
},
{
  "type": "node",
  "id": 477996653,
  "lat": 59.7564784,
  "lon": 10.1988983
},
{
  "type": "node",
  "id": 5838011108,
  "lat": 59.7553547,
  "lon": 10.2023458
},
{
  "type": "node",
  "id": 5838011110,
  "lat": 59.7551272,
  "lon": 10.2029287
},
{
  "type": "node",
  "id": 6071822221,
  "lat": 59.7559044,
  "lon": 10.2036057
},
{
  "type": "node",
  "id": 6071822222,
  "lat": 59.7554698,
  "lon": 10.2036280
},
{
  "type": "node",
  "id": 6071822223,
  "lat": 59.7551510,
  "lon": 10.2023594
},
{
  "type": "node",
  "id": 6071822224,
  "lat": 59.7555131,
  "lon": 10.2025096
},
{
  "type": "node",
  "id": 6071822226,
  "lat": 59.7558089,
  "lon": 10.2032955
},
{
  "type": "node",
  "id": 6071822227,
  "lat": 59.7551159,
  "lon": 10.2031995
},
{
  "type": "node",
  "id": 6071822230,
  "lat": 59.7564385,
  "lon": 10.2012248
},
{
  "type": "node",
  "id": 6071822231,
  "lat": 59.7563196,
  "lon": 10.2012436
},
{
  "type": "node",
  "id": 6071822232,
  "lat": 59.7562412,
  "lon": 10.2009941
},
{
  "type": "node",
  "id": 6071822233,
  "lat": 59.7561332,
  "lon": 10.2010183
},
{
  "type": "node",
  "id": 6071822234,
  "lat": 59.7560616,
  "lon": 10.2008681
},
{
  "type": "node",
  "id": 6071822235,
  "lat": 59.7558170,
  "lon": 10.2010022
},
{
  "type": "node",
  "id": 6071822236,
  "lat": 59.7557725,
  "lon": 10.2017183
},
{
  "type": "node",
  "id": 6071822237,
  "lat": 59.7558832,
  "lon": 10.2019222
},
{
  "type": "node",
  "id": 6071822238,
  "lat": 59.7563426,
  "lon": 10.2019248
},
{
  "type": "node",
  "id": 6071824795,
  "lat": 59.7568228,
  "lon": 10.1996209
},
{
  "type": "node",
  "id": 6071824796,
  "lat": 59.7565027,
  "lon": 10.2003018
},
{
  "type": "node",
  "id": 6075790203,
  "lat": 59.7567526,
  "lon": 10.1998193
},
{
  "type": "node",
  "id": 6079822707,
  "lat": 59.7556198,
  "lon": 10.2027883
},
{
  "type": "node",
  "id": 6080005132,
  "lat": 59.7575634,
  "lon": 10.2005782
},
{
  "type": "node",
  "id": 6080005133,
  "lat": 59.7575607,
  "lon": 10.2004146
},
{
  "type": "node",
  "id": 6080005134,
  "lat": 59.7574270,
  "lon": 10.2003771
},
{
  "type": "node",
  "id": 6080005135,
  "lat": 59.7573743,
  "lon": 10.2003502
},
{
  "type": "node",
  "id": 6080005136,
  "lat": 59.7572621,
  "lon": 10.2003502
},
{
  "type": "node",
  "id": 6080005137,
  "lat": 59.7572284,
  "lon": 10.2006185
},
{
  "type": "node",
  "id": 6080005138,
  "lat": 59.7572311,
  "lon": 10.2009081
},
{
  "type": "node",
  "id": 6080005139,
  "lat": 59.7573175,
  "lon": 10.2009484
},
{
  "type": "node",
  "id": 6080005140,
  "lat": 59.7574932,
  "lon": 10.2007982
},
{
  "type": "node",
  "id": 1434868812,
  "lat": 59.6532894,
  "lon": 10.3864702
},
{
  "type": "node",
  "id": 1434868814,
  "lat": 59.6533472,
  "lon": 10.3866948
},
{
  "type": "node",
  "id": 1434868815,
  "lat": 59.6533620,
  "lon": 10.3863969
},
{
  "type": "node",
  "id": 1434868817,
  "lat": 59.6534199,
  "lon": 10.3866214
},
{
  "type": "node",
  "id": 301443223,
  "lat": 59.8521947,
  "lon": 10.4521541
},
{
  "type": "node",
  "id": 259994462,
  "lat": 59.8539042,
  "lon": 10.4568652
},
{
  "type": "node",
  "id": 259994463,
  "lat": 59.8529484,
  "lon": 10.4535371
},
{
  "type": "node",
  "id": 259994464,
  "lat": 59.8520489,
  "lon": 10.4551247
},
{
  "type": "node",
  "id": 259994465,
  "lat": 59.8537167,
  "lon": 10.4577400
},
{
  "type": "node",
  "id": 301443224,
  "lat": 59.8517060,
  "lon": 10.4541702
},
{
  "type": "node",
  "id": 1077170633,
  "lat": 59.8533619,
  "lon": 10.4548546
},
{
  "type": "node",
  "id": 5919132063,
  "lat": 59.6718764,
  "lon": 10.6428721
},
{
  "type": "node",
  "id": 5919132064,
  "lat": 59.6719005,
  "lon": 10.6428859
},
{
  "type": "node",
  "id": 5919132065,
  "lat": 59.6719146,
  "lon": 10.6427892
},
{
  "type": "node",
  "id": 5919132066,
  "lat": 59.6721993,
  "lon": 10.6429517
},
{
  "type": "node",
  "id": 1783106691,
  "lat": 59.6720708,
  "lon": 10.6432100
},
{
  "type": "node",
  "id": 5919132062,
  "lat": 59.6718459,
  "lon": 10.6430816
},
{
  "type": "node",
  "id": 5919132067,
  "lat": 59.6721679,
  "lon": 10.6431673
},
{
  "type": "node",
  "id": 5919132068,
  "lat": 59.6720840,
  "lon": 10.6431193
},
{
  "type": "node",
  "id": 247922592,
  "lat": 59.6665139,
  "lon": 10.7696432
},
{
  "type": "node",
  "id": 247922593,
  "lat": 59.6663633,
  "lon": 10.7698209
},
{
  "type": "node",
  "id": 247922594,
  "lat": 59.6664205,
  "lon": 10.7700112
},
{
  "type": "node",
  "id": 247922595,
  "lat": 59.6664454,
  "lon": 10.7699818
},
{
  "type": "node",
  "id": 247922596,
  "lat": 59.6666070,
  "lon": 10.7705188
},
{
  "type": "node",
  "id": 247922597,
  "lat": 59.6667140,
  "lon": 10.7703925
},
{
  "type": "node",
  "id": 248956576,
  "lat": 59.6652194,
  "lon": 10.7720666
},
{
  "type": "node",
  "id": 248956578,
  "lat": 59.6649797,
  "lon": 10.7717343
},
{
  "type": "node",
  "id": 248956580,
  "lat": 59.6649289,
  "lon": 10.7720902
},
{
  "type": "node",
  "id": 248956582,
  "lat": 59.6651827,
  "lon": 10.7722801
},
{
  "type": "node",
  "id": 1667677508,
  "lat": 59.6650365,
  "lon": 10.7719433
},
{
  "type": "node",
  "id": 1667677514,
  "lat": 59.6650628,
  "lon": 10.7717903
},
{
  "type": "node",
  "id": 2836642274,
  "lat": 59.6665821,
  "lon": 10.7699540
},
{
  "type": "node",
  "id": 3292662786,
  "lat": 59.6649576,
  "lon": 10.7718625
},
{
  "type": "node",
  "id": 3292662787,
  "lat": 59.6649670,
  "lon": 10.7718688
},
{
  "type": "node",
  "id": 3292663685,
  "lat": 59.6664393,
  "lon": 10.7701898
},
{
  "type": "node",
  "id": 3292663690,
  "lat": 59.6664616,
  "lon": 10.7700355
},
{
  "type": "node",
  "id": 3292663700,
  "lat": 59.6665173,
  "lon": 10.7702206
},
{
  "type": "node",
  "id": 3292663704,
  "lat": 59.6665336,
  "lon": 10.7697087
},
{
  "type": "node",
  "id": 3292663706,
  "lat": 59.6665458,
  "lon": 10.7696943
},
{
  "type": "node",
  "id": 3292663707,
  "lat": 59.6665484,
  "lon": 10.7697599
},
{
  "type": "node",
  "id": 3292663708,
  "lat": 59.6665509,
  "lon": 10.7698503
},
{
  "type": "node",
  "id": 3292663712,
  "lat": 59.6665610,
  "lon": 10.7697449
},
{
  "type": "node",
  "id": 3292663714,
  "lat": 59.6665691,
  "lon": 10.7698288
},
{
  "type": "node",
  "id": 3691331260,
  "lat": 59.6649977,
  "lon": 10.7721787
},
{
  "type": "node",
  "id": 3691331261,
  "lat": 59.6650042,
  "lon": 10.7721409
},
{
  "type": "node",
  "id": 3691331265,
  "lat": 59.6651030,
  "lon": 10.7722497
},
{
  "type": "node",
  "id": 3691331266,
  "lat": 59.6651066,
  "lon": 10.7722288
},
{
  "type": "node",
  "id": 515855200,
  "lat": 59.8893252,
  "lon": 10.5535175
},
{
  "type": "node",
  "id": 515855206,
  "lat": 59.8890564,
  "lon": 10.5529257
},
{
  "type": "node",
  "id": 515855210,
  "lat": 59.8889750,
  "lon": 10.5526324
},
{
  "type": "node",
  "id": 515855214,
  "lat": 59.8887100,
  "lon": 10.5522361
},
{
  "type": "node",
  "id": 515855217,
  "lat": 59.8886724,
  "lon": 10.5522404
},
{
  "type": "node",
  "id": 515855221,
  "lat": 59.8885711,
  "lon": 10.5523007
},
{
  "type": "node",
  "id": 515855223,
  "lat": 59.8885449,
  "lon": 10.5524189
},
{
  "type": "node",
  "id": 515855225,
  "lat": 59.8882393,
  "lon": 10.5528351
},
{
  "type": "node",
  "id": 515855228,
  "lat": 59.8882781,
  "lon": 10.5535627
},
{
  "type": "node",
  "id": 515855231,
  "lat": 59.8883836,
  "lon": 10.5536999
},
{
  "type": "node",
  "id": 515855233,
  "lat": 59.8884579,
  "lon": 10.5536998
},
{
  "type": "node",
  "id": 515855235,
  "lat": 59.8886710,
  "lon": 10.5535540
},
{
  "type": "node",
  "id": 515855237,
  "lat": 59.8887697,
  "lon": 10.5536097
},
{
  "type": "node",
  "id": 515855239,
  "lat": 59.8888343,
  "lon": 10.5535313
},
{
  "type": "node",
  "id": 515855242,
  "lat": 59.8890335,
  "lon": 10.5532471
},
{
  "type": "node",
  "id": 515855253,
  "lat": 59.8892466,
  "lon": 10.5536356
},
{
  "type": "node",
  "id": 541474318,
  "lat": 59.8893151,
  "lon": 10.5536015
},
{
  "type": "node",
  "id": 1039990536,
  "lat": 59.8885952,
  "lon": 10.5525556
},
{
  "type": "node",
  "id": 1039990544,
  "lat": 59.8883016,
  "lon": 10.5529608
},
{
  "type": "node",
  "id": 1039990567,
  "lat": 59.8888209,
  "lon": 10.5533442
},
{
  "type": "node",
  "id": 1039990575,
  "lat": 59.8891560,
  "lon": 10.5527574
},
{
  "type": "node",
  "id": 1039990582,
  "lat": 59.8894864,
  "lon": 10.5530795
},
{
  "type": "node",
  "id": 1039990587,
  "lat": 59.8888280,
  "lon": 10.5523341
},
{
  "type": "node",
  "id": 1039990593,
  "lat": 59.8891957,
  "lon": 10.5528751
},
{
  "type": "node",
  "id": 1039990600,
  "lat": 59.8888997,
  "lon": 10.5533076
},
{
  "type": "node",
  "id": 1039990603,
  "lat": 59.8890340,
  "lon": 10.5528418
},
{
  "type": "node",
  "id": 1039990628,
  "lat": 59.8894813,
  "lon": 10.5530460
},
{
  "type": "node",
  "id": 1039990632,
  "lat": 59.8883446,
  "lon": 10.5525470
},
{
  "type": "node",
  "id": 1039990639,
  "lat": 59.8892360,
  "lon": 10.5529890
},
{
  "type": "node",
  "id": 1039990644,
  "lat": 59.8889510,
  "lon": 10.5532464
},
{
  "type": "node",
  "id": 1039990650,
  "lat": 59.8894293,
  "lon": 10.5530493
},
{
  "type": "node",
  "id": 1039990667,
  "lat": 59.8892814,
  "lon": 10.5530728
},
{
  "type": "node",
  "id": 1039990671,
  "lat": 59.8892833,
  "lon": 10.5536424
},
{
  "type": "node",
  "id": 1039990678,
  "lat": 59.8882640,
  "lon": 10.5530894
},
{
  "type": "node",
  "id": 1039990685,
  "lat": 59.8883511,
  "lon": 10.5536274
},
{
  "type": "node",
  "id": 1039990688,
  "lat": 59.8892232,
  "lon": 10.5523582
},
{
  "type": "node",
  "id": 1039990691,
  "lat": 59.8889019,
  "lon": 10.5524547
},
{
  "type": "node",
  "id": 1039990695,
  "lat": 59.8885705,
  "lon": 10.5525963
},
{
  "type": "node",
  "id": 1039990715,
  "lat": 59.8885361,
  "lon": 10.5535503
},
{
  "type": "node",
  "id": 1039990716,
  "lat": 59.8893318,
  "lon": 10.5531364
},
{
  "type": "node",
  "id": 1039990721,
  "lat": 59.8884576,
  "lon": 10.5523670
},
{
  "type": "node",
  "id": 1039990725,
  "lat": 59.8882704,
  "lon": 10.5527271
},
{
  "type": "node",
  "id": 1039990729,
  "lat": 59.8894141,
  "lon": 10.5532101
},
{
  "type": "node",
  "id": 1039990735,
  "lat": 59.8894158,
  "lon": 10.5531632
},
{
  "type": "node",
  "id": 1039990749,
  "lat": 59.8892084,
  "lon": 10.5524680
},
{
  "type": "node",
  "id": 1039990754,
  "lat": 59.8892810,
  "lon": 10.5522142
},
{
  "type": "node",
  "id": 1039990760,
  "lat": 59.8895250,
  "lon": 10.5532067
},
{
  "type": "node",
  "id": 1039990764,
  "lat": 59.8887017,
  "lon": 10.5535160
},
{
  "type": "node",
  "id": 1039990770,
  "lat": 59.8891466,
  "lon": 10.5524520
},
{
  "type": "node",
  "id": 1039990773,
  "lat": 59.8882747,
  "lon": 10.5525706
},
{
  "type": "node",
  "id": 1039990778,
  "lat": 59.8883092,
  "lon": 10.5530251
},
{
  "type": "node",
  "id": 1039990786,
  "lat": 59.8895166,
  "lon": 10.5530795
},
{
  "type": "node",
  "id": 6635950102,
  "lat": 59.8890650,
  "lon": 10.5529226
},
{
  "type": "node",
  "id": 6635950103,
  "lat": 59.8890387,
  "lon": 10.5528385
},
{
  "type": "node",
  "id": 1477858211,
  "lat": 59.9050409,
  "lon": 10.6795674
},
{
  "type": "node",
  "id": 1477858212,
  "lat": 59.9050889,
  "lon": 10.6788591
},
{
  "type": "node",
  "id": 1477858216,
  "lat": 59.9051702,
  "lon": 10.6815544
},
{
  "type": "node",
  "id": 1477858219,
  "lat": 59.9051897,
  "lon": 10.6804423
},
{
  "type": "node",
  "id": 1477858222,
  "lat": 59.9051856,
  "lon": 10.6783181
},
{
  "type": "node",
  "id": 1477858227,
  "lat": 59.9056268,
  "lon": 10.6782463
},
{
  "type": "node",
  "id": 1477858238,
  "lat": 59.9057593,
  "lon": 10.6783412
},
{
  "type": "node",
  "id": 1477858241,
  "lat": 59.9058527,
  "lon": 10.6784826
},
{
  "type": "node",
  "id": 1477858244,
  "lat": 59.9059953,
  "lon": 10.6788581
},
{
  "type": "node",
  "id": 1477858247,
  "lat": 59.9061980,
  "lon": 10.6792226
},
{
  "type": "node",
  "id": 1477858250,
  "lat": 59.9062983,
  "lon": 10.6792307
},
{
  "type": "node",
  "id": 1477858252,
  "lat": 59.9065023,
  "lon": 10.6799055
},
{
  "type": "node",
  "id": 1477858254,
  "lat": 59.9065968,
  "lon": 10.6802857
},
{
  "type": "node",
  "id": 1477858268,
  "lat": 59.9067231,
  "lon": 10.6807325
},
{
  "type": "node",
  "id": 1477858274,
  "lat": 59.9068356,
  "lon": 10.6809972
},
{
  "type": "node",
  "id": 1477858281,
  "lat": 59.9069537,
  "lon": 10.6811682
},
{
  "type": "node",
  "id": 1477858295,
  "lat": 59.9076161,
  "lon": 10.6816864
},
{
  "type": "node",
  "id": 1477858303,
  "lat": 59.9083357,
  "lon": 10.6820073
},
{
  "type": "node",
  "id": 1477858306,
  "lat": 59.9085207,
  "lon": 10.6823211
},
{
  "type": "node",
  "id": 1541508917,
  "lat": 59.9071602,
  "lon": 10.6814028
},
{
  "type": "node",
  "id": 5241081199,
  "lat": 59.9074891,
  "lon": 10.6816074
},
{
  "type": "node",
  "id": 312818493,
  "lat": 59.9045578,
  "lon": 10.6850856
},
{
  "type": "node",
  "id": 312818494,
  "lat": 59.9049162,
  "lon": 10.6846185
},
{
  "type": "node",
  "id": 312818495,
  "lat": 59.9050515,
  "lon": 10.6850209
},
{
  "type": "node",
  "id": 312818497,
  "lat": 59.9050315,
  "lon": 10.6844997
},
{
  "type": "node",
  "id": 312818499,
  "lat": 59.9051406,
  "lon": 10.6840797
},
{
  "type": "node",
  "id": 312818500,
  "lat": 59.9049470,
  "lon": 10.6842431
},
{
  "type": "node",
  "id": 312818501,
  "lat": 59.9048192,
  "lon": 10.6838603
},
{
  "type": "node",
  "id": 312818502,
  "lat": 59.9047150,
  "lon": 10.6840013
},
{
  "type": "node",
  "id": 312818503,
  "lat": 59.9048467,
  "lon": 10.6844011
},
{
  "type": "node",
  "id": 1293148861,
  "lat": 59.9051629,
  "lon": 10.6842427
},
{
  "type": "node",
  "id": 1293148973,
  "lat": 59.9051158,
  "lon": 10.6841069
},
{
  "type": "node",
  "id": 1293149072,
  "lat": 59.9051803,
  "lon": 10.6843021
},
{
  "type": "node",
  "id": 1293149089,
  "lat": 59.9050984,
  "lon": 10.6840453
},
{
  "type": "node",
  "id": 1477858191,
  "lat": 59.9048422,
  "lon": 10.6856600
},
{
  "type": "node",
  "id": 1477858194,
  "lat": 59.9049936,
  "lon": 10.6865530
},
{
  "type": "node",
  "id": 1477858198,
  "lat": 59.9050330,
  "lon": 10.6862585
},
{
  "type": "node",
  "id": 1477858201,
  "lat": 59.9050362,
  "lon": 10.6867037
},
{
  "type": "node",
  "id": 1477858225,
  "lat": 59.9053366,
  "lon": 10.6826127
},
{
  "type": "node",
  "id": 1477858236,
  "lat": 59.9058833,
  "lon": 10.6844427
},
{
  "type": "node",
  "id": 1477858265,
  "lat": 59.9066640,
  "lon": 10.6878034
},
{
  "type": "node",
  "id": 1477858270,
  "lat": 59.9068425,
  "lon": 10.6878105
},
{
  "type": "node",
  "id": 1477858276,
  "lat": 59.9069458,
  "lon": 10.6877406
},
{
  "type": "node",
  "id": 1477858278,
  "lat": 59.9071724,
  "lon": 10.6874318
},
{
  "type": "node",
  "id": 1477858298,
  "lat": 59.9076230,
  "lon": 10.6864568
},
{
  "type": "node",
  "id": 1477858300,
  "lat": 59.9079715,
  "lon": 10.6857123
},
{
  "type": "node",
  "id": 1477858309,
  "lat": 59.9086646,
  "lon": 10.6845019
},
{
  "type": "node",
  "id": 1477858316,
  "lat": 59.9087531,
  "lon": 10.6842608
},
{
  "type": "node",
  "id": 1477858318,
  "lat": 59.9087344,
  "lon": 10.6832952
},
{
  "type": "node",
  "id": 1477858321,
  "lat": 59.9087933,
  "lon": 10.6840365
},
{
  "type": "node",
  "id": 1477858324,
  "lat": 59.9087897,
  "lon": 10.6836156
},
{
  "type": "node",
  "id": 2957914485,
  "lat": 59.9044870,
  "lon": 10.6848684
},
{
  "type": "node",
  "id": 4901890810,
  "lat": 59.9074651,
  "lon": 10.6868186
},
{
  "type": "node",
  "id": 5551518261,
  "lat": 59.9045207,
  "lon": 10.6849846
},
{
  "type": "node",
  "id": 5740482116,
  "lat": 59.9047183,
  "lon": 10.6840112
},
{
  "type": "node",
  "id": 5740482117,
  "lat": 59.9046309,
  "lon": 10.6846780
},
{
  "type": "node",
  "id": 5740482118,
  "lat": 59.9046395,
  "lon": 10.6847102
},
{
  "type": "node",
  "id": 5740482119,
  "lat": 59.9045998,
  "lon": 10.6847547
},
{
  "type": "node",
  "id": 5740482120,
  "lat": 59.9045924,
  "lon": 10.6847374
},
{
  "type": "node",
  "id": 5740482121,
  "lat": 59.9044938,
  "lon": 10.6848913
},
{
  "type": "node",
  "id": 5740482122,
  "lat": 59.9045031,
  "lon": 10.6849227
},
{
  "type": "node",
  "id": 5740482123,
  "lat": 59.9045106,
  "lon": 10.6849153
},
{
  "type": "node",
  "id": 5740482124,
  "lat": 59.9045181,
  "lon": 10.6849376
},
{
  "type": "node",
  "id": 5740482125,
  "lat": 59.9045094,
  "lon": 10.6849475
},
{
  "type": "node",
  "id": 5740482126,
  "lat": 59.9045305,
  "lon": 10.6850140
},
{
  "type": "node",
  "id": 5740482127,
  "lat": 59.9045404,
  "lon": 10.6850016
},
{
  "type": "node",
  "id": 5740482128,
  "lat": 59.9045452,
  "lon": 10.6850137
},
{
  "type": "node",
  "id": 5740482129,
  "lat": 59.9045503,
  "lon": 10.6850265
},
{
  "type": "node",
  "id": 5740482130,
  "lat": 59.9045473,
  "lon": 10.6850304
},
{
  "type": "node",
  "id": 5740482131,
  "lat": 59.9045429,
  "lon": 10.6850362
},
{
  "type": "node",
  "id": 5740482132,
  "lat": 59.9046607,
  "lon": 10.6849473
},
{
  "type": "node",
  "id": 5740482133,
  "lat": 59.9046604,
  "lon": 10.6849465
},
{
  "type": "node",
  "id": 5740482134,
  "lat": 59.9046545,
  "lon": 10.6849275
},
{
  "type": "node",
  "id": 5740482135,
  "lat": 59.9046686,
  "lon": 10.6849098
},
{
  "type": "node",
  "id": 5740482136,
  "lat": 59.9046979,
  "lon": 10.6848732
},
{
  "type": "node",
  "id": 5740482137,
  "lat": 59.9047066,
  "lon": 10.6848953
},
{
  "type": "node",
  "id": 5740482138,
  "lat": 59.9047735,
  "lon": 10.6848070
},
{
  "type": "node",
  "id": 5740482139,
  "lat": 59.9050257,
  "lon": 10.6849441
},
{
  "type": "node",
  "id": 5740482140,
  "lat": 59.9050706,
  "lon": 10.6849961
},
{
  "type": "node",
  "id": 5740482141,
  "lat": 59.9050801,
  "lon": 10.6849838
},
{
  "type": "node",
  "id": 5740482142,
  "lat": 59.9050925,
  "lon": 10.6850281
},
{
  "type": "node",
  "id": 5740482143,
  "lat": 59.9051445,
  "lon": 10.6849616
},
{
  "type": "node",
  "id": 5740482144,
  "lat": 59.9051321,
  "lon": 10.6849170
},
{
  "type": "node",
  "id": 5740482145,
  "lat": 59.9051557,
  "lon": 10.6848824
},
{
  "type": "node",
  "id": 5740482146,
  "lat": 59.9050539,
  "lon": 10.6844699
},
{
  "type": "node",
  "id": 5740482147,
  "lat": 59.9051840,
  "lon": 10.6842155
},
{
  "type": "node",
  "id": 5740482148,
  "lat": 59.9051786,
  "lon": 10.6841985
},
{
  "type": "node",
  "id": 5740482149,
  "lat": 59.9050999,
  "lon": 10.6840508
},
{
  "type": "node",
  "id": 5740482150,
  "lat": 59.9048839,
  "lon": 10.6840542
},
{
  "type": "node",
  "id": 469305678,
  "lat": 59.9712774,
  "lon": 10.6257477
},
{
  "type": "node",
  "id": 469305685,
  "lat": 59.9711837,
  "lon": 10.6267404
},
{
  "type": "node",
  "id": 469305687,
  "lat": 59.9716052,
  "lon": 10.6268993
},
{
  "type": "node",
  "id": 469305694,
  "lat": 59.9716177,
  "lon": 10.6267663
},
{
  "type": "node",
  "id": 469305699,
  "lat": 59.9720401,
  "lon": 10.6269255
},
{
  "type": "node",
  "id": 469305703,
  "lat": 59.9720617,
  "lon": 10.6266970
},
{
  "type": "node",
  "id": 469305704,
  "lat": 59.9719193,
  "lon": 10.6266433
},
{
  "type": "node",
  "id": 469305709,
  "lat": 59.9719685,
  "lon": 10.6261219
},
{
  "type": "node",
  "id": 469305715,
  "lat": 59.9717260,
  "lon": 10.6260305
},
{
  "type": "node",
  "id": 469305719,
  "lat": 59.9717356,
  "lon": 10.6259287
},
{
  "type": "node",
  "id": 469305721,
  "lat": 59.9715638,
  "lon": 10.6258639
},
{
  "type": "node",
  "id": 469305724,
  "lat": 59.9715811,
  "lon": 10.6256798
},
{
  "type": "node",
  "id": 469305728,
  "lat": 59.9714822,
  "lon": 10.6256425
},
{
  "type": "node",
  "id": 469305731,
  "lat": 59.9714656,
  "lon": 10.6258187
},
{
  "type": "node",
  "id": 469305750,
  "lat": 59.9718158,
  "lon": 10.6263103
},
{
  "type": "node",
  "id": 469305766,
  "lat": 59.9715912,
  "lon": 10.6262263
},
{
  "type": "node",
  "id": 469305772,
  "lat": 59.9716082,
  "lon": 10.6260448
},
{
  "type": "node",
  "id": 469305783,
  "lat": 59.9714188,
  "lon": 10.6259739
},
{
  "type": "node",
  "id": 469305790,
  "lat": 59.9713556,
  "lon": 10.6266489
},
{
  "type": "node",
  "id": 469305798,
  "lat": 59.9715398,
  "lon": 10.6267178
},
{
  "type": "node",
  "id": 469305801,
  "lat": 59.9715568,
  "lon": 10.6265361
},
{
  "type": "node",
  "id": 469305810,
  "lat": 59.9717866,
  "lon": 10.6266220
},
{
  "type": "node",
  "id": 2286491491,
  "lat": 59.9711204,
  "lon": 10.6267713
},
{
  "type": "node",
  "id": 2286491492,
  "lat": 59.9711258,
  "lon": 10.6261664
},
{
  "type": "node",
  "id": 2286491498,
  "lat": 59.9712002,
  "lon": 10.6256976
},
{
  "type": "node",
  "id": 2286491504,
  "lat": 59.9714395,
  "lon": 10.6254795
},
{
  "type": "node",
  "id": 2286491505,
  "lat": 59.9715893,
  "lon": 10.6269591
},
{
  "type": "node",
  "id": 2286491512,
  "lat": 59.9717081,
  "lon": 10.6254460
},
{
  "type": "node",
  "id": 2286491524,
  "lat": 59.9720230,
  "lon": 10.6257144
},
{
  "type": "node",
  "id": 2286491531,
  "lat": 59.9722681,
  "lon": 10.6268787
},
{
  "type": "node",
  "id": 2286491537,
  "lat": 59.9726232,
  "lon": 10.6252362
},
{
  "type": "node",
  "id": 2286491538,
  "lat": 59.9726269,
  "lon": 10.6295626
},
{
  "type": "node",
  "id": 2286491540,
  "lat": 59.9728134,
  "lon": 10.6259962
},
{
  "type": "node",
  "id": 2286491541,
  "lat": 59.9728404,
  "lon": 10.6262058
},
{
  "type": "node",
  "id": 2286491544,
  "lat": 59.9729068,
  "lon": 10.6286767
},
{
  "type": "node",
  "id": 1826510646,
  "lat": 59.7860825,
  "lon": 10.7340098
},
{
  "type": "node",
  "id": 1826510647,
  "lat": 59.7861194,
  "lon": 10.7338115
},
{
  "type": "node",
  "id": 1826510648,
  "lat": 59.7861509,
  "lon": 10.7338346
},
{
  "type": "node",
  "id": 1826510649,
  "lat": 59.7861570,
  "lon": 10.7338020
},
{
  "type": "node",
  "id": 1826510650,
  "lat": 59.7862038,
  "lon": 10.7340989
},
{
  "type": "node",
  "id": 1826510651,
  "lat": 59.7862143,
  "lon": 10.7338769
},
{
  "type": "node",
  "id": 1826510652,
  "lat": 59.7862196,
  "lon": 10.7338480
},
{
  "type": "node",
  "id": 1826510654,
  "lat": 59.7862414,
  "lon": 10.7338969
},
{
  "type": "node",
  "id": 2592151268,
  "lat": 59.8476246,
  "lon": 10.8051807
},
{
  "type": "node",
  "id": 2592151270,
  "lat": 59.8476616,
  "lon": 10.8053337
},
{
  "type": "node",
  "id": 2592151275,
  "lat": 59.8477426,
  "lon": 10.8050677
},
{
  "type": "node",
  "id": 2592151277,
  "lat": 59.8477796,
  "lon": 10.8052208
},
{
  "type": "node",
  "id": 1423948398,
  "lat": 59.9031384,
  "lon": 10.6993194
},
{
  "type": "node",
  "id": 5740482876,
  "lat": 59.9031779,
  "lon": 10.6992622
},
{
  "type": "node",
  "id": 312825619,
  "lat": 59.9034214,
  "lon": 10.6975966
},
{
  "type": "node",
  "id": 312825620,
  "lat": 59.9032362,
  "lon": 10.6978475
},
{
  "type": "node",
  "id": 312825621,
  "lat": 59.9034340,
  "lon": 10.6984284
},
{
  "type": "node",
  "id": 312825623,
  "lat": 59.9037418,
  "lon": 10.6980117
},
{
  "type": "node",
  "id": 312825624,
  "lat": 59.9035994,
  "lon": 10.6975935
},
{
  "type": "node",
  "id": 312825625,
  "lat": 59.9034768,
  "lon": 10.6977595
},
{
  "type": "node",
  "id": 1423948408,
  "lat": 59.9033272,
  "lon": 10.6990534
},
{
  "type": "node",
  "id": 3651105633,
  "lat": 59.9035184,
  "lon": 10.6986920
},
{
  "type": "node",
  "id": 3651105636,
  "lat": 59.9036989,
  "lon": 10.6984433
},
{
  "type": "node",
  "id": 3651105638,
  "lat": 59.9037811,
  "lon": 10.6994500
},
{
  "type": "node",
  "id": 3651105639,
  "lat": 59.9039616,
  "lon": 10.6992013
},
{
  "type": "node",
  "id": 5740482877,
  "lat": 59.9033963,
  "lon": 10.7000488
},
{
  "type": "node",
  "id": 5740482878,
  "lat": 59.9035880,
  "lon": 10.6997817
},
{
  "type": "node",
  "id": 5740482879,
  "lat": 59.9032899,
  "lon": 10.6991059
},
{
  "type": "node",
  "id": 7209571325,
  "lat": 59.9093210,
  "lon": 10.7342608
},
{
  "type": "node",
  "id": 7209571326,
  "lat": 59.9090934,
  "lon": 10.7342483
},
{
  "type": "node",
  "id": 7209571327,
  "lat": 59.9090529,
  "lon": 10.7342537
},
{
  "type": "node",
  "id": 7209571328,
  "lat": 59.9089867,
  "lon": 10.7342690
},
{
  "type": "node",
  "id": 7209571329,
  "lat": 59.9089587,
  "lon": 10.7342862
},
{
  "type": "node",
  "id": 7209571330,
  "lat": 59.9089379,
  "lon": 10.7343071
},
{
  "type": "node",
  "id": 7209571331,
  "lat": 59.9089279,
  "lon": 10.7343229
},
{
  "type": "node",
  "id": 7209571332,
  "lat": 59.9089376,
  "lon": 10.7343398
},
{
  "type": "node",
  "id": 7209571333,
  "lat": 59.9089572,
  "lon": 10.7343596
},
{
  "type": "node",
  "id": 7209571334,
  "lat": 59.9089862,
  "lon": 10.7343748
},
{
  "type": "node",
  "id": 7209571335,
  "lat": 59.9090579,
  "lon": 10.7343888
},
{
  "type": "node",
  "id": 7209571336,
  "lat": 59.9090936,
  "lon": 10.7343912
},
{
  "type": "node",
  "id": 7209571337,
  "lat": 59.9093210,
  "lon": 10.7343725
},
{
  "type": "node",
  "id": 7209571338,
  "lat": 59.9090210,
  "lon": 10.7342583
},
{
  "type": "node",
  "id": 7209571339,
  "lat": 59.9090248,
  "lon": 10.7343848
},
{
  "type": "node",
  "id": 7209571340,
  "lat": 59.9092070,
  "lon": 10.7342466
},
{
  "type": "node",
  "id": 7209571341,
  "lat": 59.9092079,
  "lon": 10.7343916
},
{
  "type": "node",
  "id": 1053666423,
  "lat": 59.9150576,
  "lon": 10.7269451
},
{
  "type": "node",
  "id": 1053666432,
  "lat": 59.9150350,
  "lon": 10.7269727
},
{
  "type": "node",
  "id": 1053666457,
  "lat": 59.9151615,
  "lon": 10.7273516
},
{
  "type": "node",
  "id": 1053666463,
  "lat": 59.9151239,
  "lon": 10.7273908
},
{
  "type": "node",
  "id": 1053666473,
  "lat": 59.9151165,
  "lon": 10.7273733
},
{
  "type": "node",
  "id": 1053666491,
  "lat": 59.9150436,
  "lon": 10.7267440
},
{
  "type": "node",
  "id": 1053666518,
  "lat": 59.9150636,
  "lon": 10.7267704
},
{
  "type": "node",
  "id": 1053666578,
  "lat": 59.9151576,
  "lon": 10.7273272
},
{
  "type": "node",
  "id": 6267595634,
  "lat": 59.9151442,
  "lon": 10.7267885
},
{
  "type": "node",
  "id": 6267595635,
  "lat": 59.9151266,
  "lon": 10.7267815
},
{
  "type": "node",
  "id": 6267595636,
  "lat": 59.9151005,
  "lon": 10.7267499
},
{
  "type": "node",
  "id": 6267595637,
  "lat": 59.9150591,
  "lon": 10.7266974
},
{
  "type": "node",
  "id": 6267595638,
  "lat": 59.9151294,
  "lon": 10.7273941
},
{
  "type": "node",
  "id": 6267595639,
  "lat": 59.9151589,
  "lon": 10.7273657
},
{
  "type": "node",
  "id": 6267595640,
  "lat": 59.9151740,
  "lon": 10.7267929
},
{
  "type": "node",
  "id": 6267595677,
  "lat": 59.9148871,
  "lon": 10.7270578
},
{
  "type": "node",
  "id": 6267595678,
  "lat": 59.9149042,
  "lon": 10.7270096
},
{
  "type": "node",
  "id": 6267595679,
  "lat": 59.9149361,
  "lon": 10.7269057
},
{
  "type": "node",
  "id": 6267595680,
  "lat": 59.9149509,
  "lon": 10.7268589
},
{
  "type": "node",
  "id": 270540514,
  "lat": 59.9114890,
  "lon": 10.7298642
},
{
  "type": "node",
  "id": 270540516,
  "lat": 59.9115045,
  "lon": 10.7300285
},
{
  "type": "node",
  "id": 270540518,
  "lat": 59.9113783,
  "lon": 10.7302189
},
{
  "type": "node",
  "id": 270540521,
  "lat": 59.9115147,
  "lon": 10.7305047
},
{
  "type": "node",
  "id": 270540523,
  "lat": 59.9115137,
  "lon": 10.7305836
},
{
  "type": "node",
  "id": 270540524,
  "lat": 59.9117179,
  "lon": 10.7305521
},
{
  "type": "node",
  "id": 270540525,
  "lat": 59.9117148,
  "lon": 10.7304770
},
{
  "type": "node",
  "id": 270540526,
  "lat": 59.9118488,
  "lon": 10.7302317
},
{
  "type": "node",
  "id": 270540527,
  "lat": 59.9117833,
  "lon": 10.7300830
},
{
  "type": "node",
  "id": 270540528,
  "lat": 59.9117721,
  "lon": 10.7300979
},
{
  "type": "node",
  "id": 270540529,
  "lat": 59.9116904,
  "lon": 10.7299261
},
{
  "type": "node",
  "id": 270540530,
  "lat": 59.9116724,
  "lon": 10.7305759
},
{
  "type": "node",
  "id": 270540531,
  "lat": 59.9115595,
  "lon": 10.7305944
},
{
  "type": "node",
  "id": 270540532,
  "lat": 59.9115676,
  "lon": 10.7305708
},
{
  "type": "node",
  "id": 270540533,
  "lat": 59.9116632,
  "lon": 10.7305583
},
{
  "type": "node",
  "id": 1028562557,
  "lat": 59.9115232,
  "lon": 10.7305965
},
{
  "type": "node",
  "id": 1028562559,
  "lat": 59.9114512,
  "lon": 10.7300919
},
{
  "type": "node",
  "id": 1028562560,
  "lat": 59.9117099,
  "lon": 10.7305733
},
{
  "type": "node",
  "id": 1028562561,
  "lat": 59.9114587,
  "lon": 10.7301096
},
{
  "type": "node",
  "id": 2785413715,
  "lat": 59.9116883,
  "lon": 10.7298367
},
{
  "type": "node",
  "id": 3010207231,
  "lat": 59.9116145,
  "lon": 10.7305646
},
{
  "type": "node",
  "id": 5330075983,
  "lat": 59.9114952,
  "lon": 10.7300274
},
{
  "type": "node",
  "id": 5330075984,
  "lat": 59.9115101,
  "lon": 10.7305188
},
{
  "type": "node",
  "id": 5330075985,
  "lat": 59.9117171,
  "lon": 10.7304844
},
{
  "type": "node",
  "id": 690201152,
  "lat": 59.9048723,
  "lon": 10.7403810
},
{
  "type": "node",
  "id": 690201153,
  "lat": 59.9044924,
  "lon": 10.7400021
},
{
  "type": "node",
  "id": 690201158,
  "lat": 59.9043978,
  "lon": 10.7412466
},
{
  "type": "node",
  "id": 690201159,
  "lat": 59.9045717,
  "lon": 10.7404887
},
{
  "type": "node",
  "id": 690201160,
  "lat": 59.9047987,
  "lon": 10.7406871
},
{
  "type": "node",
  "id": 855353281,
  "lat": 59.9084350,
  "lon": 10.7406079
},
{
  "type": "node",
  "id": 1276116947,
  "lat": 59.9087664,
  "lon": 10.7409281
},
{
  "type": "node",
  "id": 5295406009,
  "lat": 59.9086962,
  "lon": 10.7412176
},
{
  "type": "node",
  "id": 5295406011,
  "lat": 59.9087050,
  "lon": 10.7412261
},
{
  "type": "node",
  "id": 5295406012,
  "lat": 59.9084953,
  "lon": 10.7406658
},
{
  "type": "node",
  "id": 5295406013,
  "lat": 59.9087094,
  "lon": 10.7408731
},
{
  "type": "node",
  "id": 5295406014,
  "lat": 59.9087124,
  "lon": 10.7408606
},
{
  "type": "node",
  "id": 5295406015,
  "lat": 59.9084981,
  "lon": 10.7406543
},
{
  "type": "node",
  "id": 5295406016,
  "lat": 59.9083640,
  "lon": 10.7409018
},
{
  "type": "node",
  "id": 5295406017,
  "lat": 59.9083122,
  "lon": 10.7410994
},
{
  "type": "node",
  "id": 5295406018,
  "lat": 59.9083065,
  "lon": 10.7410939
},
{
  "type": "node",
  "id": 5295406019,
  "lat": 59.9083549,
  "lon": 10.7408931
},
{
  "type": "node",
  "id": 5861548612,
  "lat": 59.9043945,
  "lon": 10.7412626
},
{
  "type": "node",
  "id": 5861548613,
  "lat": 59.9043978,
  "lon": 10.7412408
},
{
  "type": "node",
  "id": 5861548620,
  "lat": 59.9046560,
  "lon": 10.7401768
},
{
  "type": "node",
  "id": 5861548621,
  "lat": 59.9046593,
  "lon": 10.7401618
},
{
  "type": "node",
  "id": 5965943681,
  "lat": 59.9045402,
  "lon": 10.7406200
},
{
  "type": "node",
  "id": 5965948194,
  "lat": 59.9045475,
  "lon": 10.7405897
},
{
  "type": "node",
  "id": 6268381907,
  "lat": 59.9045820,
  "lon": 10.7404793
},
{
  "type": "node",
  "id": 6268382187,
  "lat": 59.9045786,
  "lon": 10.7404941
},
{
  "type": "node",
  "id": 6268382188,
  "lat": 59.9044132,
  "lon": 10.7403356
},
{
  "type": "node",
  "id": 6268382189,
  "lat": 59.9044195,
  "lon": 10.7403423
},
{
  "type": "node",
  "id": 6268382190,
  "lat": 59.9042378,
  "lon": 10.7410945
},
{
  "type": "node",
  "id": 6268382191,
  "lat": 59.9042298,
  "lon": 10.7410878
},
{
  "type": "node",
  "id": 6367799916,
  "lat": 59.9041904,
  "lon": 10.7412510
},
{
  "type": "node",
  "id": 690201156,
  "lat": 59.9046133,
  "lon": 10.7414733
},
{
  "type": "node",
  "id": 1276116317,
  "lat": 59.9082418,
  "lon": 10.7413919
},
{
  "type": "node",
  "id": 1276116571,
  "lat": 59.9085772,
  "lon": 10.7417163
},
{
  "type": "node",
  "id": 2383965020,
  "lat": 59.9045688,
  "lon": 10.7416570
},
{
  "type": "node",
  "id": 5295406008,
  "lat": 59.9086461,
  "lon": 10.7414315
},
{
  "type": "node",
  "id": 5295406010,
  "lat": 59.9086535,
  "lon": 10.7414387
},
{
  "type": "node",
  "id": 5295406020,
  "lat": 59.9085209,
  "lon": 10.7416621
},
{
  "type": "node",
  "id": 5295407121,
  "lat": 59.9083035,
  "lon": 10.7414511
},
{
  "type": "node",
  "id": 5295407122,
  "lat": 59.9083000,
  "lon": 10.7414658
},
{
  "type": "node",
  "id": 5295407123,
  "lat": 59.9085178,
  "lon": 10.7416749
},
{
  "type": "node",
  "id": 5861548622,
  "lat": 59.9043209,
  "lon": 10.7415663
},
{
  "type": "node",
  "id": 5861548623,
  "lat": 59.9043169,
  "lon": 10.7415831
},
{
  "type": "node",
  "id": 5861548624,
  "lat": 59.9041490,
  "lon": 10.7414224
},
{
  "type": "node",
  "id": 6268382192,
  "lat": 59.9045403,
  "lon": 10.7417741
},
{
  "type": "node",
  "id": 332514473,
  "lat": 59.9226162,
  "lon": 10.6994652
},
{
  "type": "node",
  "id": 332514474,
  "lat": 59.9225040,
  "lon": 10.7003236
},
{
  "type": "node",
  "id": 2467590257,
  "lat": 59.9227881,
  "lon": 10.6997921
},
{
  "type": "node",
  "id": 2467590259,
  "lat": 59.9227336,
  "lon": 10.7002309
},
{
  "type": "node",
  "id": 5293300648,
  "lat": 59.9227024,
  "lon": 10.7004270
},
{
  "type": "node",
  "id": 5293300650,
  "lat": 59.9226984,
  "lon": 10.7004579
},
{
  "type": "node",
  "id": 5293300652,
  "lat": 59.9228117,
  "lon": 10.6995670
},
{
  "type": "node",
  "id": 5293300654,
  "lat": 59.9228162,
  "lon": 10.6995331
},
{
  "type": "node",
  "id": 332514472,
  "lat": 59.9232366,
  "lon": 10.6997939
},
{
  "type": "node",
  "id": 332514475,
  "lat": 59.9231171,
  "lon": 10.7006487
},
{
  "type": "node",
  "id": 2467590240,
  "lat": 59.9229425,
  "lon": 10.7003370
},
{
  "type": "node",
  "id": 2467590242,
  "lat": 59.9230050,
  "lon": 10.6999051
},
{
  "type": "node",
  "id": 5293300647,
  "lat": 59.9229306,
  "lon": 10.7005519
},
{
  "type": "node",
  "id": 5293300649,
  "lat": 59.9229200,
  "lon": 10.7005734
},
{
  "type": "node",
  "id": 5293300651,
  "lat": 59.9230447,
  "lon": 10.6996942
},
{
  "type": "node",
  "id": 5293300653,
  "lat": 59.9230498,
  "lon": 10.6996546
},
{
  "type": "node",
  "id": 5293300655,
  "lat": 59.9232114,
  "lon": 10.6999874
},
{
  "type": "node",
  "id": 5293300656,
  "lat": 59.9231354,
  "lon": 10.7005084
},
{
  "type": "node",
  "id": 5293300657,
  "lat": 59.9231251,
  "lon": 10.7005031
},
{
  "type": "node",
  "id": 5293300658,
  "lat": 59.9231936,
  "lon": 10.6999782
},
{
  "type": "node",
  "id": 2285990203,
  "lat": 59.9391853,
  "lon": 10.6987632
},
{
  "type": "node",
  "id": 2285990206,
  "lat": 59.9392508,
  "lon": 10.6984569
},
{
  "type": "node",
  "id": 2285990209,
  "lat": 59.9392655,
  "lon": 10.6988315
},
{
  "type": "node",
  "id": 2285990211,
  "lat": 59.9392771,
  "lon": 10.6987770
},
{
  "type": "node",
  "id": 2285990213,
  "lat": 59.9392906,
  "lon": 10.6987141
},
{
  "type": "node",
  "id": 2285990215,
  "lat": 59.9393053,
  "lon": 10.6988009
},
{
  "type": "node",
  "id": 2285990218,
  "lat": 59.9393187,
  "lon": 10.6987381
},
{
  "type": "node",
  "id": 2285990224,
  "lat": 59.9393310,
  "lon": 10.6985252
},
{
  "type": "node",
  "id": 1273604230,
  "lat": 59.9171166,
  "lon": 10.7346103
},
{
  "type": "node",
  "id": 1273604232,
  "lat": 59.9170046,
  "lon": 10.7342327
},
{
  "type": "node",
  "id": 1273604235,
  "lat": 59.9169427,
  "lon": 10.7344423
},
{
  "type": "node",
  "id": 1273604238,
  "lat": 59.9169740,
  "lon": 10.7344438
},
{
  "type": "node",
  "id": 1273604242,
  "lat": 59.9169527,
  "lon": 10.7347016
},
{
  "type": "node",
  "id": 1273604243,
  "lat": 59.9169129,
  "lon": 10.7341249
},
{
  "type": "node",
  "id": 1273604244,
  "lat": 59.9171671,
  "lon": 10.7346993
},
{
  "type": "node",
  "id": 1273604245,
  "lat": 59.9171146,
  "lon": 10.7346174
},
{
  "type": "node",
  "id": 1273604248,
  "lat": 59.9171738,
  "lon": 10.7346719
},
{
  "type": "node",
  "id": 1273604255,
  "lat": 59.9169656,
  "lon": 10.7344702
},
{
  "type": "node",
  "id": 1273604259,
  "lat": 59.9169413,
  "lon": 10.7347415
},
{
  "type": "node",
  "id": 1273604263,
  "lat": 59.9170286,
  "lon": 10.7345117
},
{
  "type": "node",
  "id": 1273604267,
  "lat": 59.9167945,
  "lon": 10.7345222
},
{
  "type": "node",
  "id": 6269642258,
  "lat": 59.9170272,
  "lon": 10.7345165
},
{
  "type": "node",
  "id": 6269642259,
  "lat": 59.9170136,
  "lon": 10.7344930
},
{
  "type": "node",
  "id": 6269642260,
  "lat": 59.9169619,
  "lon": 10.7344658
},
{
  "type": "node",
  "id": 6269642261,
  "lat": 59.9169597,
  "lon": 10.7341799
},
{
  "type": "node",
  "id": 6269642262,
  "lat": 59.9168903,
  "lon": 10.7342010
},
{
  "type": "node",
  "id": 6269642263,
  "lat": 59.9168872,
  "lon": 10.7341994
},
{
  "type": "node",
  "id": 6269642264,
  "lat": 59.9168680,
  "lon": 10.7342671
},
{
  "type": "node",
  "id": 6269642265,
  "lat": 59.9168503,
  "lon": 10.7343293
},
{
  "type": "node",
  "id": 6269642266,
  "lat": 59.9168528,
  "lon": 10.7343324
},
{
  "type": "node",
  "id": 6269642267,
  "lat": 59.9168530,
  "lon": 10.7343326
},
{
  "type": "node",
  "id": 6269642268,
  "lat": 59.9168019,
  "lon": 10.7344980
},
{
  "type": "node",
  "id": 6269642270,
  "lat": 59.9171607,
  "lon": 10.7346569
},
{
  "type": "node",
  "id": 6269642271,
  "lat": 59.9171175,
  "lon": 10.7346072
},
{
  "type": "node",
  "id": 6269642272,
  "lat": 59.9170614,
  "lon": 10.7345572
},
{
  "type": "node",
  "id": 345718069,
  "lat": 59.9171526,
  "lon": 10.7357439
},
{
  "type": "node",
  "id": 345718073,
  "lat": 59.9165230,
  "lon": 10.7349987
},
{
  "type": "node",
  "id": 1273604236,
  "lat": 59.9170589,
  "lon": 10.7348717
},
{
  "type": "node",
  "id": 1273604247,
  "lat": 59.9172275,
  "lon": 10.7350128
},
{
  "type": "node",
  "id": 1273604269,
  "lat": 59.9172806,
  "lon": 10.7348283
},
{
  "type": "node",
  "id": 1273604271,
  "lat": 59.9170701,
  "lon": 10.7348335
},
{
  "type": "node",
  "id": 6269642269,
  "lat": 59.9170644,
  "lon": 10.7348529
},
{
  "type": "node",
  "id": 6269642356,
  "lat": 59.9169932,
  "lon": 10.7359654
},
{
  "type": "node",
  "id": 6269642357,
  "lat": 59.9169942,
  "lon": 10.7359665
},
{
  "type": "node",
  "id": 6269642358,
  "lat": 59.9169940,
  "lon": 10.7359672
},
{
  "type": "node",
  "id": 6269642359,
  "lat": 59.9169863,
  "lon": 10.7360031
},
{
  "type": "node",
  "id": 6269642360,
  "lat": 59.9169902,
  "lon": 10.7360193
},
{
  "type": "node",
  "id": 6269642361,
  "lat": 59.9170474,
  "lon": 10.7360843
},
{
  "type": "node",
  "id": 6269642362,
  "lat": 59.9170510,
  "lon": 10.7360847
},
{
  "type": "node",
  "id": 6269642363,
  "lat": 59.9170581,
  "lon": 10.7360743
},
{
  "type": "node",
  "id": 6269642364,
  "lat": 59.9171504,
  "lon": 10.7357236
},
{
  "type": "node",
  "id": 6269642365,
  "lat": 59.9171504,
  "lon": 10.7357234
},
{
  "type": "node",
  "id": 6269642366,
  "lat": 59.9170956,
  "lon": 10.7356606
},
{
  "type": "node",
  "id": 6269642367,
  "lat": 59.9170846,
  "lon": 10.7356642
},
{
  "type": "node",
  "id": 6269642368,
  "lat": 59.9170762,
  "lon": 10.7356873
},
{
  "type": "node",
  "id": 6269642369,
  "lat": 59.9170652,
  "lon": 10.7356749
},
{
  "type": "node",
  "id": 6269642370,
  "lat": 59.9168759,
  "lon": 10.7354625
},
{
  "type": "node",
  "id": 6269642371,
  "lat": 59.9168759,
  "lon": 10.7354502
},
{
  "type": "node",
  "id": 6269642372,
  "lat": 59.9168748,
  "lon": 10.7354381
},
{
  "type": "node",
  "id": 6269642373,
  "lat": 59.9168686,
  "lon": 10.7354214
},
{
  "type": "node",
  "id": 6269642374,
  "lat": 59.9168577,
  "lon": 10.7354156
},
{
  "type": "node",
  "id": 6269642375,
  "lat": 59.9167987,
  "lon": 10.7353482
},
{
  "type": "node",
  "id": 6269642376,
  "lat": 59.9167909,
  "lon": 10.7353327
},
{
  "type": "node",
  "id": 6269642377,
  "lat": 59.9167800,
  "lon": 10.7353321
},
{
  "type": "node",
  "id": 6269642378,
  "lat": 59.9167708,
  "lon": 10.7353437
},
{
  "type": "node",
  "id": 6269642379,
  "lat": 59.9166426,
  "lon": 10.7351956
},
{
  "type": "node",
  "id": 6269642380,
  "lat": 59.9165709,
  "lon": 10.7351127
},
{
  "type": "node",
  "id": 6269642381,
  "lat": 59.9165777,
  "lon": 10.7350795
},
{
  "type": "node",
  "id": 6269642382,
  "lat": 59.9165779,
  "lon": 10.7350787
},
{
  "type": "node",
  "id": 6269642383,
  "lat": 59.9165742,
  "lon": 10.7350604
},
{
  "type": "node",
  "id": 6269642384,
  "lat": 59.9165565,
  "lon": 10.7350390
},
{
  "type": "node",
  "id": 6269642385,
  "lat": 59.9165146,
  "lon": 10.7349945
},
{
  "type": "node",
  "id": 6269642386,
  "lat": 59.9165095,
  "lon": 10.7349974
},
{
  "type": "node",
  "id": 6269642387,
  "lat": 59.9164129,
  "lon": 10.7353311
},
{
  "type": "node",
  "id": 6269642388,
  "lat": 59.9164129,
  "lon": 10.7353553
},
{
  "type": "node",
  "id": 6269642389,
  "lat": 59.9164150,
  "lon": 10.7353611
},
{
  "type": "node",
  "id": 6269642390,
  "lat": 59.9164406,
  "lon": 10.7353920
},
{
  "type": "node",
  "id": 6269642391,
  "lat": 59.9164694,
  "lon": 10.7354238
},
{
  "type": "node",
  "id": 6269642392,
  "lat": 59.9164793,
  "lon": 10.7354223
},
{
  "type": "node",
  "id": 6269642393,
  "lat": 59.9164794,
  "lon": 10.7354221
},
{
  "type": "node",
  "id": 6269642394,
  "lat": 59.9164895,
  "lon": 10.7353908
},
{
  "type": "node",
  "id": 6269642395,
  "lat": 59.9166582,
  "lon": 10.7355824
},
{
  "type": "node",
  "id": 6269642396,
  "lat": 59.9167095,
  "lon": 10.7356404
},
{
  "type": "node",
  "id": 6269642397,
  "lat": 59.9167088,
  "lon": 10.7356425
},
{
  "type": "node",
  "id": 6269642398,
  "lat": 59.9167073,
  "lon": 10.7356479
},
{
  "type": "node",
  "id": 6269642399,
  "lat": 59.9167094,
  "lon": 10.7356503
},
{
  "type": "node",
  "id": 6269642400,
  "lat": 59.9167742,
  "lon": 10.7357220
},
{
  "type": "node",
  "id": 1308168981,
  "lat": 59.8985255,
  "lon": 10.7595350
},
{
  "type": "node",
  "id": 1308169128,
  "lat": 59.8986709,
  "lon": 10.7597635
},
{
  "type": "node",
  "id": 1308169354,
  "lat": 59.8985245,
  "lon": 10.7597539
},
{
  "type": "node",
  "id": 2785465033,
  "lat": 59.8986739,
  "lon": 10.7595378
},
{
  "type": "node",
  "id": 4725951742,
  "lat": 59.8986258,
  "lon": 10.7595364
},
{
  "type": "node",
  "id": 4725951743,
  "lat": 59.8986255,
  "lon": 10.7595138
},
{
  "type": "node",
  "id": 4725951744,
  "lat": 59.8985737,
  "lon": 10.7595116
},
{
  "type": "node",
  "id": 4725951745,
  "lat": 59.8985738,
  "lon": 10.7595350
},
{
  "type": "node",
  "id": 1277608066,
  "lat": 59.9162366,
  "lon": 10.7553617
},
{
  "type": "node",
  "id": 1277608252,
  "lat": 59.9162605,
  "lon": 10.7554173
},
{
  "type": "node",
  "id": 1277608324,
  "lat": 59.9162079,
  "lon": 10.7554089
},
{
  "type": "node",
  "id": 5887747762,
  "lat": 59.9062137,
  "lon": 10.7675037
},
{
  "type": "node",
  "id": 5887747763,
  "lat": 59.9062140,
  "lon": 10.7675060
},
{
  "type": "node",
  "id": 5887747764,
  "lat": 59.9060627,
  "lon": 10.7674651
},
{
  "type": "node",
  "id": 5887747765,
  "lat": 59.9061064,
  "lon": 10.7674769
},
{
  "type": "node",
  "id": 5887747768,
  "lat": 59.9059546,
  "lon": 10.7674306
},
{
  "type": "node",
  "id": 1270588980,
  "lat": 59.9064459,
  "lon": 10.7676487
},
{
  "type": "node",
  "id": 1270589106,
  "lat": 59.9062091,
  "lon": 10.7676002
},
{
  "type": "node",
  "id": 1270589355,
  "lat": 59.9064336,
  "lon": 10.7678230
},
{
  "type": "node",
  "id": 1270589502,
  "lat": 59.9059321,
  "lon": 10.7677048
},
{
  "type": "node",
  "id": 5887747746,
  "lat": 59.9064071,
  "lon": 10.7676398
},
{
  "type": "node",
  "id": 5887747758,
  "lat": 59.9060871,
  "lon": 10.7677413
},
{
  "type": "node",
  "id": 5887747759,
  "lat": 59.9060875,
  "lon": 10.7677364
},
{
  "type": "node",
  "id": 5887747760,
  "lat": 59.9060427,
  "lon": 10.7677253
},
{
  "type": "node",
  "id": 5887747761,
  "lat": 59.9060421,
  "lon": 10.7677307
},
{
  "type": "node",
  "id": 6831204499,
  "lat": 59.9063493,
  "lon": 10.7678031
},
{
  "type": "node",
  "id": 1277608034,
  "lat": 59.9163859,
  "lon": 10.7552030
},
{
  "type": "node",
  "id": 1277608181,
  "lat": 59.9164645,
  "lon": 10.7553860
},
{
  "type": "node",
  "id": 1277608282,
  "lat": 59.9163591,
  "lon": 10.7555661
},
{
  "type": "node",
  "id": 1277608343,
  "lat": 59.9163030,
  "lon": 10.7556184
},
{
  "type": "node",
  "id": 1277608432,
  "lat": 59.9163138,
  "lon": 10.7556436
},
{
  "type": "node",
  "id": 296079851,
  "lat": 59.9201856,
  "lon": 10.7709352
},
{
  "type": "node",
  "id": 296079852,
  "lat": 59.9194716,
  "lon": 10.7709349
},
{
  "type": "node",
  "id": 296079853,
  "lat": 59.9194722,
  "lon": 10.7713279
},
{
  "type": "node",
  "id": 296079854,
  "lat": 59.9201862,
  "lon": 10.7713215
},
{
  "type": "node",
  "id": 296079855,
  "lat": 59.9201899,
  "lon": 10.7720835
},
{
  "type": "node",
  "id": 296079858,
  "lat": 59.9194794,
  "lon": 10.7721194
},
{
  "type": "node",
  "id": 296079859,
  "lat": 59.9194799,
  "lon": 10.7724949
},
{
  "type": "node",
  "id": 296079860,
  "lat": 59.9201905,
  "lon": 10.7724977
},
{
  "type": "node",
  "id": 296079861,
  "lat": 59.9182154,
  "lon": 10.7722676
},
{
  "type": "node",
  "id": 296079862,
  "lat": 59.9182314,
  "lon": 10.7725226
},
{
  "type": "node",
  "id": 296079863,
  "lat": 59.9178069,
  "lon": 10.7723700
},
{
  "type": "node",
  "id": 296079864,
  "lat": 59.9178230,
  "lon": 10.7726250
},
{
  "type": "node",
  "id": 357245546,
  "lat": 59.9171974,
  "lon": 10.7740263
},
{
  "type": "node",
  "id": 357245552,
  "lat": 59.9169303,
  "lon": 10.7739928
},
{
  "type": "node",
  "id": 357245554,
  "lat": 59.9169349,
  "lon": 10.7738465
},
{
  "type": "node",
  "id": 357245557,
  "lat": 59.9169672,
  "lon": 10.7735630
},
{
  "type": "node",
  "id": 357245560,
  "lat": 59.9168784,
  "lon": 10.7738347
},
{
  "type": "node",
  "id": 357245563,
  "lat": 59.9168737,
  "lon": 10.7739861
},
{
  "type": "node",
  "id": 357245565,
  "lat": 59.9168477,
  "lon": 10.7739828
},
{
  "type": "node",
  "id": 376700988,
  "lat": 59.9176772,
  "lon": 10.7710827
},
{
  "type": "node",
  "id": 376700996,
  "lat": 59.9176989,
  "lon": 10.7712949
},
{
  "type": "node",
  "id": 376701003,
  "lat": 59.9176916,
  "lon": 10.7712978
},
{
  "type": "node",
  "id": 376701012,
  "lat": 59.9177149,
  "lon": 10.7715254
},
{
  "type": "node",
  "id": 376701020,
  "lat": 59.9177227,
  "lon": 10.7715221
},
{
  "type": "node",
  "id": 376701029,
  "lat": 59.9177464,
  "lon": 10.7717539
},
{
  "type": "node",
  "id": 376701038,
  "lat": 59.9178433,
  "lon": 10.7717145
},
{
  "type": "node",
  "id": 376701046,
  "lat": 59.9178195,
  "lon": 10.7714815
},
{
  "type": "node",
  "id": 376701054,
  "lat": 59.9178257,
  "lon": 10.7714789
},
{
  "type": "node",
  "id": 376701063,
  "lat": 59.9178014,
  "lon": 10.7712412
},
{
  "type": "node",
  "id": 376701069,
  "lat": 59.9177936,
  "lon": 10.7712443
},
{
  "type": "node",
  "id": 376701079,
  "lat": 59.9177731,
  "lon": 10.7710437
},
{
  "type": "node",
  "id": 376702617,
  "lat": 59.9175225,
  "lon": 10.7717752
},
{
  "type": "node",
  "id": 376702620,
  "lat": 59.9175031,
  "lon": 10.7715883
},
{
  "type": "node",
  "id": 376702630,
  "lat": 59.9174214,
  "lon": 10.7716222
},
{
  "type": "node",
  "id": 376709052,
  "lat": 59.9174019,
  "lon": 10.7714347
},
{
  "type": "node",
  "id": 376709059,
  "lat": 59.9174823,
  "lon": 10.7714013
},
{
  "type": "node",
  "id": 376709088,
  "lat": 59.9174639,
  "lon": 10.7712244
},
{
  "type": "node",
  "id": 376709103,
  "lat": 59.9175257,
  "lon": 10.7711987
},
{
  "type": "node",
  "id": 376709118,
  "lat": 59.9175442,
  "lon": 10.7713766
},
{
  "type": "node",
  "id": 376709123,
  "lat": 59.9175636,
  "lon": 10.7715626
},
{
  "type": "node",
  "id": 376709134,
  "lat": 59.9175832,
  "lon": 10.7717500
},
{
  "type": "node",
  "id": 1350778229,
  "lat": 59.9201463,
  "lon": 10.7713212
},
{
  "type": "node",
  "id": 1497065036,
  "lat": 59.9167970,
  "lon": 10.7738245
},
{
  "type": "node",
  "id": 1497065037,
  "lat": 59.9168059,
  "lon": 10.7735428
},
{
  "type": "node",
  "id": 1497065038,
  "lat": 59.9169582,
  "lon": 10.7738495
},
{
  "type": "node",
  "id": 2467573672,
  "lat": 59.9201749,
  "lon": 10.7720836
},
{
  "type": "node",
  "id": 2467573673,
  "lat": 59.9201147,
  "lon": 10.7720839
},
{
  "type": "node",
  "id": 2467573682,
  "lat": 59.9201677,
  "lon": 10.7713216
},
{
  "type": "node",
  "id": 2467573686,
  "lat": 59.9201099,
  "lon": 10.7713219
},
{
  "type": "node",
  "id": 3123959348,
  "lat": 59.9201460,
  "lon": 10.7720838
},
{
  "type": "node",
  "id": 4298771719,
  "lat": 59.9175535,
  "lon": 10.7714658
},
{
  "type": "node",
  "id": 4298771720,
  "lat": 59.9178130,
  "lon": 10.7713545
},
{
  "type": "node",
  "id": 4298771729,
  "lat": 59.9196471,
  "lon": 10.7709340
},
{
  "type": "node",
  "id": 4298771730,
  "lat": 59.9196472,
  "lon": 10.7709996
},
{
  "type": "node",
  "id": 4298771731,
  "lat": 59.9196475,
  "lon": 10.7712745
},
{
  "type": "node",
  "id": 4298771732,
  "lat": 59.9196476,
  "lon": 10.7713270
},
{
  "type": "node",
  "id": 4298771733,
  "lat": 59.9196548,
  "lon": 10.7721185
},
{
  "type": "node",
  "id": 4298771734,
  "lat": 59.9196549,
  "lon": 10.7721625
},
{
  "type": "node",
  "id": 4298771735,
  "lat": 59.9196553,
  "lon": 10.7724616
},
{
  "type": "node",
  "id": 4298771736,
  "lat": 59.9196553,
  "lon": 10.7724940
},
{
  "type": "node",
  "id": 4298771737,
  "lat": 59.9199212,
  "lon": 10.7709366
},
{
  "type": "node",
  "id": 4298771738,
  "lat": 59.9199213,
  "lon": 10.7709981
},
{
  "type": "node",
  "id": 4298771739,
  "lat": 59.9199216,
  "lon": 10.7712730
},
{
  "type": "node",
  "id": 4298771740,
  "lat": 59.9199217,
  "lon": 10.7713229
},
{
  "type": "node",
  "id": 4298771741,
  "lat": 59.9199289,
  "lon": 10.7720849
},
{
  "type": "node",
  "id": 4298771742,
  "lat": 59.9199290,
  "lon": 10.7721611
},
{
  "type": "node",
  "id": 4298771743,
  "lat": 59.9199294,
  "lon": 10.7724602
},
{
  "type": "node",
  "id": 4298771744,
  "lat": 59.9199294,
  "lon": 10.7724991
},
{
  "type": "node",
  "id": 5875619438,
  "lat": 59.9179582,
  "lon": 10.7723137
},
{
  "type": "node",
  "id": 5875619439,
  "lat": 59.9180635,
  "lon": 10.7722873
},
{
  "type": "node",
  "id": 5875619440,
  "lat": 59.9180819,
  "lon": 10.7725809
},
{
  "type": "node",
  "id": 5875619441,
  "lat": 59.9179767,
  "lon": 10.7726073
},
{
  "type": "node",
  "id": 5875619442,
  "lat": 59.9179754,
  "lon": 10.7725868
},
{
  "type": "node",
  "id": 5875619443,
  "lat": 59.9180807,
  "lon": 10.7725604
},
{
  "type": "node",
  "id": 5875619444,
  "lat": 59.9179593,
  "lon": 10.7723318
},
{
  "type": "node",
  "id": 5875619445,
  "lat": 59.9180646,
  "lon": 10.7723054
},
{
  "type": "node",
  "id": 357245567,
  "lat": 59.9168429,
  "lon": 10.7741347
},
{
  "type": "node",
  "id": 357245573,
  "lat": 59.9168326,
  "lon": 10.7744613
},
{
  "type": "node",
  "id": 357245576,
  "lat": 59.9167374,
  "lon": 10.7744493
},
{
  "type": "node",
  "id": 357245578,
  "lat": 59.9167410,
  "lon": 10.7743367
},
{
  "type": "node",
  "id": 357245580,
  "lat": 59.9166273,
  "lon": 10.7743224
},
{
  "type": "node",
  "id": 357245584,
  "lat": 59.9165999,
  "lon": 10.7751923
},
{
  "type": "node",
  "id": 357245585,
  "lat": 59.9167090,
  "lon": 10.7752060
},
{
  "type": "node",
  "id": 357245589,
  "lat": 59.9167117,
  "lon": 10.7751195
},
{
  "type": "node",
  "id": 357245591,
  "lat": 59.9168017,
  "lon": 10.7751308
},
{
  "type": "node",
  "id": 357245592,
  "lat": 59.9167988,
  "lon": 10.7752228
},
{
  "type": "node",
  "id": 357245597,
  "lat": 59.9171522,
  "lon": 10.7752672
},
{
  "type": "node",
  "id": 357245599,
  "lat": 59.9173438,
  "lon": 10.7745783
},
{
  "type": "node",
  "id": 1269605457,
  "lat": 59.9173262,
  "lon": 10.7751363
},
{
  "type": "node",
  "id": 1269605614,
  "lat": 59.9171570,
  "lon": 10.7751151
},
{
  "type": "node",
  "id": 1269605789,
  "lat": 59.9171806,
  "lon": 10.7745578
},
{
  "type": "node",
  "id": 3670617970,
  "lat": 59.9168903,
  "lon": 10.7750162
},
{
  "type": "node",
  "id": 3670617971,
  "lat": 59.9169007,
  "lon": 10.7746954
},
{
  "type": "node",
  "id": 3670617972,
  "lat": 59.9170767,
  "lon": 10.7750402
},
{
  "type": "node",
  "id": 3670617973,
  "lat": 59.9170870,
  "lon": 10.7747194
},
{
  "type": "node",
  "id": 5815762291,
  "lat": 59.9173392,
  "lon": 10.7747244
},
{
  "type": "node",
  "id": 2563801518,
  "lat": 59.9519257,
  "lon": 10.7233795
},
{
  "type": "node",
  "id": 2563801519,
  "lat": 59.9519690,
  "lon": 10.7235062
},
{
  "type": "node",
  "id": 2563801520,
  "lat": 59.9519356,
  "lon": 10.7235516
},
{
  "type": "node",
  "id": 2563801522,
  "lat": 59.9518924,
  "lon": 10.7234249
},
{
  "type": "node",
  "id": 681240110,
  "lat": 59.9664408,
  "lon": 10.7826140
},
{
  "type": "node",
  "id": 681240111,
  "lat": 59.9665460,
  "lon": 10.7832764
},
{
  "type": "node",
  "id": 681240113,
  "lat": 59.9666987,
  "lon": 10.7830708
},
{
  "type": "node",
  "id": 681240114,
  "lat": 59.9668026,
  "lon": 10.7834403
},
{
  "type": "node",
  "id": 681240115,
  "lat": 59.9666460,
  "lon": 10.7836524
},
{
  "type": "node",
  "id": 681240116,
  "lat": 59.9668809,
  "lon": 10.7844242
},
{
  "type": "node",
  "id": 681240117,
  "lat": 59.9669707,
  "lon": 10.7843194
},
{
  "type": "node",
  "id": 681240118,
  "lat": 59.9670724,
  "lon": 10.7843717
},
{
  "type": "node",
  "id": 681240119,
  "lat": 59.9674658,
  "lon": 10.7840042
},
{
  "type": "node",
  "id": 681240120,
  "lat": 59.9673495,
  "lon": 10.7836023
},
{
  "type": "node",
  "id": 681240121,
  "lat": 59.9673133,
  "lon": 10.7836479
},
{
  "type": "node",
  "id": 681240122,
  "lat": 59.9669527,
  "lon": 10.7823956
},
{
  "type": "node",
  "id": 681240123,
  "lat": 59.9668818,
  "lon": 10.7824674
},
{
  "type": "node",
  "id": 681240124,
  "lat": 59.9667681,
  "lon": 10.7824037
},
{
  "type": "node",
  "id": 681240126,
  "lat": 59.9666984,
  "lon": 10.7821761
},
{
  "type": "node",
  "id": 681240127,
  "lat": 59.9666467,
  "lon": 10.7822482
},
{
  "type": "node",
  "id": 681240128,
  "lat": 59.9666337,
  "lon": 10.7823913
},
{
  "type": "node",
  "id": 2901483614,
  "lat": 59.9666293,
  "lon": 10.7831821
},
{
  "type": "node",
  "id": 2901483615,
  "lat": 59.9666424,
  "lon": 10.7832282
},
{
  "type": "node",
  "id": 2901483616,
  "lat": 59.9666488,
  "lon": 10.7832359
},
{
  "type": "node",
  "id": 2901483618,
  "lat": 59.9666548,
  "lon": 10.7832397
},
{
  "type": "node",
  "id": 2901483619,
  "lat": 59.9666611,
  "lon": 10.7832385
},
{
  "type": "node",
  "id": 2901483620,
  "lat": 59.9666685,
  "lon": 10.7831064
},
{
  "type": "node",
  "id": 2901483621,
  "lat": 59.9666950,
  "lon": 10.7831996
},
{
  "type": "node",
  "id": 2901483623,
  "lat": 59.9667362,
  "lon": 10.7833151
},
{
  "type": "node",
  "id": 2901483624,
  "lat": 59.9667511,
  "lon": 10.7832564
},
{
  "type": "node",
  "id": 2901483626,
  "lat": 59.9667659,
  "lon": 10.7833175
},
{
  "type": "node",
  "id": 2901483627,
  "lat": 59.9667948,
  "lon": 10.7834818
},
{
  "type": "node",
  "id": 2901483633,
  "lat": 59.9669605,
  "lon": 10.7842863
},
{
  "type": "node",
  "id": 2901483637,
  "lat": 59.9669964,
  "lon": 10.7842420
},
{
  "type": "node",
  "id": 2901483640,
  "lat": 59.9670356,
  "lon": 10.7842536
},
{
  "type": "node",
  "id": 2901483642,
  "lat": 59.9670577,
  "lon": 10.7844324
},
{
  "type": "node",
  "id": 2901483646,
  "lat": 59.9670900,
  "lon": 10.7844370
},
{
  "type": "node",
  "id": 3365479005,
  "lat": 59.9663838,
  "lon": 10.7826762
},
{
  "type": "node",
  "id": 6997520848,
  "lat": 59.9670998,
  "lon": 10.7844627
},
{
  "type": "node",
  "id": 6997520849,
  "lat": 59.9673827,
  "lon": 10.7841588
},
{
  "type": "node",
  "id": 6997520850,
  "lat": 59.9673897,
  "lon": 10.7841684
},
{
  "type": "node",
  "id": 6997520851,
  "lat": 59.9673980,
  "lon": 10.7841730
},
{
  "type": "node",
  "id": 6997520852,
  "lat": 59.9674065,
  "lon": 10.7841721
},
{
  "type": "node",
  "id": 6997520853,
  "lat": 59.9674145,
  "lon": 10.7841659
},
{
  "type": "node",
  "id": 6997520854,
  "lat": 59.9674255,
  "lon": 10.7841402
},
{
  "type": "node",
  "id": 6997520855,
  "lat": 59.9674274,
  "lon": 10.7841236
},
{
  "type": "node",
  "id": 6997520856,
  "lat": 59.9674265,
  "lon": 10.7841065
},
{
  "type": "node",
  "id": 6997520857,
  "lat": 59.9674230,
  "lon": 10.7840910
},
{
  "type": "node",
  "id": 6997520858,
  "lat": 59.9674172,
  "lon": 10.7840784
},
{
  "type": "node",
  "id": 6997520859,
  "lat": 59.9674211,
  "lon": 10.7841548
},
{
  "type": "node",
  "id": 6997520860,
  "lat": 59.9673775,
  "lon": 10.7841451
},
{
  "type": "node",
  "id": 6997520861,
  "lat": 59.9674096,
  "lon": 10.7840703
},
{
  "type": "node",
  "id": 6997520862,
  "lat": 59.9674677,
  "lon": 10.7839830
},
{
  "type": "node",
  "id": 6997520863,
  "lat": 59.9673590,
  "lon": 10.7836088
},
{
  "type": "node",
  "id": 6997520864,
  "lat": 59.9668673,
  "lon": 10.7844190
},
{
  "type": "node",
  "id": 6997520865,
  "lat": 59.9667465,
  "lon": 10.7835390
},
{
  "type": "node",
  "id": 6997520866,
  "lat": 59.9667395,
  "lon": 10.7835142
},
{
  "type": "node",
  "id": 6997520867,
  "lat": 59.9666493,
  "lon": 10.7836206
},
{
  "type": "node",
  "id": 6997520869,
  "lat": 59.9666137,
  "lon": 10.7824144
},
{
  "type": "node",
  "id": 6997520870,
  "lat": 59.9669471,
  "lon": 10.7823954
},
{
  "type": "node",
  "id": 6997520871,
  "lat": 59.9668885,
  "lon": 10.7824628
},
{
  "type": "node",
  "id": 6997520872,
  "lat": 59.9667761,
  "lon": 10.7824112
},
{
  "type": "node",
  "id": 6997520873,
  "lat": 59.9667601,
  "lon": 10.7823860
},
{
  "type": "node",
  "id": 6997520874,
  "lat": 59.9666593,
  "lon": 10.7822174
},
{
  "type": "node",
  "id": 6997520875,
  "lat": 59.9666398,
  "lon": 10.7822921
},
{
  "type": "node",
  "id": 6997520876,
  "lat": 59.9666350,
  "lon": 10.7823344
},
{
  "type": "node",
  "id": 942772260,
  "lat": 59.9419305,
  "lon": 10.8332920
},
{
  "type": "node",
  "id": 942772272,
  "lat": 59.9419163,
  "lon": 10.8342172
},
{
  "type": "node",
  "id": 942772325,
  "lat": 59.9418342,
  "lon": 10.8333192
},
{
  "type": "node",
  "id": 942772421,
  "lat": 59.9419702,
  "lon": 10.8340037
},
{
  "type": "node",
  "id": 1337963595,
  "lat": 59.9418683,
  "lon": 10.8339550
},
{
  "type": "node",
  "id": 1337963603,
  "lat": 59.9418881,
  "lon": 10.8340274
},
{
  "type": "node",
  "id": 1337963607,
  "lat": 59.9418407,
  "lon": 10.8342684
},
{
  "type": "node",
  "id": 1337963612,
  "lat": 59.9417977,
  "lon": 10.8339993
},
{
  "type": "node",
  "id": 1244839458,
  "lat": 59.9588208,
  "lon": 10.8824209
},
{
  "type": "node",
  "id": 1244839504,
  "lat": 59.9589455,
  "lon": 10.8822731
},
{
  "type": "node",
  "id": 1244839696,
  "lat": 59.9589477,
  "lon": 10.8824128
},
{
  "type": "node",
  "id": 1244840233,
  "lat": 59.9588186,
  "lon": 10.8822812
},
{
  "type": "node",
  "id": 2788759300,
  "lat": 59.9542589,
  "lon": 11.0362387
},
{
  "type": "node",
  "id": 2788759175,
  "lat": 59.9540845,
  "lon": 11.0362844
},
{
  "type": "node",
  "id": 2788759227,
  "lat": 59.9542683,
  "lon": 11.0363822
},
{
  "type": "node",
  "id": 2788759267,
  "lat": 59.9540939,
  "lon": 11.0364279
},
{
  "type": "node",
  "id": 5153088661,
  "lat": 60.0274614,
  "lon": 11.1799292
},
{
  "type": "node",
  "id": 5153088662,
  "lat": 60.0273970,
  "lon": 11.1800879
},
{
  "type": "node",
  "id": 5153088663,
  "lat": 60.0272325,
  "lon": 11.1798203
},
{
  "type": "node",
  "id": 5153088664,
  "lat": 60.0272970,
  "lon": 11.1796615
},
{
  "type": "way",
  "id": 39177697,
  "nodes": [
    469305678,
    469305685,
    469305687,
    469305694,
    469305699,
    469305703,
    469305704,
    469305709,
    469305715,
    469305719,
    469305721,
    469305724,
    469305728,
    469305731,
    469305678
  ]
},
{
  "type": "way",
  "id": 39177699,
  "nodes": [
    469305750,
    469305766,
    469305772,
    469305783,
    469305790,
    469305798,
    469305801,
    469305810,
    469305750
  ]
},
{
  "type": "way",
  "id": 30176633,
  "nodes": [
    332514472,
    5293300651,
    5293300653,
    5293300654,
    5293300652,
    332514473,
    332514474,
    5293300648,
    5293300650,
    5293300649,
    5293300647,
    332514475,
    5293300656,
    5293300657,
    5293300658,
    5293300655,
    332514472
  ]
},
{
  "type": "way",
  "id": 238948604,
  "nodes": [
    2467590242,
    2467590240,
    2467590259,
    2467590257,
    2467590242
  ]
},
{
  "type": "way",
  "id": 31898311,
  "nodes": [
    357245546,
    357245552,
    357245554,
    1497065038,
    357245557,
    1497065037,
    1497065036,
    357245560,
    357245563,
    357245565,
    357245567,
    357245573,
    357245576,
    357245578,
    357245580,
    357245584,
    357245585,
    357245589,
    357245591,
    357245592,
    357245597,
    1269605614,
    1269605457,
    5815762291,
    357245599,
    1269605789,
    357245546
  ]
},
{
  "type": "way",
  "id": 362811619,
  "nodes": [
    3670617972,
    3670617970,
    3670617971,
    3670617973,
    3670617972
  ]
}

  ]
}
