{
  "version": 0.6,
  "generator": "Overpass API 0.7.55.9 ab41fea6",
  "osm3s": {
    "timestamp_osm_base": "2020-02-14T08:50:02Z",
    "copyright": "The data included in this document is from www.openstreetmap.org. The data is made available under ODbL."
  },
  "elements": [

{
  "type": "node",
  "id": 90615739,
  "lat": 50.8199494,
  "lon": -0.1420448,
  "tags": {
    "addr:city": "Brighton",
    "addr:housename": "195 - 196 Kings Road Arches",
    "addr:postcode": "BN1 1NB",
    "fee": "no",
    "fhrs:id": "668893",
    "name": "Brighton Fishing Museum",
    "tourism": "museum",
    "wikidata": "Q4967641"
  }
},
{
  "type": "node",
  "id": 254187313,
  "lat": 50.8145390,
  "lon": 0.2437074,
  "tags": {
    "created_by": "Potlatch 0.8",
    "man_made": "windmill",
    "name": "Polegate Windmill",
    "tourism": "museum",
    "url": "http://www.sussexmillsgroup.org.uk/pole1.htm",
    "wikidata": "Q17556337"
  }
},
{
  "type": "node",
  "id": 394860243,
  "lat": 51.1110328,
  "lon": -0.1996370,
  "tags": {
    "name": "Crawley Museum",
    "tourism": "museum"
  }
},
{
  "type": "node",
  "id": 500321374,
  "lat": 51.0758170,
  "lon": -0.0565439,
  "tags": {
    "name": "The Priest's House",
    "tourism": "museum"
  }
},
{
  "type": "node",
  "id": 559471342,
  "lat": 50.8370975,
  "lon": -0.1530173,
  "tags": {
    "name": "Booth Museum of Natural History",
    "operator": "Brighton and Hove Council",
    "tourism": "museum",
    "website": "http://www.brighton-hove-rpml.org.uk/Museums/boothmuseum/Pages/home.aspx",
    "wikidata": "Q11854506"
  }
},
{
  "type": "node",
  "id": 743300794,
  "lat": 50.9160347,
  "lon": -0.4571933,
  "tags": {
    "ele": "51.315674",
    "name": "Storrington and District Museum",
    "tourism": "museum"
  }
},
{
  "type": "node",
  "id": 1240514333,
  "lat": 50.8320596,
  "lon": -0.2762161,
  "tags": {
    "name": "Marlipins Museum",
    "tourism": "museum",
    "wikidata": "Q6771882"
  }
},
{
  "type": "node",
  "id": 1526933054,
  "lat": 50.8192305,
  "lon": -0.1383568,
  "tags": {
    "description": "Closed as of March 2014 due to 2014-02-14 storm damage. UK's oldest established vintage penny arcade.",
    "name": "Mechanical Memories",
    "status": "closed",
    "tourism": "museum",
    "website": "www.mechanicalmemoriesmuseum.co.uk"
  }
},
{
  "type": "node",
  "id": 1625801258,
  "lat": 50.8028811,
  "lon": 0.0530192,
  "tags": {
    "designation": "Museum",
    "name": "Newhaven Local & Maritime Museum",
    "source": "http://www.newhavenmuseum.co.uk/",
    "tourism": "museum"
  }
},
{
  "type": "node",
  "id": 1883518293,
  "lat": 50.8990982,
  "lon": 0.1978525,
  "tags": {
    "addr:city": "Golden Cross",
    "addr:postcode": "BN8 6HN",
    "addr:street": "Muddles Green",
    "fhrs:id": "974206",
    "name": "Farleys Barn Gallery",
    "opening_hours": "Su 10:00-15:30",
    "phone": "+44 1825872856",
    "source": "http://www.farleyfarmhouse.co.uk",
    "tourism": "museum",
    "website": "https://farleyshouseandgallery.co.uk/",
    "wheelchair": "yes",
    "wikidata": "Q5435428",
    "wikipedia": "en:Farley Farm House"
  }
},
{
  "type": "node",
  "id": 2294146843,
  "lat": 50.8330607,
  "lon": -0.2909664,
  "tags": {
    "tourism": "museum"
  }
},
{
  "type": "node",
  "id": 5141915046,
  "lat": 50.9238208,
  "lon": 0.1117040,
  "tags": {
    "name": "Bentley Wildfowl and Motor Museum",
    "tourism": "museum",
    "website": "https://www.bentley.org.uk",
    "wikidata": "Q4890505",
    "wikipedia": "en:Bentley Wildfowl and Motor Museum"
  }
},
{
  "type": "node",
  "id": 6515038612,
  "lat": 50.9956176,
  "lon": -0.0013985,
  "tags": {
    "tourism": "museum"
  }
},
{
  "type": "node",
  "id": 6515038632,
  "lat": 50.9949675,
  "lon": -0.0005104,
  "tags": {
    "name": "SteamWorks",
    "operator": "Bluebell Railway",
    "tourism": "museum",
    "wheelchair": "yes"
  }
},
{
  "type": "node",
  "id": 6682007250,
  "lat": 51.1003616,
  "lon": 0.1084357,
  "tags": {
    "name": "Pooh Museum",
    "tourism": "museum"
  }
},
{
  "type": "way",
  "id": 90975001,
  "nodes": [
    1056341266,
    1056341248,
    1056341257,
    1056341261,
    1056341238,
    1056341255,
    1056341246,
    1056341243,
    1056341266
  ],
  "tags": {
    "building": "yes",
    "name": "Worthing Museum and Art Gallery",
    "tourism": "museum",
    "wikidata": "Q8037224"
  }
},
{
  "type": "way",
  "id": 104520966,
  "nodes": [
    1205887709,
    1205887719,
    1205887740,
    1205887701,
    1205887725,
    1205887747,
    1205887714,
    1205887736,
    1205887699,
    1205887711,
    1205887733,
    1205887759,
    1205887723,
    1205887743,
    1205887706,
    1205887730,
    1205887750,
    1205887726,
    1205887731,
    1205887709
  ],
  "tags": {
    "building": "public",
    "name": "Brighton Museum & Art Gallery",
    "tourism": "museum",
    "website": "http://www.brighton-hove-rpml.org.uk/Museums/brightonmuseum/",
    "wheelchair": "yes",
    "wikidata": "Q2790574"
  }
},
{
  "type": "way",
  "id": 111607316,
  "nodes": [
    1252528751,
    1271134577,
    1271134527,
    6295534321,
    6295534310,
    6295616756,
    6295616753,
    1252528751
  ],
  "tags": {
    "addr:city": "Hove",
    "addr:postcode": "BN3 7QA",
    "addr:street": "The Droveway",
    "historic": "heritage",
    "name": "British Engineerium",
    "tourism": "museum",
    "website": "http://www.britishengineerium.org/",
    "wikidata": "Q4969933"
  }
},
{
  "type": "way",
  "id": 113556773,
  "nodes": [
    1287604208,
    4867715260,
    4867715261,
    1287604225,
    1287604215,
    4867704813,
    4867704814,
    1287604232,
    1287604234,
    4867709136,
    4867709138,
    1287604230,
    1287604217,
    1287604222,
    1287604213,
    1287604235,
    1287604209,
    1287604216,
    1287604212,
    1287604223,
    1287604208
  ],
  "tags": {
    "building": "yes",
    "historic": "house",
    "name": "Standen",
    "operator": "National Trust",
    "toilets:wheelchair": "no",
    "tourism": "museum",
    "wheelchair": "limited",
    "wikidata": "Q7598447"
  }
},
{
  "type": "way",
  "id": 178446649,
  "nodes": [
    1887967387,
    1887967416,
    1887967451,
    1887967468,
    1887967472,
    1887967485,
    1887967500,
    1887967504,
    1887967519,
    1887967518,
    3527041499,
    1887967517,
    3527041498,
    1887967516,
    1887967514,
    1887967512,
    1887967511,
    1887967510,
    1887967509,
    3527029371,
    3527029372,
    1887967508,
    6952363811,
    1887967507,
    1887967493,
    1887967486,
    3527029384,
    1887967456,
    1887967430,
    1887967410,
    1887967395,
    1887967386,
    1887967375,
    1887967362,
    1887967361,
    1887967336,
    1887967330,
    1887967319,
    1887967310,
    1887967298,
    1887967272,
    1887967258,
    1887967248,
    3528907431,
    1887967236,
    1887967212,
    3528907425,
    1887967206,
    1887967198,
    1887967182,
    1887967178,
    1887967184,
    1887967180,
    1887967179,
    1887967183,
    1887967194,
    1887967216,
    1887967247,
    486221882,
    486221898,
    1887967268,
    1887967274,
    1887967276,
    1887967280,
    1887967282,
    3527029349,
    1887967299,
    1887967315,
    1887967328,
    1887967334,
    3527041373,
    3527041383,
    1887967337,
    3527041374,
    3527041375,
    3527041384,
    1887967351,
    3527041376,
    3527041382,
    3527041381,
    3527041377,
    3527041378,
    3527041379,
    1887967377,
    1887967387
  ],
  "tags": {
    "addr:city": "Amberley, Arundel, West Sussex",
    "addr:postcode": "BN18 9LT",
    "addr:street": "Station Road",
    "alt_name": "Amberley Museum;Amberley Chalk Pits Museum",
    "name": "Amberley Museum and Heritage Centre",
    "note": "All of the buildings in this area are part of the Amberley Museum & Heritage Centre",
    "phone": "+44 1798 831370",
    "source:addr": "FHRS Open Data",
    "tourism": "museum",
    "wikidata": "Q4741361",
    "wikipedia": "en:Amberley Museum & Heritage Centre"
  }
},
{
  "type": "way",
  "id": 178538465,
  "nodes": [
    5056099983,
    1340943263,
    26358890,
    20954950,
    1726561200,
    1726561187,
    1726561184,
    1726561166,
    1726561176,
    1726561157,
    1726561144,
    1726561128,
    1726561126,
    1726561124,
    20954789,
    1679705990,
    5056099965,
    5056099983
  ],
  "tags": {
    "addr:city": "Brighton",
    "addr:postcode": "BN1 6SD",
    "addr:street": "Preston Drove",
    "name": "Preston Manor",
    "phone": "+44 3000 290900",
    "toilets:wheelchair": "no",
    "tourism": "museum",
    "wheelchair": "yes",
    "wheelchair:description": "Single dedicated Blue Badge space near accessible entrance. Phone ahead to book visit as the is no entryphone/call button at step free entrance. Preston Manor partly accessible."
  }
},
{
  "type": "way",
  "id": 223114776,
  "nodes": [
    2320506722,
    2704150717,
    1111884878,
    2320506725,
    2719410067,
    2320506722
  ],
  "tags": {
    "building": "yes",
    "name": "East Grinstead Museum",
    "opening_hours": "We-Sa 10:00-16:00, Su 01:00-16:00",
    "tourism": "museum",
    "wikidata": "Q54817992"
  }
},
{
  "type": "way",
  "id": 230516747,
  "nodes": [
    2390147876,
    2390147871,
    2390147869,
    2390147870,
    2390147876
  ],
  "tags": {
    "building": "yes",
    "name": "Steyning Museum",
    "tourism": "museum"
  }
},
{
  "type": "way",
  "id": 231141503,
  "nodes": [
    2395484600,
    2395484448,
    2395484484,
    2395484601,
    2395484600
  ],
  "tags": {
    "building": "yes",
    "name": "Wings Museum",
    "tourism": "museum",
    "website": "http://wingsmuseum.co.uk",
    "wikidata": "Q28131461"
  }
},
{
  "type": "way",
  "id": 232461283,
  "nodes": [
    2408120550,
    2408120540,
    5342848305,
    5342848306,
    2408120550
  ],
  "tags": {
    "addr:city": "Brighton",
    "addr:housenumber": "52-55",
    "addr:postcode": "BN1 4EB",
    "addr:street": "Trafalgar Street",
    "building": "yes",
    "description": "Victorian cellars beneath Brighton Station forecourt and Brighton Station, accessible at street level from Trafalgar Street.",
    "layer": "-1",
    "location": "underground",
    "name": "Brighton Toy and Model Museum",
    "phone": "+44 1273 749494â€Ž",
    "tourism": "museum",
    "website": "https://www.brightontoymuseum.co.uk/",
    "wheelchair": "yes",
    "wikidata": "Q4967734",
    "wikimedia_commons": "Category:Brighton_Toy_and_Model_Museum",
    "wikipedia": "en:Brighton Toy and Model Museum"
  }
},
{
  "type": "way",
  "id": 234465727,
  "nodes": [
    2427150746,
    2427150745,
    2427288942,
    2427288933,
    52166922,
    2427288931,
    2427288930,
    52163099,
    2427150744,
    2427150746
  ],
  "tags": {
    "historic": "archaeological_site",
    "name": "Bignor Roman Villa",
    "tourism": "museum",
    "website": "https://www.bignorromanvilla.co.uk/",
    "wikidata": "Q1339031",
    "wikipedia": "en:Bignor Roman Villa"
  }
},
{
  "type": "way",
  "id": 237087421,
  "nodes": [
    2450379978,
    2450379980,
    2450379961,
    2450379982,
    2450379981,
    2450379976,
    2450379968,
    2450379963,
    2450379984,
    2450379983,
    2450379977,
    2450379970,
    2450379965,
    2450379971,
    2450379975,
    2450379974,
    2450379967,
    2450379972,
    2450379979,
    2450379978
  ],
  "tags": {
    "building": "yes",
    "name": "Hove Museum",
    "tourism": "museum"
  }
},
{
  "type": "way",
  "id": 256736179,
  "nodes": [
    2623688088,
    4351739569,
    2623688087,
    2623688090,
    2623688089,
    2623688088
  ],
  "tags": {
    "building": "yes",
    "contact:website": "http://www.arundelmuseum.org",
    "fixme": "approx location of new(ish) museum), Improved mapping needed.",
    "name": "Arundel Museum & Heritage Centre",
    "operator": "Arundel Museum Society",
    "source": "survey",
    "tourism": "museum"
  }
},
{
  "type": "way",
  "id": 304683750,
  "nodes": [
    3092601832,
    3092601846,
    3092601847,
    3092601848,
    3092601849,
    3092601850,
    3092601851,
    3092601852,
    3092601853,
    3092601854,
    3092601855,
    3092601856,
    3092601857,
    3092601858,
    3092601832
  ],
  "tags": {
    "addr:city": "Horsham",
    "addr:housenumber": "9",
    "addr:postcode": "RH12 1HE",
    "addr:street": "Causeway",
    "building": "yes",
    "fhrs:id": "866587",
    "name": "Horsham Museum",
    "tourism": "museum",
    "wikidata": "Q17532562"
  }
},
{
  "type": "way",
  "id": 341608491,
  "nodes": [
    3487508704,
    3487508705,
    3487508706,
    3487508707,
    3487508708,
    3487508709,
    3487508710,
    3487508719,
    3487508711,
    3487508704
  ],
  "tags": {
    "building": "yes",
    "name": "Anne of Cleves' House",
    "tourism": "museum",
    "wikidata": "Q4768922",
    "wikipedia": "en:Anne of Cleves House"
  }
},
{
  "type": "way",
  "id": 343658189,
  "nodes": [
    3504650996,
    3504650997,
    3504650998,
    3504650999,
    3504651000,
    3504651001,
    3504651002,
    1262668253,
    3504650996
  ],
  "tags": {
    "name": "Newhaven Fort",
    "operator": "Wave Leisure",
    "tourism": "museum"
  }
},
{
  "type": "way",
  "id": 445500399,
  "nodes": [
    4429197708,
    4429197709,
    4429197710,
    4429197711,
    4429197712,
    4429197713,
    4429197714,
    4429197715,
    4429197716,
    4429197708
  ],
  "tags": {
    "addr:housenumber": "169",
    "addr:street": "High Street",
    "building": "yes",
    "name": "Lewes Castle & Barbican House Museum",
    "tourism": "museum",
    "wheelchair": "no"
  }
},
{
  "type": "way",
  "id": 446188623,
  "nodes": [
    4435117548,
    4435117549,
    4435117550,
    4435117551,
    4435117548
  ],
  "tags": {
    "building": "yes",
    "name": "Newhaven Fort Museum",
    "tourism": "museum"
  }
},
{
  "type": "way",
  "id": 519390275,
  "nodes": [
    5064712934,
    5064712935,
    5064712936,
    5064712937,
    5064712938,
    5064712939,
    5064712940,
    5064712941,
    5064712942,
    5064712943,
    5064712944,
    5064712945,
    5064712946,
    5064712947,
    5064712948,
    5064712949,
    5064712934
  ],
  "tags": {
    "addr:city": "Littlehampton",
    "addr:housename": "Manor House",
    "addr:postcode": "BN17 5EW",
    "addr:street": "Church Street",
    "building": "yes",
    "name": "Littlehampton Museum",
    "opening_hours": "Mo-Fr 09:00-16:30,Sa 10:30-16:30",
    "operator": "Littlehampton Town Council",
    "tourism": "museum",
    "wikidata": "Q26278781"
  }
},
{
  "type": "way",
  "id": 671692452,
  "nodes": [
    6289932743,
    6289932746,
    6289932742,
    6289932744,
    6289932743
  ],
  "tags": {
    "amenity": "camera_obscura",
    "building": "water_tower",
    "historic": "yes",
    "man_made": "water_tower",
    "name": "Foredown Tower",
    "tourism": "museum",
    "wikidata": "Q5468179",
    "wikipedia": "en:Foredown Tower"
  }
},
{
  "type": "way",
  "id": 678426864,
  "nodes": [
    6352416550,
    6352416534,
    6352416538,
    6352416542,
    6352416546,
    6352416551,
    6352416550
  ],
  "tags": {
    "addr:housenumber": "103",
    "addr:street": "High Street",
    "building": "yes",
    "name": "Crawley Museum",
    "tourism": "museum",
    "website": "www.crawleymuseums.org",
    "wheelchair": "yes"
  }
},
{
  "type": "way",
  "id": 713422502,
  "nodes": [
    1618859954,
    2587256737,
    1618859963,
    1618859990,
    1618859972,
    1618859991,
    1618860001,
    1618859962,
    6707837235,
    6707837240,
    6707837211,
    6707837241,
    6707837210,
    6707837209,
    6707837242,
    6707837208,
    6707837243,
    6707837200,
    6707837244,
    6707837207,
    6707837206,
    6707837245,
    6707837205,
    6707837204,
    6707837246,
    6707837203,
    6707837202,
    6707837247,
    1618859973,
    1618859954
  ],
  "tags": {
    "contact:website": "http://www.seafordmuseum.co.uk/",
    "name": "Seaford Museum",
    "tourism": "museum"
  }
},
{
  "type": "node",
  "id": 5064712934,
  "lat": 50.8094523,
  "lon": -0.5392949
},
{
  "type": "node",
  "id": 5064712935,
  "lat": 50.8093802,
  "lon": -0.5393207
},
{
  "type": "node",
  "id": 5064712936,
  "lat": 50.8093784,
  "lon": -0.5393082
},
{
  "type": "node",
  "id": 5064712937,
  "lat": 50.8093179,
  "lon": -0.5393297
},
{
  "type": "node",
  "id": 5064712938,
  "lat": 50.8093131,
  "lon": -0.5392959
},
{
  "type": "node",
  "id": 5064712939,
  "lat": 50.8092704,
  "lon": -0.5393110
},
{
  "type": "node",
  "id": 5064712940,
  "lat": 50.8092457,
  "lon": -0.5391359
},
{
  "type": "node",
  "id": 5064712941,
  "lat": 50.8091356,
  "lon": -0.5391748
},
{
  "type": "node",
  "id": 5064712942,
  "lat": 50.8091655,
  "lon": -0.5393876
},
{
  "type": "node",
  "id": 5064712943,
  "lat": 50.8091917,
  "lon": -0.5393784
},
{
  "type": "node",
  "id": 5064712944,
  "lat": 50.8092145,
  "lon": -0.5395407
},
{
  "type": "node",
  "id": 5064712945,
  "lat": 50.8093443,
  "lon": -0.5394950
},
{
  "type": "node",
  "id": 5064712946,
  "lat": 50.8093422,
  "lon": -0.5394802
},
{
  "type": "node",
  "id": 5064712947,
  "lat": 50.8094002,
  "lon": -0.5394598
},
{
  "type": "node",
  "id": 5064712948,
  "lat": 50.8093949,
  "lon": -0.5394439
},
{
  "type": "node",
  "id": 5064712949,
  "lat": 50.8094698,
  "lon": -0.5394171
},
{
  "type": "node",
  "id": 2623688087,
  "lat": 50.8542847,
  "lon": -0.5520451
},
{
  "type": "node",
  "id": 2623688088,
  "lat": 50.8541940,
  "lon": -0.5521410
},
{
  "type": "node",
  "id": 2623688089,
  "lat": 50.8540351,
  "lon": -0.5517633
},
{
  "type": "node",
  "id": 2623688090,
  "lat": 50.8541259,
  "lon": -0.5516675
},
{
  "type": "node",
  "id": 4351739569,
  "lat": 50.8542144,
  "lon": -0.5521194
},
{
  "type": "node",
  "id": 52163099,
  "lat": 50.9226471,
  "lon": -0.5964328
},
{
  "type": "node",
  "id": 2427150744,
  "lat": 50.9230924,
  "lon": -0.5964071
},
{
  "type": "node",
  "id": 52166922,
  "lat": 50.9227033,
  "lon": -0.5951913
},
{
  "type": "node",
  "id": 2427150745,
  "lat": 50.9236731,
  "lon": -0.5948727
},
{
  "type": "node",
  "id": 2427150746,
  "lat": 50.9238274,
  "lon": -0.5961797
},
{
  "type": "node",
  "id": 2427288930,
  "lat": 50.9226985,
  "lon": -0.5952972
},
{
  "type": "node",
  "id": 2427288931,
  "lat": 50.9227009,
  "lon": -0.5952394
},
{
  "type": "node",
  "id": 2427288933,
  "lat": 50.9230060,
  "lon": -0.5950918
},
{
  "type": "node",
  "id": 2427288942,
  "lat": 50.9233896,
  "lon": -0.5949658
},
{
  "type": "node",
  "id": 486221882,
  "lat": 50.8977386,
  "lon": -0.5399018
},
{
  "type": "node",
  "id": 486221898,
  "lat": 50.8977772,
  "lon": -0.5399374
},
{
  "type": "node",
  "id": 1887967178,
  "lat": 50.8958596,
  "lon": -0.5382877
},
{
  "type": "node",
  "id": 1887967179,
  "lat": 50.8959040,
  "lon": -0.5392087
},
{
  "type": "node",
  "id": 1887967180,
  "lat": 50.8959528,
  "lon": -0.5388150
},
{
  "type": "node",
  "id": 1887967182,
  "lat": 50.8959705,
  "lon": -0.5381752
},
{
  "type": "node",
  "id": 1887967183,
  "lat": 50.8959838,
  "lon": -0.5394548
},
{
  "type": "node",
  "id": 1887967184,
  "lat": 50.8959927,
  "lon": -0.5384002
},
{
  "type": "node",
  "id": 1887967194,
  "lat": 50.8962942,
  "lon": -0.5396095
},
{
  "type": "node",
  "id": 1887967198,
  "lat": 50.8963563,
  "lon": -0.5381822
},
{
  "type": "node",
  "id": 1887967206,
  "lat": 50.8966654,
  "lon": -0.5382036
},
{
  "type": "node",
  "id": 1887967212,
  "lat": 50.8970569,
  "lon": -0.5380838
},
{
  "type": "node",
  "id": 1887967216,
  "lat": 50.8970392,
  "lon": -0.5399259
},
{
  "type": "node",
  "id": 1887967236,
  "lat": 50.8974294,
  "lon": -0.5380416
},
{
  "type": "node",
  "id": 1887967247,
  "lat": 50.8977083,
  "lon": -0.5398738
},
{
  "type": "node",
  "id": 1887967248,
  "lat": 50.8977362,
  "lon": -0.5381154
},
{
  "type": "node",
  "id": 1887967258,
  "lat": 50.8978161,
  "lon": -0.5381374
},
{
  "type": "node",
  "id": 1887967268,
  "lat": 50.8979483,
  "lon": -0.5396657
},
{
  "type": "node",
  "id": 1887967272,
  "lat": 50.8979970,
  "lon": -0.5383158
},
{
  "type": "node",
  "id": 1887967274,
  "lat": 50.8980161,
  "lon": -0.5396390
},
{
  "type": "node",
  "id": 1887967276,
  "lat": 50.8980704,
  "lon": -0.5396177
},
{
  "type": "node",
  "id": 1887967280,
  "lat": 50.8981101,
  "lon": -0.5396021
},
{
  "type": "node",
  "id": 1887967282,
  "lat": 50.8981263,
  "lon": -0.5396056
},
{
  "type": "node",
  "id": 1887967298,
  "lat": 50.8982941,
  "lon": -0.5382174
},
{
  "type": "node",
  "id": 1887967299,
  "lat": 50.8983322,
  "lon": -0.5396128
},
{
  "type": "node",
  "id": 1887967310,
  "lat": 50.8983974,
  "lon": -0.5381533
},
{
  "type": "node",
  "id": 1887967315,
  "lat": 50.8984808,
  "lon": -0.5396359
},
{
  "type": "node",
  "id": 1887967319,
  "lat": 50.8985058,
  "lon": -0.5379124
},
{
  "type": "node",
  "id": 3527029349,
  "lat": 50.8982583,
  "lon": -0.5396097
},
{
  "type": "node",
  "id": 3528907425,
  "lat": 50.8968184,
  "lon": -0.5381595
},
{
  "type": "node",
  "id": 3528907431,
  "lat": 50.8976423,
  "lon": -0.5380878
},
{
  "type": "node",
  "id": 1887967328,
  "lat": 50.8986134,
  "lon": -0.5396667
},
{
  "type": "node",
  "id": 1887967330,
  "lat": 50.8986184,
  "lon": -0.5378799
},
{
  "type": "node",
  "id": 1887967334,
  "lat": 50.8987145,
  "lon": -0.5395722
},
{
  "type": "node",
  "id": 1887967336,
  "lat": 50.8987475,
  "lon": -0.5378553
},
{
  "type": "node",
  "id": 1887967337,
  "lat": 50.8988032,
  "lon": -0.5389816
},
{
  "type": "node",
  "id": 1887967351,
  "lat": 50.8991003,
  "lon": -0.5388621
},
{
  "type": "node",
  "id": 1887967377,
  "lat": 50.8997256,
  "lon": -0.5386301
},
{
  "type": "node",
  "id": 1887967387,
  "lat": 50.8998536,
  "lon": -0.5383924
},
{
  "type": "node",
  "id": 1887967416,
  "lat": 50.9001912,
  "lon": -0.5375785
},
{
  "type": "node",
  "id": 3527041373,
  "lat": 50.8987660,
  "lon": -0.5392292
},
{
  "type": "node",
  "id": 3527041374,
  "lat": 50.8988174,
  "lon": -0.5389536
},
{
  "type": "node",
  "id": 3527041375,
  "lat": 50.8988363,
  "lon": -0.5389353
},
{
  "type": "node",
  "id": 3527041376,
  "lat": 50.8994324,
  "lon": -0.5387941
},
{
  "type": "node",
  "id": 3527041377,
  "lat": 50.8995661,
  "lon": -0.5387407
},
{
  "type": "node",
  "id": 3527041378,
  "lat": 50.8996556,
  "lon": -0.5386682
},
{
  "type": "node",
  "id": 3527041379,
  "lat": 50.8996947,
  "lon": -0.5386407
},
{
  "type": "node",
  "id": 3527041381,
  "lat": 50.8995282,
  "lon": -0.5387646
},
{
  "type": "node",
  "id": 3527041382,
  "lat": 50.8994892,
  "lon": -0.5387807
},
{
  "type": "node",
  "id": 3527041383,
  "lat": 50.8987972,
  "lon": -0.5390179
},
{
  "type": "node",
  "id": 3527041384,
  "lat": 50.8988739,
  "lon": -0.5389192
},
{
  "type": "node",
  "id": 1887967361,
  "lat": 50.8992032,
  "lon": -0.5366811
},
{
  "type": "node",
  "id": 1887967362,
  "lat": 50.8993051,
  "lon": -0.5363511
},
{
  "type": "node",
  "id": 1887967375,
  "lat": 50.8997024,
  "lon": -0.5354770
},
{
  "type": "node",
  "id": 1887967386,
  "lat": 50.8998429,
  "lon": -0.5351654
},
{
  "type": "node",
  "id": 1887967395,
  "lat": 50.8999437,
  "lon": -0.5347371
},
{
  "type": "node",
  "id": 1887967410,
  "lat": 50.9001432,
  "lon": -0.5343364
},
{
  "type": "node",
  "id": 1887967430,
  "lat": 50.9004580,
  "lon": -0.5338723
},
{
  "type": "node",
  "id": 1887967451,
  "lat": 50.9007686,
  "lon": -0.5371337
},
{
  "type": "node",
  "id": 1887967456,
  "lat": 50.9008039,
  "lon": -0.5335419
},
{
  "type": "node",
  "id": 1887967468,
  "lat": 50.9009724,
  "lon": -0.5364687
},
{
  "type": "node",
  "id": 1887967472,
  "lat": 50.9010271,
  "lon": -0.5362903
},
{
  "type": "node",
  "id": 1887967485,
  "lat": 50.9011587,
  "lon": -0.5359135
},
{
  "type": "node",
  "id": 1887967486,
  "lat": 50.9011697,
  "lon": -0.5331868
},
{
  "type": "node",
  "id": 1887967493,
  "lat": 50.9013914,
  "lon": -0.5331446
},
{
  "type": "node",
  "id": 1887967500,
  "lat": 50.9014211,
  "lon": -0.5351620
},
{
  "type": "node",
  "id": 1887967504,
  "lat": 50.9014840,
  "lon": -0.5349820
},
{
  "type": "node",
  "id": 1887967507,
  "lat": 50.9015089,
  "lon": -0.5333872
},
{
  "type": "node",
  "id": 1887967508,
  "lat": 50.9017351,
  "lon": -0.5333099
},
{
  "type": "node",
  "id": 1887967509,
  "lat": 50.9019080,
  "lon": -0.5330638
},
{
  "type": "node",
  "id": 1887967510,
  "lat": 50.9019523,
  "lon": -0.5327685
},
{
  "type": "node",
  "id": 1887967511,
  "lat": 50.9019967,
  "lon": -0.5325857
},
{
  "type": "node",
  "id": 1887967512,
  "lat": 50.9020435,
  "lon": -0.5324845
},
{
  "type": "node",
  "id": 1887967514,
  "lat": 50.9022317,
  "lon": -0.5324099
},
{
  "type": "node",
  "id": 1887967516,
  "lat": 50.9023672,
  "lon": -0.5323580
},
{
  "type": "node",
  "id": 1887967517,
  "lat": 50.9024851,
  "lon": -0.5323773
},
{
  "type": "node",
  "id": 1887967518,
  "lat": 50.9026244,
  "lon": -0.5325724
},
{
  "type": "node",
  "id": 1887967519,
  "lat": 50.9026928,
  "lon": -0.5327193
},
{
  "type": "node",
  "id": 3527029371,
  "lat": 50.9018763,
  "lon": -0.5331089
},
{
  "type": "node",
  "id": 3527029372,
  "lat": 50.9018236,
  "lon": -0.5331839
},
{
  "type": "node",
  "id": 3527029384,
  "lat": 50.9010569,
  "lon": -0.5332963
},
{
  "type": "node",
  "id": 3527041498,
  "lat": 50.9024347,
  "lon": -0.5323573
},
{
  "type": "node",
  "id": 3527041499,
  "lat": 50.9025381,
  "lon": -0.5324332
},
{
  "type": "node",
  "id": 6952363811,
  "lat": 50.9017127,
  "lon": -0.5333176
},
{
  "type": "node",
  "id": 1056341238,
  "lat": 50.8140993,
  "lon": -0.3713815
},
{
  "type": "node",
  "id": 1056341243,
  "lat": 50.8141874,
  "lon": -0.3719949
},
{
  "type": "node",
  "id": 1056341246,
  "lat": 50.8142018,
  "lon": -0.3717945
},
{
  "type": "node",
  "id": 1056341248,
  "lat": 50.8144457,
  "lon": -0.3715040
},
{
  "type": "node",
  "id": 1056341255,
  "lat": 50.8140573,
  "lon": -0.3717418
},
{
  "type": "node",
  "id": 1056341257,
  "lat": 50.8142957,
  "lon": -0.3714409
},
{
  "type": "node",
  "id": 1056341261,
  "lat": 50.8142553,
  "lon": -0.3714325
},
{
  "type": "node",
  "id": 1056341266,
  "lat": 50.8143669,
  "lon": -0.3720336
},
{
  "type": "node",
  "id": 6289932742,
  "lat": 50.8503328,
  "lon": -0.2158796
},
{
  "type": "node",
  "id": 6289932743,
  "lat": 50.8504307,
  "lon": -0.2158127
},
{
  "type": "node",
  "id": 6289932744,
  "lat": 50.8504053,
  "lon": -0.2159218
},
{
  "type": "node",
  "id": 6289932746,
  "lat": 50.8503581,
  "lon": -0.2157705
},
{
  "type": "node",
  "id": 2390147869,
  "lat": 50.8892594,
  "lon": -0.3261081
},
{
  "type": "node",
  "id": 2390147870,
  "lat": 50.8892949,
  "lon": -0.3263119
},
{
  "type": "node",
  "id": 2390147871,
  "lat": 50.8894066,
  "lon": -0.3260437
},
{
  "type": "node",
  "id": 2390147876,
  "lat": 50.8894389,
  "lon": -0.3262395
},
{
  "type": "node",
  "id": 2450379961,
  "lat": 50.8297684,
  "lon": -0.1812573
},
{
  "type": "node",
  "id": 2450379963,
  "lat": 50.8297434,
  "lon": -0.1809922
},
{
  "type": "node",
  "id": 2450379965,
  "lat": 50.8296306,
  "lon": -0.1809925
},
{
  "type": "node",
  "id": 2450379967,
  "lat": 50.8295788,
  "lon": -0.1810183
},
{
  "type": "node",
  "id": 2450379968,
  "lat": 50.8297537,
  "lon": -0.1810506
},
{
  "type": "node",
  "id": 2450379970,
  "lat": 50.8296443,
  "lon": -0.1809864
},
{
  "type": "node",
  "id": 2450379971,
  "lat": 50.8296254,
  "lon": -0.1809634
},
{
  "type": "node",
  "id": 2450379972,
  "lat": 50.8296082,
  "lon": -0.1811836
},
{
  "type": "node",
  "id": 2450379974,
  "lat": 50.8295954,
  "lon": -0.1810109
},
{
  "type": "node",
  "id": 2450379975,
  "lat": 50.8295898,
  "lon": -0.1809793
},
{
  "type": "node",
  "id": 2450379976,
  "lat": 50.8298187,
  "lon": -0.1810217
},
{
  "type": "node",
  "id": 2450379977,
  "lat": 50.8296480,
  "lon": -0.1810070
},
{
  "type": "node",
  "id": 2450379978,
  "lat": 50.8297557,
  "lon": -0.1813299
},
{
  "type": "node",
  "id": 2450379979,
  "lat": 50.8296431,
  "lon": -0.1813801
},
{
  "type": "node",
  "id": 2450379980,
  "lat": 50.8297447,
  "lon": -0.1812679
},
{
  "type": "node",
  "id": 2450379981,
  "lat": 50.8298386,
  "lon": -0.1811336
},
{
  "type": "node",
  "id": 2450379982,
  "lat": 50.8297532,
  "lon": -0.1811716
},
{
  "type": "node",
  "id": 2450379983,
  "lat": 50.8297083,
  "lon": -0.1809802
},
{
  "type": "node",
  "id": 2450379984,
  "lat": 50.8297128,
  "lon": -0.1810058
},
{
  "type": "node",
  "id": 1252528751,
  "lat": 50.8447756,
  "lon": -0.1762481
},
{
  "type": "node",
  "id": 1271134527,
  "lat": 50.8437264,
  "lon": -0.1752021
},
{
  "type": "node",
  "id": 1271134577,
  "lat": 50.8443314,
  "lon": -0.1766554
},
{
  "type": "node",
  "id": 6295534310,
  "lat": 50.8445948,
  "lon": -0.1747409
},
{
  "type": "node",
  "id": 6295534321,
  "lat": 50.8444895,
  "lon": -0.1744559
},
{
  "type": "node",
  "id": 6295616753,
  "lat": 50.8446848,
  "lon": -0.1759793
},
{
  "type": "node",
  "id": 6295616756,
  "lat": 50.8449442,
  "lon": -0.1756868
},
{
  "type": "node",
  "id": 1205887699,
  "lat": 50.8232794,
  "lon": -0.1379712
},
{
  "type": "node",
  "id": 1205887706,
  "lat": 50.8233660,
  "lon": -0.1382320
},
{
  "type": "node",
  "id": 1205887709,
  "lat": 50.8237665,
  "lon": -0.1380800
},
{
  "type": "node",
  "id": 1205887711,
  "lat": 50.8232581,
  "lon": -0.1378969
},
{
  "type": "node",
  "id": 1205887714,
  "lat": 50.8234926,
  "lon": -0.1377295
},
{
  "type": "node",
  "id": 1205887723,
  "lat": 50.8231945,
  "lon": -0.1380036
},
{
  "type": "node",
  "id": 1205887726,
  "lat": 50.8236544,
  "lon": -0.1380922
},
{
  "type": "node",
  "id": 1205887730,
  "lat": 50.8234327,
  "lon": -0.1382175
},
{
  "type": "node",
  "id": 1205887731,
  "lat": 50.8236701,
  "lon": -0.1381437
},
{
  "type": "node",
  "id": 1205887733,
  "lat": 50.8231871,
  "lon": -0.1379365
},
{
  "type": "node",
  "id": 1205887736,
  "lat": 50.8235177,
  "lon": -0.1378211
},
{
  "type": "node",
  "id": 1205887740,
  "lat": 50.8236155,
  "lon": -0.1376523
},
{
  "type": "node",
  "id": 1205887743,
  "lat": 50.8232742,
  "lon": -0.1382910
},
{
  "type": "node",
  "id": 1205887747,
  "lat": 50.8235266,
  "lon": -0.1377114
},
{
  "type": "node",
  "id": 1205887750,
  "lat": 50.8236243,
  "lon": -0.1380985
},
{
  "type": "node",
  "id": 1205887759,
  "lat": 50.8232031,
  "lon": -0.1379984
},
{
  "type": "node",
  "id": 1205887701,
  "lat": 50.8235657,
  "lon": -0.1374429
},
{
  "type": "node",
  "id": 1205887719,
  "lat": 50.8236528,
  "lon": -0.1376242
},
{
  "type": "node",
  "id": 1205887725,
  "lat": 50.8234768,
  "lon": -0.1375032
},
{
  "type": "node",
  "id": 2408120540,
  "lat": 50.8287621,
  "lon": -0.1406531
},
{
  "type": "node",
  "id": 2408120550,
  "lat": 50.8285973,
  "lon": -0.1407258
},
{
  "type": "node",
  "id": 5342848305,
  "lat": 50.8288109,
  "lon": -0.1411778
},
{
  "type": "node",
  "id": 5342848306,
  "lat": 50.8286561,
  "lon": -0.1412117
},
{
  "type": "node",
  "id": 1679705990,
  "lat": 50.8418172,
  "lon": -0.1509048
},
{
  "type": "node",
  "id": 5056099965,
  "lat": 50.8420490,
  "lon": -0.1510089
},
{
  "type": "node",
  "id": 5056099983,
  "lat": 50.8431919,
  "lon": -0.1512440
},
{
  "type": "node",
  "id": 20954789,
  "lat": 50.8419850,
  "lon": -0.1496454
},
{
  "type": "node",
  "id": 20954950,
  "lat": 50.8433884,
  "lon": -0.1500293
},
{
  "type": "node",
  "id": 26358890,
  "lat": 50.8433443,
  "lon": -0.1502805
},
{
  "type": "node",
  "id": 1340943263,
  "lat": 50.8433307,
  "lon": -0.1503525
},
{
  "type": "node",
  "id": 1726561124,
  "lat": 50.8419538,
  "lon": -0.1496013
},
{
  "type": "node",
  "id": 1726561126,
  "lat": 50.8419488,
  "lon": -0.1495438
},
{
  "type": "node",
  "id": 1726561128,
  "lat": 50.8419646,
  "lon": -0.1494901
},
{
  "type": "node",
  "id": 1726561144,
  "lat": 50.8420060,
  "lon": -0.1494391
},
{
  "type": "node",
  "id": 1726561157,
  "lat": 50.8422442,
  "lon": -0.1495354
},
{
  "type": "node",
  "id": 1726561166,
  "lat": 50.8422609,
  "lon": -0.1495843
},
{
  "type": "node",
  "id": 1726561176,
  "lat": 50.8422669,
  "lon": -0.1495438
},
{
  "type": "node",
  "id": 1726561184,
  "lat": 50.8423027,
  "lon": -0.1495998
},
{
  "type": "node",
  "id": 1726561187,
  "lat": 50.8423101,
  "lon": -0.1495496
},
{
  "type": "node",
  "id": 1726561200,
  "lat": 50.8423362,
  "lon": -0.1495593
},
{
  "type": "node",
  "id": 3092601832,
  "lat": 51.0615321,
  "lon": -0.3288187
},
{
  "type": "node",
  "id": 3092601846,
  "lat": 51.0614838,
  "lon": -0.3287254
},
{
  "type": "node",
  "id": 3092601847,
  "lat": 51.0614771,
  "lon": -0.3287340
},
{
  "type": "node",
  "id": 3092601848,
  "lat": 51.0614300,
  "lon": -0.3286331
},
{
  "type": "node",
  "id": 3092601849,
  "lat": 51.0614632,
  "lon": -0.3285965
},
{
  "type": "node",
  "id": 3092601850,
  "lat": 51.0613998,
  "lon": -0.3284562
},
{
  "type": "node",
  "id": 3092601851,
  "lat": 51.0613036,
  "lon": -0.3285573
},
{
  "type": "node",
  "id": 3092601852,
  "lat": 51.0613830,
  "lon": -0.3287215
},
{
  "type": "node",
  "id": 3092601853,
  "lat": 51.0613939,
  "lon": -0.3287082
},
{
  "type": "node",
  "id": 3092601854,
  "lat": 51.0614205,
  "lon": -0.3287632
},
{
  "type": "node",
  "id": 3092601855,
  "lat": 51.0613654,
  "lon": -0.3288305
},
{
  "type": "node",
  "id": 3092601856,
  "lat": 51.0613900,
  "lon": -0.3288816
},
{
  "type": "node",
  "id": 3092601857,
  "lat": 51.0613724,
  "lon": -0.3289031
},
{
  "type": "node",
  "id": 3092601858,
  "lat": 51.0614079,
  "lon": -0.3289768
},
{
  "type": "node",
  "id": 2395484448,
  "lat": 51.0604604,
  "lon": -0.1680854
},
{
  "type": "node",
  "id": 2395484484,
  "lat": 51.0601336,
  "lon": -0.1680708
},
{
  "type": "node",
  "id": 2395484600,
  "lat": 51.0604515,
  "lon": -0.1685899
},
{
  "type": "node",
  "id": 2395484601,
  "lat": 51.0601247,
  "lon": -0.1685753
},
{
  "type": "node",
  "id": 6352416534,
  "lat": 51.1168955,
  "lon": -0.1894148
},
{
  "type": "node",
  "id": 6352416538,
  "lat": 51.1168726,
  "lon": -0.1891757
},
{
  "type": "node",
  "id": 6352416542,
  "lat": 51.1167805,
  "lon": -0.1891982
},
{
  "type": "node",
  "id": 6352416546,
  "lat": 51.1167905,
  "lon": -0.1893019
},
{
  "type": "node",
  "id": 6352416550,
  "lat": 51.1167209,
  "lon": -0.1894574
},
{
  "type": "node",
  "id": 6352416551,
  "lat": 51.1167079,
  "lon": -0.1893220
},
{
  "type": "node",
  "id": 1287604208,
  "lat": 51.1029642,
  "lon": -0.0168662
},
{
  "type": "node",
  "id": 1287604209,
  "lat": 51.1027897,
  "lon": -0.0167766
},
{
  "type": "node",
  "id": 1287604212,
  "lat": 51.1029295,
  "lon": -0.0169881
},
{
  "type": "node",
  "id": 1287604213,
  "lat": 51.1027403,
  "lon": -0.0165233
},
{
  "type": "node",
  "id": 1287604215,
  "lat": 51.1030092,
  "lon": -0.0164516
},
{
  "type": "node",
  "id": 1287604216,
  "lat": 51.1028186,
  "lon": -0.0170214
},
{
  "type": "node",
  "id": 1287604217,
  "lat": 51.1027570,
  "lon": -0.0164721
},
{
  "type": "node",
  "id": 1287604222,
  "lat": 51.1027623,
  "lon": -0.0165167
},
{
  "type": "node",
  "id": 1287604223,
  "lat": 51.1029168,
  "lon": -0.0168804
},
{
  "type": "node",
  "id": 1287604225,
  "lat": 51.1029185,
  "lon": -0.0164788
},
{
  "type": "node",
  "id": 1287604230,
  "lat": 51.1028072,
  "lon": -0.0164570
},
{
  "type": "node",
  "id": 1287604232,
  "lat": 51.1029824,
  "lon": -0.0162234
},
{
  "type": "node",
  "id": 1287604234,
  "lat": 51.1028010,
  "lon": -0.0162778
},
{
  "type": "node",
  "id": 1287604235,
  "lat": 51.1027709,
  "lon": -0.0167823
},
{
  "type": "node",
  "id": 4867704813,
  "lat": 51.1030032,
  "lon": -0.0164007
},
{
  "type": "node",
  "id": 4867704814,
  "lat": 51.1029926,
  "lon": -0.0163093
},
{
  "type": "node",
  "id": 4867709136,
  "lat": 51.1028133,
  "lon": -0.0163820
},
{
  "type": "node",
  "id": 4867709138,
  "lat": 51.1027988,
  "lon": -0.0163864
},
{
  "type": "node",
  "id": 4867715260,
  "lat": 51.1029577,
  "lon": -0.0168113
},
{
  "type": "node",
  "id": 4867715261,
  "lat": 51.1029409,
  "lon": -0.0166686
},
{
  "type": "node",
  "id": 2320506722,
  "lat": 51.1246073,
  "lon": -0.0065859
},
{
  "type": "node",
  "id": 2320506725,
  "lat": 51.1244854,
  "lon": -0.0065631
},
{
  "type": "node",
  "id": 2719410067,
  "lat": 51.1245341,
  "lon": -0.0065722
},
{
  "type": "node",
  "id": 1111884878,
  "lat": 51.1244983,
  "lon": -0.0063873
},
{
  "type": "node",
  "id": 2704150717,
  "lat": 51.1246202,
  "lon": -0.0064100
},
{
  "type": "node",
  "id": 1618859954,
  "lat": 50.7672027,
  "lon": 0.1038582
},
{
  "type": "node",
  "id": 1618859962,
  "lat": 50.7669705,
  "lon": 0.1042017
},
{
  "type": "node",
  "id": 1618859963,
  "lat": 50.7672077,
  "lon": 0.1040273
},
{
  "type": "node",
  "id": 1618859972,
  "lat": 50.7671403,
  "lon": 0.1041777
},
{
  "type": "node",
  "id": 1618859973,
  "lat": 50.7671757,
  "lon": 0.1037839
},
{
  "type": "node",
  "id": 1618859990,
  "lat": 50.7671823,
  "lon": 0.1041118
},
{
  "type": "node",
  "id": 1618859991,
  "lat": 50.7670866,
  "lon": 0.1042171
},
{
  "type": "node",
  "id": 1618860001,
  "lat": 50.7670277,
  "lon": 0.1042255
},
{
  "type": "node",
  "id": 2587256737,
  "lat": 50.7672137,
  "lon": 0.1039421
},
{
  "type": "node",
  "id": 6707837200,
  "lat": 50.7669804,
  "lon": 0.1039236
},
{
  "type": "node",
  "id": 6707837202,
  "lat": 50.7670653,
  "lon": 0.1039127
},
{
  "type": "node",
  "id": 6707837203,
  "lat": 50.7670570,
  "lon": 0.1039018
},
{
  "type": "node",
  "id": 6707837204,
  "lat": 50.7670373,
  "lon": 0.1038885
},
{
  "type": "node",
  "id": 6707837205,
  "lat": 50.7670266,
  "lon": 0.1038866
},
{
  "type": "node",
  "id": 6707837206,
  "lat": 50.7670055,
  "lon": 0.1038926
},
{
  "type": "node",
  "id": 6707837207,
  "lat": 50.7669959,
  "lon": 0.1039003
},
{
  "type": "node",
  "id": 6707837208,
  "lat": 50.7669716,
  "lon": 0.1039544
},
{
  "type": "node",
  "id": 6707837209,
  "lat": 50.7669708,
  "lon": 0.1039883
},
{
  "type": "node",
  "id": 6707837210,
  "lat": 50.7669735,
  "lon": 0.1040047
},
{
  "type": "node",
  "id": 6707837211,
  "lat": 50.7669846,
  "lon": 0.1040337
},
{
  "type": "node",
  "id": 6707837235,
  "lat": 50.7669522,
  "lon": 0.1041818
},
{
  "type": "node",
  "id": 6707837240,
  "lat": 50.7669926,
  "lon": 0.1040451
},
{
  "type": "node",
  "id": 6707837241,
  "lat": 50.7669782,
  "lon": 0.1040200
},
{
  "type": "node",
  "id": 6707837242,
  "lat": 50.7669702,
  "lon": 0.1039713
},
{
  "type": "node",
  "id": 6707837243,
  "lat": 50.7669751,
  "lon": 0.1039383
},
{
  "type": "node",
  "id": 6707837244,
  "lat": 50.7669875,
  "lon": 0.1039107
},
{
  "type": "node",
  "id": 6707837245,
  "lat": 50.7670159,
  "lon": 0.1038880
},
{
  "type": "node",
  "id": 6707837246,
  "lat": 50.7670475,
  "lon": 0.1038936
},
{
  "type": "node",
  "id": 6707837247,
  "lat": 50.7670720,
  "lon": 0.1039259
},
{
  "type": "node",
  "id": 1262668253,
  "lat": 50.7837166,
  "lon": 0.0549885
},
{
  "type": "node",
  "id": 3504650996,
  "lat": 50.7838220,
  "lon": 0.0529541
},
{
  "type": "node",
  "id": 3504650997,
  "lat": 50.7824342,
  "lon": 0.0526646
},
{
  "type": "node",
  "id": 3504650998,
  "lat": 50.7822394,
  "lon": 0.0548782
},
{
  "type": "node",
  "id": 3504650999,
  "lat": 50.7826468,
  "lon": 0.0555133
},
{
  "type": "node",
  "id": 3504651000,
  "lat": 50.7830366,
  "lon": 0.0558028
},
{
  "type": "node",
  "id": 3504651001,
  "lat": 50.7836094,
  "lon": 0.0552985
},
{
  "type": "node",
  "id": 3504651002,
  "lat": 50.7837039,
  "lon": 0.0552331
},
{
  "type": "node",
  "id": 4435117548,
  "lat": 50.7830972,
  "lon": 0.0540107
},
{
  "type": "node",
  "id": 4435117549,
  "lat": 50.7830843,
  "lon": 0.0543035
},
{
  "type": "node",
  "id": 4435117550,
  "lat": 50.7831850,
  "lon": 0.0543146
},
{
  "type": "node",
  "id": 4435117551,
  "lat": 50.7831980,
  "lon": 0.0540218
},
{
  "type": "node",
  "id": 3487508704,
  "lat": 50.8689481,
  "lon": 0.0042449
},
{
  "type": "node",
  "id": 3487508705,
  "lat": 50.8690150,
  "lon": 0.0042227
},
{
  "type": "node",
  "id": 3487508706,
  "lat": 50.8689902,
  "lon": 0.0040350
},
{
  "type": "node",
  "id": 3487508707,
  "lat": 50.8690779,
  "lon": 0.0040059
},
{
  "type": "node",
  "id": 3487508708,
  "lat": 50.8690724,
  "lon": 0.0039642
},
{
  "type": "node",
  "id": 3487508709,
  "lat": 50.8691184,
  "lon": 0.0039489
},
{
  "type": "node",
  "id": 3487508710,
  "lat": 50.8691053,
  "lon": 0.0038484
},
{
  "type": "node",
  "id": 3487508711,
  "lat": 50.8689043,
  "lon": 0.0039130
},
{
  "type": "node",
  "id": 3487508719,
  "lat": 50.8689521,
  "lon": 0.0038976
},
{
  "type": "node",
  "id": 4429197708,
  "lat": 50.8725990,
  "lon": 0.0085345
},
{
  "type": "node",
  "id": 4429197709,
  "lat": 50.8725515,
  "lon": 0.0085649
},
{
  "type": "node",
  "id": 4429197710,
  "lat": 50.8724963,
  "lon": 0.0083514
},
{
  "type": "node",
  "id": 4429197711,
  "lat": 50.8725656,
  "lon": 0.0083131
},
{
  "type": "node",
  "id": 4429197712,
  "lat": 50.8727536,
  "lon": 0.0083669
},
{
  "type": "node",
  "id": 4429197713,
  "lat": 50.8727456,
  "lon": 0.0084368
},
{
  "type": "node",
  "id": 4429197714,
  "lat": 50.8726785,
  "lon": 0.0084668
},
{
  "type": "node",
  "id": 4429197715,
  "lat": 50.8726199,
  "lon": 0.0084233
},
{
  "type": "node",
  "id": 4429197716,
  "lat": 50.8725793,
  "lon": 0.0084457
}

  ]
}
