{
  "version": 0.6,
  "generator": "Overpass API 0.7.55.1011 6c2efc30",
  "osm3s": {
    "timestamp_osm_base": "2020-02-14T15:49:02Z",
    "copyright": "The data included in this document is from www.openstreetmap.org. The data is made available under ODbL."
  },
  "elements": [

{
  "type": "node",
  "id": 160963272,
  "lat": 48.7273150,
  "lon": 21.2545752,
  "tags": {
    "addr:city": "Košice",
    "addr:country": "SK",
    "addr:housenumber": "3",
    "addr:postcode": "04001",
    "addr:street": "Zvonárska",
    "addr:streetnumber": "3",
    "email": "info@vsmuzeum.sk",
    "fee": "yes",
    "int_name": "East - Slovakian Museum Kosice",
    "is_in": "Košice I, Košický kraj, Východné Slovensko, Slovensko",
    "name": "Východoslovenské múzeum",
    "name:hu": "Kelet-Szlovákiai Múzeum",
    "name:ru": "Восточно-словацкий музей",
    "note": "Príroda Karpát a Storočia v umení",
    "opening_hours": "Mo off; Tu-Sa 09:00-17:00; Sa 14:00-18:00",
    "payment:cash": "yes",
    "payment:coins": "yes",
    "phone": "+421 905 937 177",
    "tourism": "museum",
    "website": "http://www.vsmuzeum.sk",
    "wheelchair": "limited",
    "wikidata": "Q1186439",
    "wikipedia": "sk:Východoslovenské múzeum"
  }
},
{
  "type": "node",
  "id": 331925197,
  "lat": 48.8513322,
  "lon": 20.9330838,
  "tags": {
    "addr:city": "Gelnica",
    "addr:housenumber": "8",
    "addr:postcode": "05601",
    "addr:street": "Banícke námestie",
    "name": "Banícke múzeum",
    "tourism": "museum",
    "website": "https://www.gelnica.sk/banicke-muzeum-.phtml?id3=48695"
  }
},
{
  "type": "node",
  "id": 432605429,
  "lat": 48.7228107,
  "lon": 21.2596341,
  "tags": {
    "email": "lektorna.kb@vsmuzeum.sk",
    "fee": "yes",
    "name": "Miklušova väznica",
    "name:hu": "Miklós-börtön",
    "opening_hours": "Mo off; Tu-Sa 09:00-17:00; Sa 14:00-18:00",
    "operator": "Východoslovenské múzeum",
    "payment:cash": "yes",
    "payment:coins": "yes",
    "phone": "+421 917 755 594",
    "tourism": "museum",
    "website": "http://www.vsmuzeum.sk/",
    "wheelchair": "limited",
    "wikidata": "Q3403979",
    "wikipedia": "sk:Miklušova väznica"
  }
},
{
  "type": "node",
  "id": 552798150,
  "lat": 48.7157914,
  "lon": 21.2170501,
  "tags": {
    "name": "Humno - súkromné etnografické múzeum",
    "opening_hours": "Mo-Fr 15:00-20:00; Sa-Su 15:00-20:00",
    "tourism": "museum"
  }
},
{
  "type": "node",
  "id": 691083815,
  "lat": 48.7242178,
  "lon": 21.2558415,
  "tags": {
    "contact:facebook": "https://www.facebook.com/Slovenské-technické-múzeum-100782843311602/",
    "contact:website": "http://www.stm-ke.sk/",
    "email": "stmke@stm-ke.sk",
    "fee": "yes",
    "name": "Slovenské technické múzeum",
    "name:hu": "Szlovák Műszaki Múzeum",
    "opening_hours": "Mo off; Tu-Su 09:00-17:00",
    "payment:cash": "yes",
    "payment:coins": "yes",
    "phone": "+421 55 622 4035",
    "tourism": "museum",
    "website": "http://www.stm-ke.sk/index.php/sk/",
    "wheelchair": "yes",
    "wikidata": "Q429663"
  }
},
{
  "type": "node",
  "id": 691381354,
  "lat": 48.7226337,
  "lon": 21.2601858,
  "tags": {
    "name": "Katova bašta",
    "name:hu": "Hóhér-bástya",
    "tourism": "museum",
    "wheelchair": "no"
  }
},
{
  "type": "node",
  "id": 854718217,
  "lat": 49.2926474,
  "lon": 21.2763198,
  "tags": {
    "name": "šarišské múzeum",
    "tourism": "museum"
  }
},
{
  "type": "node",
  "id": 854718334,
  "lat": 49.2911595,
  "lon": 21.2752864,
  "tags": {
    "tourism": "museum"
  }
},
{
  "type": "node",
  "id": 882867798,
  "lat": 48.7206073,
  "lon": 21.2564057,
  "tags": {
    "tourism": "museum"
  }
},
{
  "type": "node",
  "id": 882867877,
  "lat": 48.7207089,
  "lon": 21.2568589,
  "tags": {
    "tourism": "museum"
  }
},
{
  "type": "node",
  "id": 981426319,
  "lat": 49.0189420,
  "lon": 21.4154339,
  "tags": {
    "name": "Lesnícke múzeum",
    "tourism": "museum"
  }
},
{
  "type": "node",
  "id": 1029769186,
  "lat": 48.9724875,
  "lon": 20.9523553,
  "tags": {
    "name": "Remeselný dom",
    "tourism": "museum"
  }
},
{
  "type": "node",
  "id": 1234610543,
  "lat": 48.7196625,
  "lon": 21.2555876,
  "tags": {
    "amenity": "arts_centre",
    "contact:email": "lofflermuzeum@gmail.com",
    "contact:facebook": "http://www.facebook.com/muzeumvojtecha.lofflera",
    "contact:phone": "+421 055 62 230 73",
    "contact:website": "http://www.lofflermuzeum.sk/",
    "email": "info@lofflermuzeum.sk",
    "fee": "yes",
    "name": "Múzeum Vojtecha Löfflera",
    "name:hu": "Vojtech Löffler Múzeum",
    "opening_hours": "Mo off, Tu-Sa 10:00-18:00; Su 13:00-17:00",
    "payment:cash": "yes",
    "payment:coins": "yes",
    "phone": "+421 55 622 3234",
    "tourism": "museum",
    "website": "http://www.lofflermuzeum.sk",
    "wheelchair": "no"
  }
},
{
  "type": "node",
  "id": 1354061822,
  "lat": 49.0409642,
  "lon": 21.2136120,
  "tags": {
    "name": "Múzeum pivovarníctva",
    "tourism": "museum"
  }
},
{
  "type": "node",
  "id": 1670580346,
  "lat": 48.8905796,
  "lon": 21.6864843,
  "tags": {
    "name": "Človek a život",
    "tourism": "museum"
  }
},
{
  "type": "node",
  "id": 2905954138,
  "lat": 49.2914406,
  "lon": 21.2756003,
  "tags": {
    "name": "Šarišské múzeum, expozícia ikon",
    "tourism": "museum"
  }
},
{
  "type": "node",
  "id": 3427462264,
  "lat": 48.7439951,
  "lon": 21.1264953,
  "tags": {
    "name": "Minimúzeum ľudovej kultúry",
    "operator": "Obec Vyšný Klátov",
    "tourism": "museum"
  }
},
{
  "type": "node",
  "id": 3700387770,
  "lat": 48.7137834,
  "lon": 21.2554203,
  "tags": {
    "email": "info@steelpark.sk",
    "fee": "yes",
    "name": "Steelpark",
    "opening_hours": "Mo-Tu 09:00-13:00; We-Fr 09:00-13:00,14:00-18:00; Sa-Su 14:00-18:00",
    "operator": "K 13 – Košické kultúrne centrá",
    "payment:cash": "yes",
    "payment:coins": "yes",
    "phone": "+421 55 300 9301",
    "tourism": "museum",
    "website": "https://steelpark.sk/",
    "wheelchair": "yes"
  }
},
{
  "type": "node",
  "id": 4724462531,
  "lat": 48.9879401,
  "lon": 21.2484746,
  "tags": {
    "name": "Múzeum rusínskej kultúry (Filial SNM)",
    "name:uk": "Музей Русинської культури (Філія СНМ)",
    "tourism": "museum",
    "website": "https://www.snm.sk/?muzeum-rusinskej-kultury-uvodna-stranka"
  }
},
{
  "type": "node",
  "id": 4724526705,
  "lat": 48.9973742,
  "lon": 21.2397974,
  "tags": {
    "name": "Múzeum vín",
    "name:uk": "Музей вина",
    "opening_hours": "Mo-Fr 08:30-19:00",
    "tourism": "museum",
    "website": "http://www.muzeumvin.sk"
  }
},
{
  "type": "node",
  "id": 5012194315,
  "lat": 48.9767718,
  "lon": 21.2786722,
  "tags": {
    "name": "Šachta a Gápeľ",
    "tourism": "museum"
  }
},
{
  "type": "node",
  "id": 5012194316,
  "lat": 48.9794530,
  "lon": 21.2760061,
  "tags": {
    "name": "Solivar Prešov",
    "tourism": "museum"
  }
},
{
  "type": "node",
  "id": 5012194317,
  "lat": 48.9786361,
  "lon": 21.2749144,
  "tags": {
    "name": "Varňa František",
    "tourism": "museum"
  }
},
{
  "type": "node",
  "id": 5012196946,
  "lat": 48.9774971,
  "lon": 21.2763950,
  "tags": {
    "name": "Cisterny - zásobníky Solianky",
    "tourism": "museum"
  }
},
{
  "type": "node",
  "id": 5026010244,
  "lat": 49.0387655,
  "lon": 21.1938698,
  "tags": {
    "name": "Mestské múzeum a galéria Veľký Šariš",
    "opening_hours": "Tu-Th 10:00-16:30",
    "tourism": "museum"
  }
},
{
  "type": "node",
  "id": 5250369522,
  "lat": 49.2926434,
  "lon": 21.2757486,
  "tags": {
    "name": "Šarišské múzeum",
    "tourism": "museum"
  }
},
{
  "type": "node",
  "id": 5600760467,
  "lat": 49.0522808,
  "lon": 21.2847354,
  "tags": {
    "name": "Galéria a múzeum ľudového umenia",
    "tourism": "museum"
  }
},
{
  "type": "node",
  "id": 6654831132,
  "lat": 48.7230662,
  "lon": 21.2547293,
  "tags": {
    "name": "Pamätná výstava Sándora Máraia",
    "tourism": "museum"
  }
},
{
  "type": "node",
  "id": 6654831133,
  "lat": 48.7236837,
  "lon": 21.2539930,
  "tags": {
    "name": "Regionálne centrum remesiel ÚĽUV",
    "tourism": "museum"
  }
},
{
  "type": "node",
  "id": 7188145745,
  "lat": 48.7956155,
  "lon": 21.3067534,
  "tags": {
    "name": "Expozícia historických hodín",
    "tourism": "museum",
    "website": "http://www.stm-ke.sk/index.php/sk/kastiel-v-budimire"
  }
},
{
  "type": "way",
  "id": 27035660,
  "nodes": [
    296347729,
    606948497,
    606948496,
    606948494,
    606948492,
    606948491,
    606948490,
    606948359,
    606948360,
    296347730,
    296347731,
    606948502,
    606948503,
    296347732,
    296347733,
    606948504,
    296347734,
    296347735,
    606948499,
    606948500,
    296347736,
    296347729
  ],
  "tags": {
    "addr:city": "Košice",
    "addr:conscriptionnumber": "62",
    "addr:country": "SK",
    "addr:housenumber": "2",
    "addr:postcode": "04001",
    "addr:street": "Námestie Maratónu mieru",
    "addr:streetnumber": "2",
    "addr:suburb": "I",
    "building": "yes",
    "building:levels": "3",
    "email": "info@vsmuzeum.sk",
    "fax": "+421 55 622 8696",
    "fee": "yes",
    "int_name": "East - Slovakian Museum Kosice",
    "is_in": "Košice I, Košický kraj, Východné Slovensko, Slovensko",
    "name": "Východoslovenské múzeum",
    "name:hu": "Kelet-Szlovákiai Múzeum",
    "opening_hours": "Mo off; Tu-Sa 09:00-17:00; Sa 14:00-18:00",
    "payment:cash": "yes",
    "payment:coins": "yes",
    "payment:credit_cards": "yes",
    "payment:debit_cards": "yes",
    "phone": "+421 55 622 0309",
    "source": "kapor2;survey",
    "tourism": "museum",
    "website": "http://www.vsmuzeum.sk",
    "wheelchair": "limited",
    "wikidata": "Q1186439",
    "wikipedia": "sk:Východoslovenské múzeum"
  }
},
{
  "type": "way",
  "id": 50299023,
  "nodes": [
    639095785,
    639095800,
    639095803,
    639095805,
    639095785
  ],
  "tags": {
    "building": "yes",
    "email": "kezeleznica@gmail.com",
    "fee": "yes",
    "name": "Košická detská historická železnica",
    "opening_hours": "Mo-Fr 09:00-16:30; Sa-Su 09:00-18:30",
    "payment:cash": "yes",
    "payment:coins": "yes",
    "phone": "+421 905 496 426",
    "source": "kapor2",
    "tourism": "museum",
    "website": "http://www.detskazeleznica.sk",
    "wheelchair": "limited",
    "wikidata": "Q2655053",
    "wikipedia": "sk:Železničná trať Čermeľ – Alpinka"
  }
},
{
  "type": "way",
  "id": 82143084,
  "nodes": [
    956499780,
    956499430,
    956494462,
    956495651,
    956496508,
    4724452790,
    4724452789,
    956495970,
    956494674,
    956498621,
    956499383,
    956494422,
    956495566,
    956494939,
    956499780
  ],
  "tags": {
    "addr:city": "Prešov",
    "addr:conscriptionnumber": "2985",
    "addr:country": "SK",
    "addr:housenumber": "2985/86",
    "addr:street": "Hlavná",
    "addr:streetnumber": "86",
    "building": "yes",
    "name": "Krajské múzeum Prešov",
    "source": "kapor2",
    "tourism": "museum",
    "website": "www.muzeumpresov.sk",
    "wikidata": "Q24702350"
  }
},
{
  "type": "way",
  "id": 82412196,
  "nodes": [
    959371698,
    959367877,
    4724493741,
    4724493734,
    959337091,
    4724493740,
    959343663,
    959371698
  ],
  "tags": {
    "addr:conscriptionnumber": "11636",
    "addr:housenumber": "11636/32",
    "addr:street": "Okružná",
    "addr:streetnumber": "32",
    "building": "yes",
    "name": "Synagóga v Prešove (Filial SNM)",
    "name:uk": "Сінагога в Пряшеві (Філія СНМ)",
    "source": "kapor2",
    "tourism": "museum",
    "website": "https://www.snm.sk/?synagoga-v-presove-uvodna-stranka",
    "wikidata": "Q13537936"
  }
},
{
  "type": "way",
  "id": 139590536,
  "nodes": [
    1530001675,
    1530002074,
    1530002147,
    1530002193,
    1530002198,
    1530002148,
    1530002100,
    1530002027,
    1530001911,
    1530001812,
    1530001750,
    1530001731,
    1530001706,
    1530001679,
    1530001675
  ],
  "tags": {
    "building": "yes",
    "name": "Mestské múzeum Sabinov",
    "source": "kapor2",
    "tourism": "museum",
    "website": "https://www.sabinov.sk/navstevnik/mestske-muzeum.html"
  }
},
{
  "type": "way",
  "id": 303673443,
  "nodes": [
    3080750656,
    3080750628,
    3080750651,
    3080750540,
    3080750515,
    3080750476,
    3080750516,
    3080750526,
    3080750594,
    3080750584,
    3080750616,
    3080750652,
    3080750643,
    3080750753,
    3080750776,
    3080750818,
    3080750785,
    3080750762,
    3080750680,
    3080750699,
    3080750656
  ],
  "tags": {
    "building": "yes",
    "historic": "castle",
    "name": "Kaštieľ Hanušovce",
    "source": "kapor2",
    "tourism": "museum",
    "website": "http://tripolitana.sk/kastiel-hanusovce/"
  }
},
{
  "type": "node",
  "id": 639095785,
  "lat": 48.7496975,
  "lon": 21.2286018
},
{
  "type": "node",
  "id": 639095800,
  "lat": 48.7496532,
  "lon": 21.2285814
},
{
  "type": "node",
  "id": 639095803,
  "lat": 48.7496927,
  "lon": 21.2283848
},
{
  "type": "node",
  "id": 639095805,
  "lat": 48.7497369,
  "lon": 21.2284052
},
{
  "type": "node",
  "id": 296347729,
  "lat": 48.7274313,
  "lon": 21.2530820
},
{
  "type": "node",
  "id": 296347736,
  "lat": 48.7274879,
  "lon": 21.2533030
},
{
  "type": "node",
  "id": 606948359,
  "lat": 48.7270818,
  "lon": 21.2533028
},
{
  "type": "node",
  "id": 606948360,
  "lat": 48.7270782,
  "lon": 21.2532889
},
{
  "type": "node",
  "id": 606948490,
  "lat": 48.7271686,
  "lon": 21.2532517
},
{
  "type": "node",
  "id": 606948491,
  "lat": 48.7271560,
  "lon": 21.2532026
},
{
  "type": "node",
  "id": 606948492,
  "lat": 48.7272651,
  "lon": 21.2531384
},
{
  "type": "node",
  "id": 606948494,
  "lat": 48.7272774,
  "lon": 21.2531865
},
{
  "type": "node",
  "id": 606948496,
  "lat": 48.7273648,
  "lon": 21.2531351
},
{
  "type": "node",
  "id": 606948497,
  "lat": 48.7273617,
  "lon": 21.2531229
},
{
  "type": "node",
  "id": 606948499,
  "lat": 48.7274121,
  "lon": 21.2533246
},
{
  "type": "node",
  "id": 296347730,
  "lat": 48.7270045,
  "lon": 21.2533322
},
{
  "type": "node",
  "id": 296347731,
  "lat": 48.7270627,
  "lon": 21.2535593
},
{
  "type": "node",
  "id": 296347732,
  "lat": 48.7272190,
  "lon": 21.2534441
},
{
  "type": "node",
  "id": 296347733,
  "lat": 48.7272310,
  "lon": 21.2534908
},
{
  "type": "node",
  "id": 296347734,
  "lat": 48.7273373,
  "lon": 21.2534283
},
{
  "type": "node",
  "id": 296347735,
  "lat": 48.7273240,
  "lon": 21.2533765
},
{
  "type": "node",
  "id": 606948500,
  "lat": 48.7274172,
  "lon": 21.2533446
},
{
  "type": "node",
  "id": 606948502,
  "lat": 48.7271372,
  "lon": 21.2535155
},
{
  "type": "node",
  "id": 606948503,
  "lat": 48.7271320,
  "lon": 21.2534953
},
{
  "type": "node",
  "id": 606948504,
  "lat": 48.7272873,
  "lon": 21.2534577
},
{
  "type": "node",
  "id": 959337091,
  "lat": 49.0000042,
  "lon": 21.2380747
},
{
  "type": "node",
  "id": 959343663,
  "lat": 48.9998824,
  "lon": 21.2379200
},
{
  "type": "node",
  "id": 959367877,
  "lat": 49.0001930,
  "lon": 21.2377369
},
{
  "type": "node",
  "id": 959371698,
  "lat": 49.0000711,
  "lon": 21.2375811
},
{
  "type": "node",
  "id": 4724493734,
  "lat": 49.0000464,
  "lon": 21.2379991
},
{
  "type": "node",
  "id": 4724493740,
  "lat": 48.9999411,
  "lon": 21.2379946
},
{
  "type": "node",
  "id": 4724493741,
  "lat": 49.0001246,
  "lon": 21.2378593
},
{
  "type": "node",
  "id": 956494422,
  "lat": 48.9982518,
  "lon": 21.2408700
},
{
  "type": "node",
  "id": 956494462,
  "lat": 48.9982668,
  "lon": 21.2413183
},
{
  "type": "node",
  "id": 956494674,
  "lat": 48.9982777,
  "lon": 21.2407979
},
{
  "type": "node",
  "id": 956494939,
  "lat": 48.9983051,
  "lon": 21.2412106
},
{
  "type": "node",
  "id": 956495566,
  "lat": 48.9982055,
  "lon": 21.2409037
},
{
  "type": "node",
  "id": 956495651,
  "lat": 48.9981385,
  "lon": 21.2409200
},
{
  "type": "node",
  "id": 956495970,
  "lat": 48.9981940,
  "lon": 21.2405308
},
{
  "type": "node",
  "id": 956496508,
  "lat": 48.9980495,
  "lon": 21.2406224
},
{
  "type": "node",
  "id": 956498621,
  "lat": 48.9983064,
  "lon": 21.2408915
},
{
  "type": "node",
  "id": 956499383,
  "lat": 48.9982691,
  "lon": 21.2409186
},
{
  "type": "node",
  "id": 956499430,
  "lat": 48.9983349,
  "lon": 21.2412687
},
{
  "type": "node",
  "id": 956499780,
  "lat": 48.9983182,
  "lon": 21.2412010
},
{
  "type": "node",
  "id": 4724452789,
  "lat": 48.9981332,
  "lon": 21.2405693
},
{
  "type": "node",
  "id": 4724452790,
  "lat": 48.9980718,
  "lon": 21.2406083
},
{
  "type": "node",
  "id": 3080750476,
  "lat": 49.0256826,
  "lon": 21.4991943
},
{
  "type": "node",
  "id": 3080750515,
  "lat": 49.0257447,
  "lon": 21.4992798
},
{
  "type": "node",
  "id": 3080750516,
  "lat": 49.0257454,
  "lon": 21.4991034
},
{
  "type": "node",
  "id": 3080750526,
  "lat": 49.0257653,
  "lon": 21.4991315
},
{
  "type": "node",
  "id": 3080750540,
  "lat": 49.0257890,
  "lon": 21.4992145
},
{
  "type": "node",
  "id": 3080750584,
  "lat": 49.0258553,
  "lon": 21.4989362
},
{
  "type": "node",
  "id": 3080750594,
  "lat": 49.0258719,
  "lon": 21.4989645
},
{
  "type": "node",
  "id": 3080750616,
  "lat": 49.0259082,
  "lon": 21.4988567
},
{
  "type": "node",
  "id": 3080750628,
  "lat": 49.0259176,
  "lon": 21.4995394
},
{
  "type": "node",
  "id": 3080750643,
  "lat": 49.0259408,
  "lon": 21.4989747
},
{
  "type": "node",
  "id": 3080750651,
  "lat": 49.0259628,
  "lon": 21.4994672
},
{
  "type": "node",
  "id": 3080750652,
  "lat": 49.0259634,
  "lon": 21.4989370
},
{
  "type": "node",
  "id": 3080750656,
  "lat": 49.0259737,
  "lon": 21.4996149
},
{
  "type": "node",
  "id": 3080750680,
  "lat": 49.0260120,
  "lon": 21.4994995
},
{
  "type": "node",
  "id": 3080750699,
  "lat": 49.0260297,
  "lon": 21.4995227
},
{
  "type": "node",
  "id": 3080750753,
  "lat": 49.0261079,
  "lon": 21.4992278
},
{
  "type": "node",
  "id": 3080750762,
  "lat": 49.0261142,
  "lon": 21.4993314
},
{
  "type": "node",
  "id": 3080750776,
  "lat": 49.0261283,
  "lon": 21.4991957
},
{
  "type": "node",
  "id": 3080750785,
  "lat": 49.0261374,
  "lon": 21.4993589
},
{
  "type": "node",
  "id": 3080750818,
  "lat": 49.0261857,
  "lon": 21.4992757
},
{
  "type": "node",
  "id": 1530001675,
  "lat": 49.1027842,
  "lon": 21.1005516
},
{
  "type": "node",
  "id": 1530001679,
  "lat": 49.1027849,
  "lon": 21.1005734
},
{
  "type": "node",
  "id": 1530001706,
  "lat": 49.1027901,
  "lon": 21.1005957
},
{
  "type": "node",
  "id": 1530001731,
  "lat": 49.1027985,
  "lon": 21.1006137
},
{
  "type": "node",
  "id": 1530001750,
  "lat": 49.1028079,
  "lon": 21.1006263
},
{
  "type": "node",
  "id": 1530001812,
  "lat": 49.1028229,
  "lon": 21.1006335
},
{
  "type": "node",
  "id": 1530001911,
  "lat": 49.1028362,
  "lon": 21.1006317
},
{
  "type": "node",
  "id": 1530002027,
  "lat": 49.1028484,
  "lon": 21.1006244
},
{
  "type": "node",
  "id": 1530002074,
  "lat": 49.1028586,
  "lon": 21.1005195
},
{
  "type": "node",
  "id": 1530002100,
  "lat": 49.1028604,
  "lon": 21.1006113
},
{
  "type": "node",
  "id": 1530002147,
  "lat": 49.1028659,
  "lon": 21.1005362
},
{
  "type": "node",
  "id": 1530002148,
  "lat": 49.1028666,
  "lon": 21.1005950
},
{
  "type": "node",
  "id": 1530002193,
  "lat": 49.1028699,
  "lon": 21.1005560
},
{
  "type": "node",
  "id": 1530002198,
  "lat": 49.1028705,
  "lon": 21.1005746
}

  ]
}
