{
  "version": 0.6,
  "generator": "Overpass API 0.7.55.1011 6c2efc30",
  "osm3s": {
    "timestamp_osm_base": "2020-02-14T09:03:02Z",
    "copyright": "The data included in this document is from www.openstreetmap.org. The data is made available under ODbL."
  },
  "elements": [

{
  "type": "node",
  "id": 248923456,
  "lat": 52.8168884,
  "lon": 1.3851095,
  "tags": {
    "name": "Norfolk Motorcycle Museum",
    "source": "survey",
    "tourism": "museum"
  }
},
{
  "type": "node",
  "id": 283360904,
  "lat": 52.7674480,
  "lon": 1.5164934,
  "tags": {
    "name": "Museum of the Broads",
    "toilets:wheelchair": "yes",
    "tourism": "museum",
    "wheelchair": "yes"
  }
},
{
  "type": "node",
  "id": 410833379,
  "lat": 52.6066076,
  "lon": 1.4663708,
  "tags": {
    "name": "Strumpshaw Steam Museum",
    "tourism": "museum"
  }
},
{
  "type": "node",
  "id": 745697844,
  "lat": 52.4878637,
  "lon": 1.7575597,
  "tags": {
    "name": "Maritime",
    "tourism": "museum",
    "wikidata": "Q26580423"
  }
},
{
  "type": "node",
  "id": 833400200,
  "lat": 52.8526636,
  "lon": 1.3012502,
  "tags": {
    "name": "Gunton Sawmill",
    "tourism": "museum"
  }
},
{
  "type": "node",
  "id": 846757923,
  "lat": 52.9310984,
  "lon": 1.3017673,
  "tags": {
    "addr:postcode": "NR27 9HB",
    "addr:street": "Tucker Street",
    "name": "Cromer Museum",
    "opening_hours": "Mar-Oct: Mo-Fr 10:00-16:00; Mar-Oct: Sa,Su 12:00-16:00",
    "tourism": "museum",
    "url": "https://www.museums.norfolk.gov.uk/cromer-museum"
  }
},
{
  "type": "node",
  "id": 994395743,
  "lat": 52.3468920,
  "lon": 1.5057064,
  "tags": {
    "name": "Halesworth Museum",
    "tourism": "museum"
  }
},
{
  "type": "node",
  "id": 1212594278,
  "lat": 52.3424051,
  "lon": 1.5252415,
  "tags": {
    "name": "Holton Windmill",
    "tourism": "museum",
    "wikidata": "Q5884725"
  }
},
{
  "type": "node",
  "id": 2098166942,
  "lat": 52.7082422,
  "lon": 1.4090715,
  "tags": {
    "name": "Barton House Railway",
    "tourism": "museum"
  }
},
{
  "type": "node",
  "id": 3034739057,
  "lat": 52.4569603,
  "lon": 1.4362951,
  "tags": {
    "addr:street": "Broad Street",
    "name": "Bungay Museum",
    "tourism": "museum"
  }
},
{
  "type": "node",
  "id": 3598499540,
  "lat": 52.6790732,
  "lon": 0.9475488,
  "tags": {
    "name": "Nid Norfolk Railway Museum Room",
    "tourism": "museum",
    "url": "http://www.mnr.org.uk/your-visit/museum/"
  }
},
{
  "type": "node",
  "id": 6051825720,
  "lat": 52.8780975,
  "lon": 1.4378522,
  "tags": {
    "name": "Mundesley Maritime Museum",
    "tourism": "museum",
    "wikidata": "Q58445776"
  }
},
{
  "type": "way",
  "id": 27824994,
  "nodes": [
    305512727,
    1245754840,
    5981737833,
    305512729,
    1245754856,
    305512727
  ],
  "tags": {
    "name": "Waxham Great Barn",
    "tourism": "museum",
    "website": "https://nhbt.org.uk/our-properties/waxham-great-barn-grade-i/"
  }
},
{
  "type": "way",
  "id": 37803020,
  "nodes": [
    443404030,
    443404031,
    443404032,
    4336931193,
    4336929665,
    443404033,
    4336929652,
    4336931199,
    443404030
  ],
  "tags": {
    "building": "yes",
    "name": "Caister Lifeboat Visitors Centre",
    "tourism": "museum",
    "url": "http://www.caisterlifeboat.org.uk/visitors-centre/"
  }
},
{
  "type": "way",
  "id": 38329530,
  "nodes": [
    452584610,
    452584612,
    452584614,
    6652467761,
    452584616,
    452584618,
    452584620,
    452584622,
    452584624,
    452584649,
    452584626,
    452584628,
    452584630,
    452584631,
    452584632,
    452584633,
    452584634,
    452584635,
    452584637,
    452584638,
    452584639,
    452584640,
    452584641,
    452584643,
    452584644,
    452584645,
    452584646,
    452584647,
    452584648,
    6652467760,
    452584610
  ],
  "tags": {
    "access": "customers",
    "access:disabled": "two car park spaces for visitors who are Blue Badges holders. step-free access to the Castle Mound through the Castle Gardens, Farmers Avenue or Castle Mall",
    "addr:city": "Norwich",
    "addr:country": "GB",
    "addr:postcode": "NR1 3JU",
    "addr:street": "Castle Meadow",
    "building": "castle",
    "building:levels": "2",
    "castle_type": "defensive",
    "email": "museums@norfolk.gov.uk",
    "historic": "castle",
    "historic:civilization": "medieval",
    "name": "Norwich Castle Museum",
    "opening_hours": "Jul 1-Sep 29 Mo-Sa 10:00-17:00, Su 13:00-17:00; Sep 30-Jun 30 Mo-Sa 10:00-16:30, Su 13:00-16:30",
    "parking": "no",
    "phone:booking": "+44 1603 495897",
    "phone:booking:school": "+44 1603 493636",
    "phone:general": "+44 1603 493625",
    "phone:info": "+44 1603 493648",
    "start_date": "1067",
    "tourism": "museum",
    "website": "https://www.museums.norfolk.gov.uk/norwich-castle",
    "wheelchair": "limited",
    "wikidata": "Q1672292",
    "wikipedia": "en:Norwich Castle"
  }
},
{
  "type": "way",
  "id": 116396205,
  "nodes": [
    1277052842,
    1312212521,
    1277052589,
    1277052725,
    1277052842
  ],
  "tags": {
    "building": "yes",
    "name": "Diss Museum",
    "tourism": "museum",
    "url": "http://www.disscouncil.com/museum.php"
  }
},
{
  "type": "way",
  "id": 125616041,
  "nodes": [
    1394801855,
    1394801894,
    1394801876,
    1394801845,
    1394801849,
    1394801841,
    1394801861,
    1394801887,
    1394801843,
    1394801874,
    1394801872,
    1394801893,
    1394801895,
    1394801865,
    1394801890,
    1394801896,
    1394801864,
    1394801898,
    1394801879,
    1394801888,
    1394801885,
    1394801850,
    1394801866,
    1394801899,
    1394801891,
    1394801881,
    1394801900,
    1394801857,
    1394801847,
    1394801897,
    1394801889,
    1394801834,
    1394801901,
    1394801855
  ],
  "tags": {
    "addr:city": "Norwich",
    "addr:housename": "Shirehall",
    "addr:postcode": "NR1 3JQ",
    "addr:street": "Market Avenue",
    "building": "civic",
    "building:levels": "2",
    "building:material": "brick",
    "email": "regimental.museum@norfolk.gov.uk",
    "name": "The Royal Norfolk Regimental Museum",
    "phone": "+44 1603 493650",
    "tourism": "museum",
    "website": "http://www.royalnorfolkregimentalmuseum.org.uk/"
  }
},
{
  "type": "way",
  "id": 159038725,
  "nodes": [
    1711426720,
    1711426723,
    1711426725,
    1711426727,
    1711426720
  ],
  "tags": {
    "building": "yes",
    "name": "Toad Hole Cottage",
    "tourism": "museum",
    "wikidata": "Q26301907"
  }
},
{
  "type": "way",
  "id": 160941189,
  "nodes": [
    1729083916,
    1729083917,
    6381060746,
    6381060745,
    1729083913,
    1729083914,
    6381060740,
    1729083937,
    1729083938,
    1729083941,
    1729083940,
    1729083936,
    1729083939,
    1729083919,
    1729083918,
    1729083923,
    1729083921,
    1729083920,
    1729083916
  ],
  "tags": {
    "addr:postcode": "NR2 1AQ",
    "addr:street": "Bridewell Alley",
    "building": "yes",
    "name": "Museum of Norwich at the Bridewell",
    "tourism": "museum",
    "url": "https://www.museums.norfolk.gov.uk/museum-of-norwich",
    "wikidata": "Q17537374"
  }
},
{
  "type": "way",
  "id": 170561249,
  "nodes": [
    5140868793,
    1518706495,
    1518706483,
    1373249730,
    1518706468,
    1518706502,
    1518706501,
    1518706472,
    5140868790,
    5140868789,
    5140868791,
    1518706510,
    1817348315,
    1817348319,
    1817348322,
    1817348320,
    1817348312,
    1817348310,
    1817348308,
    1817348306,
    1817348328,
    1817348330,
    1518706614,
    6467622529,
    5140868796,
    5140868805,
    5140868804,
    5140868803,
    5140868802,
    5140868801,
    5140868800,
    5140868799,
    5140868798,
    5140868797,
    5140868806,
    5140868795,
    1518706602,
    3447347117,
    3447347106,
    3447347105,
    3447347102,
    5140868794,
    5140868792,
    5140868793
  ],
  "tags": {
    "addr:city": "Norwich",
    "addr:country": "GB",
    "addr:housename": "Strangers' Hall and 4 to 12",
    "addr:housenumber": "4-12",
    "addr:interpolation": "even",
    "addr:postcode": "NR2 4AL",
    "addr:street": "Charing Cross",
    "building": "yes",
    "fee": "yes",
    "name": "Strangers' Hall",
    "opening_hours": "We-Fr 10:00-16:00; Su 13:00-16:30",
    "operator": "Norfolk Museums Service",
    "source": "Bing",
    "tourism": "museum",
    "website": "https://www.museums.norfolk.gov.uk/strangers-hall",
    "wikidata": "Q7621576"
  }
},
{
  "type": "way",
  "id": 173385174,
  "nodes": [
    1842126963,
    1842126995,
    1842126991,
    1842126910,
    1842126994,
    1842126920,
    1842126967,
    1842126980,
    1842126969,
    1842126962,
    1842126954,
    1842126925,
    1842126960,
    1842126907,
    1842126935,
    1842126916,
    1842126949,
    1842126918,
    1842126932,
    1842126992,
    1842126947,
    1842126955,
    1842126924,
    1842126946,
    1842126938,
    1842126933,
    1842126958,
    1842126939,
    1842126921,
    1842126914,
    1842126968,
    1842126913,
    1842126912,
    1842126950,
    1842126963
  ],
  "tags": {
    "name": "Norfolk and Suffolk Aviation Museum",
    "tourism": "museum",
    "wikidata": "Q7051141"
  }
},
{
  "type": "way",
  "id": 175583118,
  "nodes": [
    1861518815,
    1861518474,
    1861518496,
    1861518813,
    1861518515,
    1861518781,
    1861518706,
    1861518779,
    1861518815
  ],
  "tags": {
    "building": "yes",
    "name": "David Howkin's Charity Museum",
    "source": "Bing",
    "tourism": "museum"
  }
},
{
  "type": "way",
  "id": 175585285,
  "nodes": [
    1861541061,
    1861541083,
    1861541081,
    1861541203,
    1861541107,
    1861541182,
    1861541105,
    1861541088,
    1861541061
  ],
  "tags": {
    "addr:postcode": "NR30 2SH",
    "addr:street": "Tolhouse Street",
    "building": "yes",
    "name": "The Tolhouse Gaol",
    "tourism": "museum",
    "url": "https://www.museums.norfolk.gov.uk/tolhouse-gaol"
  }
},
{
  "type": "way",
  "id": 175587048,
  "nodes": [
    1861564768,
    1861564644,
    1861564747,
    1861564630,
    1861564710,
    1861564678,
    1861564604,
    1861564957,
    1861564753,
    1861564967,
    1861564768
  ],
  "tags": {
    "addr:postcode": "NR30 2QH",
    "addr:street": "South Quay",
    "building": "yes",
    "name": "Elizabethan House",
    "source": "Bing",
    "tourism": "museum",
    "url": "https://www.museums.norfolk.gov.uk/elizabethan-house"
  }
},
{
  "type": "way",
  "id": 175589238,
  "nodes": [
    1861581049,
    1861581077,
    1861581056,
    2343350115,
    2343350116,
    1861581151,
    1861581049
  ],
  "tags": {
    "building": "yes",
    "name": "Nelson Museum",
    "tourism": "museum",
    "wikidata": "Q7051070"
  }
},
{
  "type": "way",
  "id": 175589246,
  "nodes": [
    1861581095,
    1861581115,
    1861581168,
    1861581166,
    1861581095
  ],
  "tags": {
    "building": "yes",
    "name": "Merchant's House",
    "tourism": "museum"
  }
},
{
  "type": "way",
  "id": 175596040,
  "nodes": [
    1861649000,
    1861649095,
    1861649117,
    1861649093,
    1861649098,
    1861648979,
    1861649101,
    1861648989,
    1861649000
  ],
  "tags": {
    "building": "yes",
    "name": "The Wax House",
    "tourism": "museum"
  }
},
{
  "type": "way",
  "id": 176938907,
  "nodes": [
    1874179213,
    1874179242,
    1874179251,
    1874179225,
    1874179206,
    1874179249,
    1874179236,
    1874179253,
    1874179220,
    1874179244,
    1874179213
  ],
  "tags": {
    "addr:postcode": "NR30 2RB",
    "building": "yes",
    "name": "Yesterday's World",
    "tourism": "museum"
  }
},
{
  "type": "way",
  "id": 176989040,
  "nodes": [
    1874603143,
    1874603136,
    1874603133,
    1874603157,
    1874603135,
    1874603151,
    2211870585,
    1874603144,
    1874603146,
    1874603147,
    1874603145,
    1874603153,
    1874603154,
    1874603140,
    1874603131,
    1874603142,
    1874603141,
    1874603156,
    1874603155,
    1874603161,
    1874603143
  ],
  "tags": {
    "addr:postcode": "NR30 3BX",
    "addr:street": "Blackfriars Road",
    "building": "yes",
    "name": "Time & Tide Museum",
    "tourism": "museum",
    "url": "https://www.museums.norfolk.gov.uk/time-tide",
    "wikidata": "Q7805263"
  }
},
{
  "type": "way",
  "id": 182451482,
  "nodes": [
    1928042224,
    1928042251,
    1928042290,
    1928042236,
    1928042199,
    1928042212,
    1928042201,
    1928042214,
    1928042279,
    1928042292,
    1928042215,
    1928042265,
    1928042257,
    1928042275,
    1928042271,
    1928042224
  ],
  "tags": {
    "addr:postcode": "NR12 8YB",
    "name": "RAF Air Defence Radar Museum",
    "tourism": "museum",
    "website": "https://www.radarmuseum.co.uk/",
    "wikidata": "Q12066774"
  }
},
{
  "type": "way",
  "id": 207368239,
  "nodes": [
    2175866473,
    2175866466,
    2175866399,
    2175866434,
    2175866437,
    2175866431,
    2175866411,
    2175866462,
    2175866473
  ],
  "tags": {
    "building": "yes",
    "name": "Row 111 House",
    "source": "Bing",
    "tourism": "museum"
  }
},
{
  "type": "way",
  "id": 234875240,
  "nodes": [
    2429991269,
    2429991268,
    2429991266,
    2429991267,
    2429991269
  ],
  "tags": {
    "building": "yes",
    "tourism": "museum"
  }
},
{
  "type": "way",
  "id": 234875243,
  "nodes": [
    2429991272,
    2429991273,
    2429991271,
    2429991270,
    2429991272
  ],
  "tags": {
    "addr:postcode": "NR32 1XG",
    "building": "yes",
    "tourism": "museum"
  }
},
{
  "type": "way",
  "id": 235634906,
  "nodes": [
    2437082504,
    2437082538,
    2437082528,
    2437082376,
    2437082504
  ],
  "tags": {
    "building": "yes",
    "layer": "0",
    "name": "Mundesley Maritine Museum",
    "tourism": "museum"
  }
},
{
  "type": "way",
  "id": 243074531,
  "nodes": [
    2505137777,
    2505137776,
    2505137774,
    2505137772,
    2505137768,
    2505137764,
    2505137762,
    2505137760,
    2505137766,
    2505137770,
    2505137773,
    2505137775,
    2505137777
  ],
  "tags": {
    "building": "yes",
    "name": "Sutton Corn Mill",
    "tourism": "museum"
  }
},
{
  "type": "way",
  "id": 288774438,
  "nodes": [
    2923309165,
    2923309146,
    2923309154,
    2923309152,
    2923309163,
    2923309155,
    2923309166,
    3234299259,
    3234299255,
    3234299252,
    3234299249,
    3234299251,
    2923309168,
    2923309165
  ],
  "tags": {
    "tourism": "museum"
  }
},
{
  "type": "way",
  "id": 331881608,
  "nodes": [
    3389730022,
    3389730056,
    3389730028,
    3389730051,
    3389730022
  ],
  "tags": {
    "building": "yes",
    "name": "King George's Hall & Museum",
    "operator": "Harleston & District Historial Society ",
    "source": "Bing",
    "tourism": "museum"
  }
},
{
  "type": "way",
  "id": 345720723,
  "nodes": [
    3523677746,
    3523677760,
    3523677772,
    3523678180,
    3523678173,
    3523678158,
    3523678126,
    3523678096,
    3523677791,
    3523677786,
    3523677782,
    3523677778,
    3523677774,
    3523677767,
    3523677763,
    3523677759,
    3523677755,
    3523677754,
    3523677751,
    3523677749,
    3523677748,
    3523677750,
    3523677752,
    3523677753,
    3523677757,
    3523677758,
    3523677762,
    3523677765,
    3523677770,
    3523677780,
    3523677473,
    3523677730,
    3523677743,
    3523677725,
    3523677746
  ],
  "tags": {
    "building": "yes",
    "drinking_water": "yes",
    "fee": "no",
    "name": "Rocket House, Henry Blogg Lifeboat Museum",
    "toilets": "yes",
    "toilets:access": "permissive",
    "toilets:wheelchair": "yes",
    "tourism": "museum",
    "website": "https://rnli.org/aboutus/historyandheritage/museums/Pages/Henry-Blogg-Museum.aspx",
    "wheelchair": "yes"
  }
},
{
  "type": "way",
  "id": 346310153,
  "nodes": [
    3528490165,
    3528490312,
    3528490295,
    3528490294,
    3528485479,
    3528490311,
    3528490163,
    3528490190,
    3528490114,
    2561827415,
    3528485477,
    3528490165
  ],
  "tags": {
    "name": "Norfolk Tank Museum",
    "tourism": "museum",
    "url": "http://norfolktankmuseum.co.uk/"
  }
},
{
  "type": "way",
  "id": 374728388,
  "nodes": [
    3781066945,
    3781066944,
    3781066942,
    3781066943,
    3781066945
  ],
  "tags": {
    "building": "yes",
    "name": "Bishop Bonner's Cottage Museum",
    "tourism": "museum"
  }
},
{
  "type": "way",
  "id": 384957947,
  "nodes": [
    3883114945,
    3883114944,
    3883114939,
    3883114940,
    3883114945
  ],
  "tags": {
    "addr:city": "Diss",
    "addr:country": "GB",
    "addr:hamlet": "Dickleburgh",
    "addr:housename": "100th Bomb Group Memorial Museum",
    "addr:postcode": "IP21 4PH",
    "addr:street": "Common Road",
    "addr:village": "Thorpe Abbots",
    "building": "control_tower_disused",
    "historic": "building",
    "name": "The 100th Bomb Group Memorial Museum",
    "note": "Memorabilia, housed in an original control tower, about American airmen who came to Norfolk in WWII.",
    "opening_hours": "Mar-Oct Sa-Su 10:00-17:00; PH 10:00-17:00, May-Sep We 10:00-17:00",
    "phone": "+44 1379 740708",
    "tourism": "museum",
    "website": "https://www.100bgmus.org.uk/",
    "wheelchair": "limited",
    "wikidata": "Q12052423"
  }
},
{
  "type": "way",
  "id": 387139320,
  "nodes": [
    3904627689,
    3904627674,
    3904627702,
    3904627715,
    3904627689
  ],
  "tags": {
    "addr:city": "Salhouse",
    "addr:housename": "Woodbastwick Forge",
    "addr:street": "Salhouse Road",
    "building": "yes",
    "name": "Woodbastwick Forge",
    "source": "OS_OpenData_VectorMapLocal",
    "tourism": "museum"
  }
},
{
  "type": "way",
  "id": 390460346,
  "nodes": [
    3936101447,
    3936101364,
    3936101346,
    3936101388,
    3936101395,
    3936101409,
    3936101310,
    3936101251,
    3936101342,
    5028848610,
    5028848609,
    3936101172,
    3936101170,
    3936101193,
    3936101185,
    3936101309,
    5028848614,
    5028848612,
    5028848611,
    5028848613,
    5028848615,
    3936101180,
    3936101263,
    3936101305,
    3936101273,
    3936101278,
    3936101314,
    3936101447
  ],
  "tags": {
    "addr:city": "Dereham",
    "addr:country": "GB",
    "addr:housename": "Gressenhall Farm & Workhouse",
    "addr:postcode": "NR20 4DR",
    "addr:street": "Litcham Road",
    "alt_name": "Union House",
    "building": "yes",
    "fhrs:id": "832239",
    "listed_status": "Grade II",
    "name": "Gressenhall Farm and Workhouse",
    "phone": "+44 1362 860563",
    "phone:information_line": "+44 1362 869263",
    "source": "Bing;directions and photogreaph from website",
    "tourism": "museum",
    "website": "https://www.museums.norfolk.gov.uk/gressenhall-farm-and-workhouse",
    "wikidata": "Q26461882"
  }
},
{
  "type": "way",
  "id": 430817248,
  "nodes": [
    4300888228,
    4300888252,
    4300888249,
    5421124426,
    4300888233,
    4300888228
  ],
  "tags": {
    "building": "yes",
    "name": "Dragon Hall",
    "tourism": "museum",
    "wikidata": "Q5305211"
  }
},
{
  "type": "way",
  "id": 500127147,
  "nodes": [
    4912632994,
    5810084193,
    5810084192,
    4912633014,
    4912633851,
    5810084196,
    4912632978,
    4912632983,
    4912633855,
    4912632977,
    4912633886,
    4912633859,
    4912633836,
    4912633877,
    4912633002,
    4912633880,
    4912633856,
    5812239897,
    4912633822,
    4912633831,
    4912633018,
    4912632994
  ],
  "tags": {
    "addr:city": "Lowestoft",
    "addr:postcode": "NR33 8BL",
    "addr:street": "Chapel Road",
    "addr:suburb": "Carlton Colville",
    "name": "East Anglia Transport Museum",
    "operator": "East Anglia Transport Museum Society Ltd",
    "tourism": "museum",
    "website": "http://www.eatransportmuseum.co.uk/",
    "wikidata": "Q5327696"
  }
},
{
  "type": "way",
  "id": 538965649,
  "nodes": [
    801094431,
    5215970454,
    5215970455,
    5215970453,
    801094431
  ],
  "tags": {
    "building": "yes",
    "name": "Forncett Steam Museum",
    "tourism": "museum",
    "url": "http://www.forncettsteammuseum.co.uk/"
  }
},
{
  "type": "way",
  "id": 664423467,
  "nodes": [
    6218805349,
    6218805340,
    6218805350,
    6218805338,
    6218805348,
    6218805337,
    6218805346,
    6218805344,
    6218805339,
    6218805342,
    6218805345,
    6218805343,
    6218805347,
    3603306344,
    3603306337,
    6218805341,
    6218805349
  ],
  "tags": {
    "name": "Wymondham Heritage Museum",
    "tourism": "museum",
    "wikidata": "Q8039989"
  }
},
{
  "type": "relation",
  "id": 2162273,
  "members": [
    {
      "type": "way",
      "ref": 161419803,
      "role": "outer"
    }
  ],
  "tags": {
    "addr:city": "Norwich",
    "addr:country": "GB",
    "addr:housename": "City of Norwich Aviation Museum",
    "addr:postcode": "NR10 3JF",
    "addr:street": "Old Norwich Road",
    "email": "admin@cnam.co.uk",
    "name": "City of Norwich Aviation Museum",
    "opening_hours": "Apr 1-Oct 31: Tu-Sa 10:00-17:00, Su 12:00-17:00; Nov 1-Mar 31: We,Fr,Sa 10:00-16:00, Su 11:00-15:00",
    "phone": "+44 1603 893080",
    "tourism": "museum",
    "type": "multipolygon",
    "website": "http://www.cnam.co.uk/",
    "wikidata": "Q5123838"
  }
},
{
  "type": "node",
  "id": 1277052589,
  "lat": 52.3768500,
  "lon": 1.1090731
},
{
  "type": "node",
  "id": 1277052725,
  "lat": 52.3768463,
  "lon": 1.1089673
},
{
  "type": "node",
  "id": 1277052842,
  "lat": 52.3769730,
  "lon": 1.1089552
},
{
  "type": "node",
  "id": 1312212521,
  "lat": 52.3769768,
  "lon": 1.1090609
},
{
  "type": "node",
  "id": 3883114939,
  "lat": 52.3862241,
  "lon": 1.2125529
},
{
  "type": "node",
  "id": 3883114940,
  "lat": 52.3862270,
  "lon": 1.2127206
},
{
  "type": "node",
  "id": 3883114944,
  "lat": 52.3863326,
  "lon": 1.2125479
},
{
  "type": "node",
  "id": 3883114945,
  "lat": 52.3863354,
  "lon": 1.2127156
},
{
  "type": "node",
  "id": 3389730022,
  "lat": 52.4018995,
  "lon": 1.3007720
},
{
  "type": "node",
  "id": 3389730028,
  "lat": 52.4018914,
  "lon": 1.3010668
},
{
  "type": "node",
  "id": 3389730051,
  "lat": 52.4019650,
  "lon": 1.3008256
},
{
  "type": "node",
  "id": 3389730056,
  "lat": 52.4018259,
  "lon": 1.3010131
},
{
  "type": "node",
  "id": 1842126920,
  "lat": 52.4358180,
  "lon": 1.3957223
},
{
  "type": "node",
  "id": 1842126962,
  "lat": 52.4355531,
  "lon": 1.3958993
},
{
  "type": "node",
  "id": 1842126967,
  "lat": 52.4357428,
  "lon": 1.3956579
},
{
  "type": "node",
  "id": 1842126969,
  "lat": 52.4355956,
  "lon": 1.3957867
},
{
  "type": "node",
  "id": 1842126980,
  "lat": 52.4356708,
  "lon": 1.3956526
},
{
  "type": "node",
  "id": 1842126994,
  "lat": 52.4358703,
  "lon": 1.3957974
},
{
  "type": "node",
  "id": 1842126907,
  "lat": 52.4354419,
  "lon": 1.3975248
},
{
  "type": "node",
  "id": 1842126910,
  "lat": 52.4358932,
  "lon": 1.3960013
},
{
  "type": "node",
  "id": 1842126912,
  "lat": 52.4359469,
  "lon": 1.3990456
},
{
  "type": "node",
  "id": 1842126913,
  "lat": 52.4359370,
  "lon": 1.3998073
},
{
  "type": "node",
  "id": 1842126914,
  "lat": 52.4356067,
  "lon": 1.3998824
},
{
  "type": "node",
  "id": 1842126916,
  "lat": 52.4356633,
  "lon": 1.3982441
},
{
  "type": "node",
  "id": 1842126918,
  "lat": 52.4356218,
  "lon": 1.3988498
},
{
  "type": "node",
  "id": 1842126921,
  "lat": 52.4354125,
  "lon": 1.4002767
},
{
  "type": "node",
  "id": 1842126924,
  "lat": 52.4348938,
  "lon": 1.3994211
},
{
  "type": "node",
  "id": 1842126925,
  "lat": 52.4354059,
  "lon": 1.3963446
},
{
  "type": "node",
  "id": 1842126932,
  "lat": 52.4354223,
  "lon": 1.3991609
},
{
  "type": "node",
  "id": 1842126933,
  "lat": 52.4344509,
  "lon": 1.3996008
},
{
  "type": "node",
  "id": 1842126935,
  "lat": 52.4355335,
  "lon": 1.3980451
},
{
  "type": "node",
  "id": 1842126938,
  "lat": 52.4344915,
  "lon": 1.3995069
},
{
  "type": "node",
  "id": 1842126939,
  "lat": 52.4353353,
  "lon": 1.4002365
},
{
  "type": "node",
  "id": 1842126946,
  "lat": 52.4346845,
  "lon": 1.3993996
},
{
  "type": "node",
  "id": 1842126947,
  "lat": 52.4351868,
  "lon": 1.3991341
},
{
  "type": "node",
  "id": 1842126949,
  "lat": 52.4356820,
  "lon": 1.3985950
},
{
  "type": "node",
  "id": 1842126950,
  "lat": 52.4359370,
  "lon": 1.3981443
},
{
  "type": "node",
  "id": 1842126954,
  "lat": 52.4354354,
  "lon": 1.3959959
},
{
  "type": "node",
  "id": 1842126955,
  "lat": 52.4350409,
  "lon": 1.3992816
},
{
  "type": "node",
  "id": 1842126958,
  "lat": 52.4352895,
  "lon": 1.4003545
},
{
  "type": "node",
  "id": 1842126960,
  "lat": 52.4354203,
  "lon": 1.3968301
},
{
  "type": "node",
  "id": 1842126963,
  "lat": 52.4359370,
  "lon": 1.3976133
},
{
  "type": "node",
  "id": 1842126968,
  "lat": 52.4357212,
  "lon": 1.3999897
},
{
  "type": "node",
  "id": 1842126991,
  "lat": 52.4359161,
  "lon": 1.3963017
},
{
  "type": "node",
  "id": 1842126992,
  "lat": 52.4353451,
  "lon": 1.3992655
},
{
  "type": "node",
  "id": 1842126995,
  "lat": 52.4359370,
  "lon": 1.3968140
},
{
  "type": "node",
  "id": 2561827415,
  "lat": 52.4949300,
  "lon": 1.1969500
},
{
  "type": "node",
  "id": 3528485477,
  "lat": 52.4949741,
  "lon": 1.1969198
},
{
  "type": "node",
  "id": 3528485479,
  "lat": 52.4934728,
  "lon": 1.1963944
},
{
  "type": "node",
  "id": 3528490114,
  "lat": 52.4949447,
  "lon": 1.1970217
},
{
  "type": "node",
  "id": 3528490163,
  "lat": 52.4947303,
  "lon": 1.1978750
},
{
  "type": "node",
  "id": 3528490165,
  "lat": 52.4950394,
  "lon": 1.1966462
},
{
  "type": "node",
  "id": 3528490190,
  "lat": 52.4948169,
  "lon": 1.1975360
},
{
  "type": "node",
  "id": 3528490294,
  "lat": 52.4935827,
  "lon": 1.1960240
},
{
  "type": "node",
  "id": 3528490295,
  "lat": 52.4935762,
  "lon": 1.1959059
},
{
  "type": "node",
  "id": 3528490311,
  "lat": 52.4932692,
  "lon": 1.1970378
},
{
  "type": "node",
  "id": 3528490312,
  "lat": 52.4937068,
  "lon": 1.1955090
},
{
  "type": "node",
  "id": 801094431,
  "lat": 52.5038529,
  "lon": 1.1913781
},
{
  "type": "node",
  "id": 5215970453,
  "lat": 52.5039115,
  "lon": 1.1909860
},
{
  "type": "node",
  "id": 5215970454,
  "lat": 52.5036486,
  "lon": 1.1912958
},
{
  "type": "node",
  "id": 5215970455,
  "lat": 52.5037072,
  "lon": 1.1909037
},
{
  "type": "node",
  "id": 3603306337,
  "lat": 52.5705928,
  "lon": 1.1167872
},
{
  "type": "node",
  "id": 3603306344,
  "lat": 52.5704541,
  "lon": 1.1168273
},
{
  "type": "node",
  "id": 6218805337,
  "lat": 52.5703982,
  "lon": 1.1160902
},
{
  "type": "node",
  "id": 6218805338,
  "lat": 52.5705058,
  "lon": 1.1160661
},
{
  "type": "node",
  "id": 6218805339,
  "lat": 52.5702840,
  "lon": 1.1162189
},
{
  "type": "node",
  "id": 6218805340,
  "lat": 52.5706052,
  "lon": 1.1161626
},
{
  "type": "node",
  "id": 6218805341,
  "lat": 52.5706818,
  "lon": 1.1166991
},
{
  "type": "node",
  "id": 6218805342,
  "lat": 52.5702547,
  "lon": 1.1164174
},
{
  "type": "node",
  "id": 6218805343,
  "lat": 52.5702987,
  "lon": 1.1167366
},
{
  "type": "node",
  "id": 6218805344,
  "lat": 52.5703085,
  "lon": 1.1161572
},
{
  "type": "node",
  "id": 6218805345,
  "lat": 52.5702808,
  "lon": 1.1166749
},
{
  "type": "node",
  "id": 6218805346,
  "lat": 52.5703476,
  "lon": 1.1161197
},
{
  "type": "node",
  "id": 6218805347,
  "lat": 52.5704455,
  "lon": 1.1167468
},
{
  "type": "node",
  "id": 6218805348,
  "lat": 52.5704569,
  "lon": 1.1160741
},
{
  "type": "node",
  "id": 6218805349,
  "lat": 52.5706287,
  "lon": 1.1162173
},
{
  "type": "node",
  "id": 6218805350,
  "lat": 52.5705530,
  "lon": 1.1160929
},
{
  "type": "node",
  "id": 3781066942,
  "lat": 52.6805989,
  "lon": 0.9385206
},
{
  "type": "node",
  "id": 3781066943,
  "lat": 52.6806098,
  "lon": 0.9384431
},
{
  "type": "node",
  "id": 3781066944,
  "lat": 52.6807262,
  "lon": 0.9385692
},
{
  "type": "node",
  "id": 3781066945,
  "lat": 52.6807371,
  "lon": 0.9384917
},
{
  "type": "node",
  "id": 3936101170,
  "lat": 52.7145512,
  "lon": 0.9228557
},
{
  "type": "node",
  "id": 3936101172,
  "lat": 52.7145755,
  "lon": 0.9229158
},
{
  "type": "node",
  "id": 3936101180,
  "lat": 52.7145947,
  "lon": 0.9211576
},
{
  "type": "node",
  "id": 3936101185,
  "lat": 52.7146284,
  "lon": 0.9226094
},
{
  "type": "node",
  "id": 3936101193,
  "lat": 52.7146706,
  "lon": 0.9227249
},
{
  "type": "node",
  "id": 3936101251,
  "lat": 52.7148315,
  "lon": 0.9215700
},
{
  "type": "node",
  "id": 3936101263,
  "lat": 52.7148712,
  "lon": 0.9208608
},
{
  "type": "node",
  "id": 3936101273,
  "lat": 52.7148927,
  "lon": 0.9213143
},
{
  "type": "node",
  "id": 3936101278,
  "lat": 52.7149111,
  "lon": 0.9213592
},
{
  "type": "node",
  "id": 3936101305,
  "lat": 52.7150041,
  "lon": 0.9211900
},
{
  "type": "node",
  "id": 3936101309,
  "lat": 52.7149816,
  "lon": 0.9222091
},
{
  "type": "node",
  "id": 3936101310,
  "lat": 52.7150077,
  "lon": 0.9213774
},
{
  "type": "node",
  "id": 3936101314,
  "lat": 52.7150284,
  "lon": 0.9212323
},
{
  "type": "node",
  "id": 3936101342,
  "lat": 52.7151147,
  "lon": 0.9222699
},
{
  "type": "node",
  "id": 3936101346,
  "lat": 52.7151256,
  "lon": 0.9220681
},
{
  "type": "node",
  "id": 3936101364,
  "lat": 52.7151644,
  "lon": 0.9221666
},
{
  "type": "node",
  "id": 3936101388,
  "lat": 52.7152041,
  "lon": 0.9219845
},
{
  "type": "node",
  "id": 3936101395,
  "lat": 52.7152227,
  "lon": 0.9220316
},
{
  "type": "node",
  "id": 3936101409,
  "lat": 52.7152539,
  "lon": 0.9219989
},
{
  "type": "node",
  "id": 3936101447,
  "lat": 52.7153282,
  "lon": 0.9219901
},
{
  "type": "node",
  "id": 5028848609,
  "lat": 52.7147975,
  "lon": 0.9226714
},
{
  "type": "node",
  "id": 5028848610,
  "lat": 52.7147829,
  "lon": 0.9226353
},
{
  "type": "node",
  "id": 5028848611,
  "lat": 52.7146763,
  "lon": 0.9212566
},
{
  "type": "node",
  "id": 5028848612,
  "lat": 52.7147725,
  "lon": 0.9214958
},
{
  "type": "node",
  "id": 5028848613,
  "lat": 52.7146223,
  "lon": 0.9213157
},
{
  "type": "node",
  "id": 5028848614,
  "lat": 52.7147185,
  "lon": 0.9215549
},
{
  "type": "node",
  "id": 5028848615,
  "lat": 52.7145699,
  "lon": 0.9211856
},
{
  "type": "node",
  "id": 452584610,
  "lat": 52.6282923,
  "lon": 1.2957052
},
{
  "type": "node",
  "id": 452584612,
  "lat": 52.6282470,
  "lon": 1.2961442
},
{
  "type": "node",
  "id": 452584614,
  "lat": 52.6282655,
  "lon": 1.2961494
},
{
  "type": "node",
  "id": 452584616,
  "lat": 52.6282590,
  "lon": 1.2962132
},
{
  "type": "node",
  "id": 452584618,
  "lat": 52.6282410,
  "lon": 1.2962081
},
{
  "type": "node",
  "id": 452584620,
  "lat": 52.6282187,
  "lon": 1.2964236
},
{
  "type": "node",
  "id": 452584622,
  "lat": 52.6282362,
  "lon": 1.2964437
},
{
  "type": "node",
  "id": 452584624,
  "lat": 52.6282269,
  "lon": 1.2965359
},
{
  "type": "node",
  "id": 452584626,
  "lat": 52.6283523,
  "lon": 1.2968310
},
{
  "type": "node",
  "id": 452584628,
  "lat": 52.6283897,
  "lon": 1.2968765
},
{
  "type": "node",
  "id": 452584630,
  "lat": 52.6283979,
  "lon": 1.2968685
},
{
  "type": "node",
  "id": 452584649,
  "lat": 52.6283550,
  "lon": 1.2968179
},
{
  "type": "node",
  "id": 1394801834,
  "lat": 52.6284085,
  "lon": 1.2971903
},
{
  "type": "node",
  "id": 1394801841,
  "lat": 52.6285941,
  "lon": 1.2975497
},
{
  "type": "node",
  "id": 1394801845,
  "lat": 52.6284961,
  "lon": 1.2975395
},
{
  "type": "node",
  "id": 1394801847,
  "lat": 52.6284932,
  "lon": 1.2972440
},
{
  "type": "node",
  "id": 1394801849,
  "lat": 52.6285062,
  "lon": 1.2975685
},
{
  "type": "node",
  "id": 1394801850,
  "lat": 52.6285827,
  "lon": 1.2972493
},
{
  "type": "node",
  "id": 1394801855,
  "lat": 52.6282408,
  "lon": 1.2974612
},
{
  "type": "node",
  "id": 1394801857,
  "lat": 52.6285075,
  "lon": 1.2972445
},
{
  "type": "node",
  "id": 1394801861,
  "lat": 52.6285954,
  "lon": 1.2975744
},
{
  "type": "node",
  "id": 1394801866,
  "lat": 52.6285697,
  "lon": 1.2972305
},
{
  "type": "node",
  "id": 1394801876,
  "lat": 52.6284082,
  "lon": 1.2975476
},
{
  "type": "node",
  "id": 1394801881,
  "lat": 52.6285352,
  "lon": 1.2970889
},
{
  "type": "node",
  "id": 1394801889,
  "lat": 52.6284476,
  "lon": 1.2972037
},
{
  "type": "node",
  "id": 1394801891,
  "lat": 52.6285401,
  "lon": 1.2972418
},
{
  "type": "node",
  "id": 1394801894,
  "lat": 52.6283125,
  "lon": 1.2975122
},
{
  "type": "node",
  "id": 1394801897,
  "lat": 52.6284932,
  "lon": 1.2971903
},
{
  "type": "node",
  "id": 1394801899,
  "lat": 52.6285534,
  "lon": 1.2972279
},
{
  "type": "node",
  "id": 1394801900,
  "lat": 52.6285127,
  "lon": 1.2970830
},
{
  "type": "node",
  "id": 1394801901,
  "lat": 52.6283369,
  "lon": 1.2971501
},
{
  "type": "node",
  "id": 6652467761,
  "lat": 52.6282632,
  "lon": 1.2961803
},
{
  "type": "node",
  "id": 4300888228,
  "lat": 52.6252411,
  "lon": 1.3015370
},
{
  "type": "node",
  "id": 4300888233,
  "lat": 52.6252748,
  "lon": 1.3016680
},
{
  "type": "node",
  "id": 4300888249,
  "lat": 52.6254955,
  "lon": 1.3015143
},
{
  "type": "node",
  "id": 4300888252,
  "lat": 52.6254620,
  "lon": 1.3013836
},
{
  "type": "node",
  "id": 5421124426,
  "lat": 52.6253402,
  "lon": 1.3016215
},
{
  "type": "node",
  "id": 452584631,
  "lat": 52.6287165,
  "lon": 1.2969373
},
{
  "type": "node",
  "id": 452584632,
  "lat": 52.6287234,
  "lon": 1.2969499
},
{
  "type": "node",
  "id": 452584633,
  "lat": 52.6287666,
  "lon": 1.2969310
},
{
  "type": "node",
  "id": 452584634,
  "lat": 52.6287667,
  "lon": 1.2969147
},
{
  "type": "node",
  "id": 452584635,
  "lat": 52.6288898,
  "lon": 1.2967490
},
{
  "type": "node",
  "id": 452584637,
  "lat": 52.6288997,
  "lon": 1.2967560
},
{
  "type": "node",
  "id": 452584638,
  "lat": 52.6289245,
  "lon": 1.2966972
},
{
  "type": "node",
  "id": 452584639,
  "lat": 52.6289165,
  "lon": 1.2966805
},
{
  "type": "node",
  "id": 452584640,
  "lat": 52.6289644,
  "lon": 1.2961470
},
{
  "type": "node",
  "id": 452584641,
  "lat": 52.6289759,
  "lon": 1.2961339
},
{
  "type": "node",
  "id": 452584643,
  "lat": 52.6289686,
  "lon": 1.2960797
},
{
  "type": "node",
  "id": 452584644,
  "lat": 52.6289543,
  "lon": 1.2960767
},
{
  "type": "node",
  "id": 452584645,
  "lat": 52.6288483,
  "lon": 1.2958916
},
{
  "type": "node",
  "id": 452584646,
  "lat": 52.6288530,
  "lon": 1.2958734
},
{
  "type": "node",
  "id": 452584647,
  "lat": 52.6288321,
  "lon": 1.2958422
},
{
  "type": "node",
  "id": 452584648,
  "lat": 52.6288196,
  "lon": 1.2958546
},
{
  "type": "node",
  "id": 1373249730,
  "lat": 52.6304006,
  "lon": 1.2925128
},
{
  "type": "node",
  "id": 1394801843,
  "lat": 52.6287387,
  "lon": 1.2975798
},
{
  "type": "node",
  "id": 1394801864,
  "lat": 52.6289116,
  "lon": 1.2972037
},
{
  "type": "node",
  "id": 1394801865,
  "lat": 52.6289813,
  "lon": 1.2974832
},
{
  "type": "node",
  "id": 1394801872,
  "lat": 52.6287924,
  "lon": 1.2975369
},
{
  "type": "node",
  "id": 1394801874,
  "lat": 52.6287944,
  "lon": 1.2975631
},
{
  "type": "node",
  "id": 1394801879,
  "lat": 52.6287761,
  "lon": 1.2971935
},
{
  "type": "node",
  "id": 1394801885,
  "lat": 52.6287257,
  "lon": 1.2972257
},
{
  "type": "node",
  "id": 1394801887,
  "lat": 52.6287322,
  "lon": 1.2975476
},
{
  "type": "node",
  "id": 1394801888,
  "lat": 52.6287244,
  "lon": 1.2972010
},
{
  "type": "node",
  "id": 1394801890,
  "lat": 52.6289767,
  "lon": 1.2973700
},
{
  "type": "node",
  "id": 1394801893,
  "lat": 52.6289308,
  "lon": 1.2975208
},
{
  "type": "node",
  "id": 1394801895,
  "lat": 52.6289344,
  "lon": 1.2974934
},
{
  "type": "node",
  "id": 1394801896,
  "lat": 52.6289197,
  "lon": 1.2973727
},
{
  "type": "node",
  "id": 1394801898,
  "lat": 52.6287765,
  "lon": 1.2972171
},
{
  "type": "node",
  "id": 1518706468,
  "lat": 52.6304075,
  "lon": 1.2924118
},
{
  "type": "node",
  "id": 1518706472,
  "lat": 52.6304190,
  "lon": 1.2922875
},
{
  "type": "node",
  "id": 1518706483,
  "lat": 52.6304592,
  "lon": 1.2925216
},
{
  "type": "node",
  "id": 1518706495,
  "lat": 52.6304558,
  "lon": 1.2926017
},
{
  "type": "node",
  "id": 1518706501,
  "lat": 52.6304678,
  "lon": 1.2922957
},
{
  "type": "node",
  "id": 1518706502,
  "lat": 52.6304603,
  "lon": 1.2924199
},
{
  "type": "node",
  "id": 1518706510,
  "lat": 52.6304761,
  "lon": 1.2920547
},
{
  "type": "node",
  "id": 1518706602,
  "lat": 52.6306870,
  "lon": 1.2925666
},
{
  "type": "node",
  "id": 1518706614,
  "lat": 52.6307006,
  "lon": 1.2921373
},
{
  "type": "node",
  "id": 1729083913,
  "lat": 52.6299076,
  "lon": 1.2955755
},
{
  "type": "node",
  "id": 1729083914,
  "lat": 52.6299114,
  "lon": 1.2956451
},
{
  "type": "node",
  "id": 1729083916,
  "lat": 52.6299172,
  "lon": 1.2952040
},
{
  "type": "node",
  "id": 1729083917,
  "lat": 52.6299266,
  "lon": 1.2953769
},
{
  "type": "node",
  "id": 1729083918,
  "lat": 52.6299764,
  "lon": 1.2954019
},
{
  "type": "node",
  "id": 1729083919,
  "lat": 52.6299846,
  "lon": 1.2955328
},
{
  "type": "node",
  "id": 1729083920,
  "lat": 52.6300237,
  "lon": 1.2952090
},
{
  "type": "node",
  "id": 1729083921,
  "lat": 52.6300293,
  "lon": 1.2952829
},
{
  "type": "node",
  "id": 1729083923,
  "lat": 52.6300376,
  "lon": 1.2953936
},
{
  "type": "node",
  "id": 1729083936,
  "lat": 52.6300543,
  "lon": 1.2953129
},
{
  "type": "node",
  "id": 1729083937,
  "lat": 52.6300654,
  "lon": 1.2956222
},
{
  "type": "node",
  "id": 1729083938,
  "lat": 52.6300666,
  "lon": 1.2956555
},
{
  "type": "node",
  "id": 1729083939,
  "lat": 52.6300679,
  "lon": 1.2955193
},
{
  "type": "node",
  "id": 1729083940,
  "lat": 52.6301149,
  "lon": 1.2953065
},
{
  "type": "node",
  "id": 1729083941,
  "lat": 52.6301376,
  "lon": 1.2956439
},
{
  "type": "node",
  "id": 1817348306,
  "lat": 52.6305088,
  "lon": 1.2921977
},
{
  "type": "node",
  "id": 1817348308,
  "lat": 52.6305118,
  "lon": 1.2921596
},
{
  "type": "node",
  "id": 1817348310,
  "lat": 52.6305344,
  "lon": 1.2921637
},
{
  "type": "node",
  "id": 1817348312,
  "lat": 52.6305381,
  "lon": 1.2921092
},
{
  "type": "node",
  "id": 1817348315,
  "lat": 52.6305410,
  "lon": 1.2920662
},
{
  "type": "node",
  "id": 1817348319,
  "lat": 52.6305429,
  "lon": 1.2920390
},
{
  "type": "node",
  "id": 1817348320,
  "lat": 52.6305846,
  "lon": 1.2921172
},
{
  "type": "node",
  "id": 1817348322,
  "lat": 52.6305891,
  "lon": 1.2920472
},
{
  "type": "node",
  "id": 1817348328,
  "lat": 52.6306180,
  "lon": 1.2922175
},
{
  "type": "node",
  "id": 1817348330,
  "lat": 52.6306211,
  "lon": 1.2921236
},
{
  "type": "node",
  "id": 3447347102,
  "lat": 52.6305961,
  "lon": 1.2927163
},
{
  "type": "node",
  "id": 3447347105,
  "lat": 52.6306231,
  "lon": 1.2927200
},
{
  "type": "node",
  "id": 3447347106,
  "lat": 52.6306240,
  "lon": 1.2927024
},
{
  "type": "node",
  "id": 3447347117,
  "lat": 52.6306767,
  "lon": 1.2927095
},
{
  "type": "node",
  "id": 5140868789,
  "lat": 52.6304725,
  "lon": 1.2919910
},
{
  "type": "node",
  "id": 5140868790,
  "lat": 52.6304391,
  "lon": 1.2919851
},
{
  "type": "node",
  "id": 5140868791,
  "lat": 52.6304685,
  "lon": 1.2920534
},
{
  "type": "node",
  "id": 5140868792,
  "lat": 52.6305619,
  "lon": 1.2927107
},
{
  "type": "node",
  "id": 5140868793,
  "lat": 52.6305682,
  "lon": 1.2926080
},
{
  "type": "node",
  "id": 5140868794,
  "lat": 52.6305864,
  "lon": 1.2927145
},
{
  "type": "node",
  "id": 5140868795,
  "lat": 52.6306922,
  "lon": 1.2924871
},
{
  "type": "node",
  "id": 5140868796,
  "lat": 52.6306935,
  "lon": 1.2924526
},
{
  "type": "node",
  "id": 5140868797,
  "lat": 52.6305372,
  "lon": 1.2924626
},
{
  "type": "node",
  "id": 5140868798,
  "lat": 52.6305388,
  "lon": 1.2924238
},
{
  "type": "node",
  "id": 5140868799,
  "lat": 52.6305534,
  "lon": 1.2924211
},
{
  "type": "node",
  "id": 5140868800,
  "lat": 52.6305543,
  "lon": 1.2924010
},
{
  "type": "node",
  "id": 5140868801,
  "lat": 52.6305746,
  "lon": 1.2924023
},
{
  "type": "node",
  "id": 5140868802,
  "lat": 52.6305779,
  "lon": 1.2923272
},
{
  "type": "node",
  "id": 5140868803,
  "lat": 52.6306210,
  "lon": 1.2923352
},
{
  "type": "node",
  "id": 5140868804,
  "lat": 52.6306169,
  "lon": 1.2924425
},
{
  "type": "node",
  "id": 5140868805,
  "lat": 52.6306454,
  "lon": 1.2924466
},
{
  "type": "node",
  "id": 5140868806,
  "lat": 52.6306446,
  "lon": 1.2924787
},
{
  "type": "node",
  "id": 6381060740,
  "lat": 52.6300262,
  "lon": 1.2956280
},
{
  "type": "node",
  "id": 6381060745,
  "lat": 52.6298872,
  "lon": 1.2955751
},
{
  "type": "node",
  "id": 6381060746,
  "lat": 52.6298796,
  "lon": 1.2953748
},
{
  "type": "node",
  "id": 6467622529,
  "lat": 52.6306965,
  "lon": 1.2922859
},
{
  "type": "node",
  "id": 6652467760,
  "lat": 52.6287067,
  "lon": 1.2958214
},
{
  "type": "node",
  "id": 674737122,
  "lat": 52.6805564,
  "lon": 1.2737917
},
{
  "type": "node",
  "id": 1733910620,
  "lat": 52.6804659,
  "lon": 1.2771209
},
{
  "type": "node",
  "id": 1733910628,
  "lat": 52.6805296,
  "lon": 1.2739722
},
{
  "type": "node",
  "id": 3093839002,
  "lat": 52.6804149,
  "lon": 1.2729659
},
{
  "type": "node",
  "id": 5151665511,
  "lat": 52.6806346,
  "lon": 1.2733492
},
{
  "type": "node",
  "id": 5151665512,
  "lat": 52.6800362,
  "lon": 1.2734618
},
{
  "type": "node",
  "id": 5151665513,
  "lat": 52.6800167,
  "lon": 1.2745508
},
{
  "type": "node",
  "id": 5151665514,
  "lat": 52.6801175,
  "lon": 1.2767719
},
{
  "type": "node",
  "id": 3093838996,
  "lat": 52.6812117,
  "lon": 1.2718823
},
{
  "type": "node",
  "id": 3904627674,
  "lat": 52.6839742,
  "lon": 1.4456598
},
{
  "type": "node",
  "id": 3904627689,
  "lat": 52.6840107,
  "lon": 1.4457541
},
{
  "type": "node",
  "id": 3904627702,
  "lat": 52.6840170,
  "lon": 1.4456147
},
{
  "type": "node",
  "id": 3904627715,
  "lat": 52.6840535,
  "lon": 1.4457090
},
{
  "type": "node",
  "id": 1928042199,
  "lat": 52.7133591,
  "lon": 1.4719506
},
{
  "type": "node",
  "id": 1928042201,
  "lat": 52.7133670,
  "lon": 1.4724742
},
{
  "type": "node",
  "id": 1928042212,
  "lat": 52.7133575,
  "lon": 1.4721813
},
{
  "type": "node",
  "id": 1928042214,
  "lat": 52.7133670,
  "lon": 1.4726083
},
{
  "type": "node",
  "id": 1928042215,
  "lat": 52.7130015,
  "lon": 1.4721684
},
{
  "type": "node",
  "id": 1928042224,
  "lat": 52.7128245,
  "lon": 1.4707436
},
{
  "type": "node",
  "id": 1928042236,
  "lat": 52.7134141,
  "lon": 1.4718063
},
{
  "type": "node",
  "id": 1928042251,
  "lat": 52.7133640,
  "lon": 1.4706283
},
{
  "type": "node",
  "id": 1928042257,
  "lat": 52.7128617,
  "lon": 1.4714147
},
{
  "type": "node",
  "id": 1928042265,
  "lat": 52.7129331,
  "lon": 1.4718760
},
{
  "type": "node",
  "id": 1928042271,
  "lat": 52.7128700,
  "lon": 1.4712425
},
{
  "type": "node",
  "id": 1928042275,
  "lat": 52.7128473,
  "lon": 1.4712586
},
{
  "type": "node",
  "id": 1928042279,
  "lat": 52.7132730,
  "lon": 1.4727606
},
{
  "type": "node",
  "id": 1928042290,
  "lat": 52.7133867,
  "lon": 1.4713203
},
{
  "type": "node",
  "id": 1928042292,
  "lat": 52.7131623,
  "lon": 1.4725332
},
{
  "type": "node",
  "id": 1711426720,
  "lat": 52.7175744,
  "lon": 1.5082455
},
{
  "type": "node",
  "id": 1711426723,
  "lat": 52.7175876,
  "lon": 1.5083526
},
{
  "type": "node",
  "id": 1711426725,
  "lat": 52.7176284,
  "lon": 1.5083389
},
{
  "type": "node",
  "id": 1711426727,
  "lat": 52.7176153,
  "lon": 1.5082318
},
{
  "type": "node",
  "id": 2505137760,
  "lat": 52.7592571,
  "lon": 1.5493314
},
{
  "type": "node",
  "id": 2505137762,
  "lat": 52.7592572,
  "lon": 1.5492857
},
{
  "type": "node",
  "id": 2505137764,
  "lat": 52.7592670,
  "lon": 1.5492602
},
{
  "type": "node",
  "id": 2505137766,
  "lat": 52.7592710,
  "lon": 1.5493629
},
{
  "type": "node",
  "id": 2505137768,
  "lat": 52.7592829,
  "lon": 1.5492439
},
{
  "type": "node",
  "id": 2505137770,
  "lat": 52.7592896,
  "lon": 1.5493761
},
{
  "type": "node",
  "id": 2505137772,
  "lat": 52.7593058,
  "lon": 1.5492422
},
{
  "type": "node",
  "id": 2505137773,
  "lat": 52.7593115,
  "lon": 1.5493721
},
{
  "type": "node",
  "id": 2505137774,
  "lat": 52.7593218,
  "lon": 1.5492551
},
{
  "type": "node",
  "id": 2505137775,
  "lat": 52.7593259,
  "lon": 1.5493561
},
{
  "type": "node",
  "id": 2505137776,
  "lat": 52.7593334,
  "lon": 1.5492791
},
{
  "type": "node",
  "id": 2505137777,
  "lat": 52.7593366,
  "lon": 1.5493227
},
{
  "type": "node",
  "id": 305512727,
  "lat": 52.7778235,
  "lon": 1.6136955
},
{
  "type": "node",
  "id": 305512729,
  "lat": 52.7783818,
  "lon": 1.6158889
},
{
  "type": "node",
  "id": 1245754840,
  "lat": 52.7783735,
  "lon": 1.6142657
},
{
  "type": "node",
  "id": 1245754856,
  "lat": 52.7774849,
  "lon": 1.6151320
},
{
  "type": "node",
  "id": 5981737833,
  "lat": 52.7786308,
  "lon": 1.6145825
},
{
  "type": "node",
  "id": 3523677725,
  "lat": 52.9310716,
  "lon": 1.3041443
},
{
  "type": "node",
  "id": 3523677743,
  "lat": 52.9310825,
  "lon": 1.3041474
},
{
  "type": "node",
  "id": 3523677746,
  "lat": 52.9310853,
  "lon": 1.3041244
},
{
  "type": "node",
  "id": 3523677760,
  "lat": 52.9310961,
  "lon": 1.3040364
},
{
  "type": "node",
  "id": 3523677772,
  "lat": 52.9311018,
  "lon": 1.3038160
},
{
  "type": "node",
  "id": 3523678173,
  "lat": 52.9312099,
  "lon": 1.3039894
},
{
  "type": "node",
  "id": 3523678180,
  "lat": 52.9312162,
  "lon": 1.3038619
},
{
  "type": "node",
  "id": 3523677473,
  "lat": 52.9310409,
  "lon": 1.3043421
},
{
  "type": "node",
  "id": 3523677730,
  "lat": 52.9310770,
  "lon": 1.3041920
},
{
  "type": "node",
  "id": 3523677748,
  "lat": 52.9310917,
  "lon": 1.3043741
},
{
  "type": "node",
  "id": 3523677749,
  "lat": 52.9310917,
  "lon": 1.3043821
},
{
  "type": "node",
  "id": 3523677750,
  "lat": 52.9310921,
  "lon": 1.3043693
},
{
  "type": "node",
  "id": 3523677751,
  "lat": 52.9310922,
  "lon": 1.3043869
},
{
  "type": "node",
  "id": 3523677752,
  "lat": 52.9310926,
  "lon": 1.3043663
},
{
  "type": "node",
  "id": 3523677753,
  "lat": 52.9310933,
  "lon": 1.3043633
},
{
  "type": "node",
  "id": 3523677754,
  "lat": 52.9310934,
  "lon": 1.3043931
},
{
  "type": "node",
  "id": 3523677755,
  "lat": 52.9310942,
  "lon": 1.3043960
},
{
  "type": "node",
  "id": 3523677757,
  "lat": 52.9310948,
  "lon": 1.3043593
},
{
  "type": "node",
  "id": 3523677758,
  "lat": 52.9310954,
  "lon": 1.3043580
},
{
  "type": "node",
  "id": 3523677759,
  "lat": 52.9310957,
  "lon": 1.3044001
},
{
  "type": "node",
  "id": 3523677762,
  "lat": 52.9310974,
  "lon": 1.3043544
},
{
  "type": "node",
  "id": 3523677763,
  "lat": 52.9310981,
  "lon": 1.3044051
},
{
  "type": "node",
  "id": 3523677765,
  "lat": 52.9310993,
  "lon": 1.3043520
},
{
  "type": "node",
  "id": 3523677767,
  "lat": 52.9311003,
  "lon": 1.3044084
},
{
  "type": "node",
  "id": 3523677770,
  "lat": 52.9311013,
  "lon": 1.3043499
},
{
  "type": "node",
  "id": 3523677774,
  "lat": 52.9311026,
  "lon": 1.3044111
},
{
  "type": "node",
  "id": 3523677778,
  "lat": 52.9311051,
  "lon": 1.3044129
},
{
  "type": "node",
  "id": 3523677780,
  "lat": 52.9311074,
  "lon": 1.3043468
},
{
  "type": "node",
  "id": 3523677782,
  "lat": 52.9311093,
  "lon": 1.3044149
},
{
  "type": "node",
  "id": 3523677786,
  "lat": 52.9311136,
  "lon": 1.3044156
},
{
  "type": "node",
  "id": 3523677791,
  "lat": 52.9311194,
  "lon": 1.3044149
},
{
  "type": "node",
  "id": 3523678096,
  "lat": 52.9311226,
  "lon": 1.3044135
},
{
  "type": "node",
  "id": 3523678126,
  "lat": 52.9311409,
  "lon": 1.3044013
},
{
  "type": "node",
  "id": 3523678158,
  "lat": 52.9311861,
  "lon": 1.3041908
},
{
  "type": "node",
  "id": 2437082376,
  "lat": 52.8781070,
  "lon": 1.4378107
},
{
  "type": "node",
  "id": 2437082504,
  "lat": 52.8780710,
  "lon": 1.4378346
},
{
  "type": "node",
  "id": 2437082528,
  "lat": 52.8781227,
  "lon": 1.4378757
},
{
  "type": "node",
  "id": 2437082538,
  "lat": 52.8780866,
  "lon": 1.4378995
},
{
  "type": "node",
  "id": 4912633836,
  "lat": 52.4510055,
  "lon": 1.6848112
},
{
  "type": "node",
  "id": 4912633859,
  "lat": 52.4502655,
  "lon": 1.6852291
},
{
  "type": "node",
  "id": 4912633886,
  "lat": 52.4503195,
  "lon": 1.6856154
},
{
  "type": "node",
  "id": 4912633877,
  "lat": 52.4519705,
  "lon": 1.6842662
},
{
  "type": "node",
  "id": 4912632977,
  "lat": 52.4518838,
  "lon": 1.6848858
},
{
  "type": "node",
  "id": 4912632978,
  "lat": 52.4522712,
  "lon": 1.6864656
},
{
  "type": "node",
  "id": 4912632983,
  "lat": 52.4521437,
  "lon": 1.6860794
},
{
  "type": "node",
  "id": 4912632994,
  "lat": 52.4526624,
  "lon": 1.6874820
},
{
  "type": "node",
  "id": 4912633002,
  "lat": 52.4520413,
  "lon": 1.6848025
},
{
  "type": "node",
  "id": 4912633014,
  "lat": 52.4525867,
  "lon": 1.6872354
},
{
  "type": "node",
  "id": 4912633018,
  "lat": 52.4527380,
  "lon": 1.6874109
},
{
  "type": "node",
  "id": 4912633822,
  "lat": 52.4531049,
  "lon": 1.6870906
},
{
  "type": "node",
  "id": 4912633831,
  "lat": 52.4527927,
  "lon": 1.6873561
},
{
  "type": "node",
  "id": 4912633851,
  "lat": 52.4523927,
  "lon": 1.6867203
},
{
  "type": "node",
  "id": 4912633855,
  "lat": 52.4520854,
  "lon": 1.6861275
},
{
  "type": "node",
  "id": 4912633856,
  "lat": 52.4525671,
  "lon": 1.6854973
},
{
  "type": "node",
  "id": 4912633880,
  "lat": 52.4524134,
  "lon": 1.6846337
},
{
  "type": "node",
  "id": 5810084192,
  "lat": 52.4524208,
  "lon": 1.6873433
},
{
  "type": "node",
  "id": 5810084193,
  "lat": 52.4524797,
  "lon": 1.6875913
},
{
  "type": "node",
  "id": 5810084196,
  "lat": 52.4523797,
  "lon": 1.6866930
},
{
  "type": "node",
  "id": 5812239897,
  "lat": 52.4529462,
  "lon": 1.6866204
},
{
  "type": "node",
  "id": 2923309146,
  "lat": 52.4736855,
  "lon": 1.7067831
},
{
  "type": "node",
  "id": 2923309152,
  "lat": 52.4737689,
  "lon": 1.7068355
},
{
  "type": "node",
  "id": 2923309154,
  "lat": 52.4737460,
  "lon": 1.7067430
},
{
  "type": "node",
  "id": 2923309155,
  "lat": 52.4737382,
  "lon": 1.7069745
},
{
  "type": "node",
  "id": 2923309163,
  "lat": 52.4737134,
  "lon": 1.7068730
},
{
  "type": "node",
  "id": 2923309165,
  "lat": 52.4736373,
  "lon": 1.7065874
},
{
  "type": "node",
  "id": 2923309166,
  "lat": 52.4736876,
  "lon": 1.7070036
},
{
  "type": "node",
  "id": 2923309168,
  "lat": 52.4735727,
  "lon": 1.7066286
},
{
  "type": "node",
  "id": 3234299249,
  "lat": 52.4736019,
  "lon": 1.7068072
},
{
  "type": "node",
  "id": 3234299251,
  "lat": 52.4736087,
  "lon": 1.7067775
},
{
  "type": "node",
  "id": 3234299252,
  "lat": 52.4736259,
  "lon": 1.7068927
},
{
  "type": "node",
  "id": 3234299255,
  "lat": 52.4736399,
  "lon": 1.7069090
},
{
  "type": "node",
  "id": 3234299259,
  "lat": 52.4736606,
  "lon": 1.7069008
},
{
  "type": "node",
  "id": 2429991266,
  "lat": 52.4877423,
  "lon": 1.7575299
},
{
  "type": "node",
  "id": 2429991267,
  "lat": 52.4877472,
  "lon": 1.7576585
},
{
  "type": "node",
  "id": 2429991268,
  "lat": 52.4877862,
  "lon": 1.7575254
},
{
  "type": "node",
  "id": 2429991269,
  "lat": 52.4877912,
  "lon": 1.7576539
},
{
  "type": "node",
  "id": 2429991270,
  "lat": 52.4878028,
  "lon": 1.7574619
},
{
  "type": "node",
  "id": 2429991271,
  "lat": 52.4878063,
  "lon": 1.7576519
},
{
  "type": "node",
  "id": 2429991272,
  "lat": 52.4879968,
  "lon": 1.7574522
},
{
  "type": "node",
  "id": 2429991273,
  "lat": 52.4880003,
  "lon": 1.7576423
},
{
  "type": "node",
  "id": 1874603131,
  "lat": 52.6017142,
  "lon": 1.7313284
},
{
  "type": "node",
  "id": 1874603133,
  "lat": 52.6015515,
  "lon": 1.7312026
},
{
  "type": "node",
  "id": 1874603135,
  "lat": 52.6016393,
  "lon": 1.7315000
},
{
  "type": "node",
  "id": 1874603136,
  "lat": 52.6015464,
  "lon": 1.7312238
},
{
  "type": "node",
  "id": 1874603140,
  "lat": 52.6017013,
  "lon": 1.7313327
},
{
  "type": "node",
  "id": 1874603141,
  "lat": 52.6016857,
  "lon": 1.7312788
},
{
  "type": "node",
  "id": 1874603142,
  "lat": 52.6017118,
  "lon": 1.7312774
},
{
  "type": "node",
  "id": 1874603143,
  "lat": 52.6015456,
  "lon": 1.7320123
},
{
  "type": "node",
  "id": 1874603144,
  "lat": 52.6016859,
  "lon": 1.7317109
},
{
  "type": "node",
  "id": 1874603145,
  "lat": 52.6018095,
  "lon": 1.7319386
},
{
  "type": "node",
  "id": 1874603146,
  "lat": 52.6016166,
  "lon": 1.7317068
},
{
  "type": "node",
  "id": 1874603147,
  "lat": 52.6016197,
  "lon": 1.7319158
},
{
  "type": "node",
  "id": 1874603151,
  "lat": 52.6016784,
  "lon": 1.7315014
},
{
  "type": "node",
  "id": 1874603153,
  "lat": 52.6017233,
  "lon": 1.7315902
},
{
  "type": "node",
  "id": 1874603154,
  "lat": 52.6017054,
  "lon": 1.7314037
},
{
  "type": "node",
  "id": 1874603155,
  "lat": 52.6017525,
  "lon": 1.7312090
},
{
  "type": "node",
  "id": 1874603156,
  "lat": 52.6016825,
  "lon": 1.7312063
},
{
  "type": "node",
  "id": 1874603157,
  "lat": 52.6016385,
  "lon": 1.7312104
},
{
  "type": "node",
  "id": 1874603161,
  "lat": 52.6019612,
  "lon": 1.7320435
},
{
  "type": "node",
  "id": 2211870585,
  "lat": 52.6016839,
  "lon": 1.7316554
},
{
  "type": "node",
  "id": 1861518474,
  "lat": 52.6043620,
  "lon": 1.7298831
},
{
  "type": "node",
  "id": 1861518496,
  "lat": 52.6043310,
  "lon": 1.7298973
},
{
  "type": "node",
  "id": 1861518515,
  "lat": 52.6042786,
  "lon": 1.7298663
},
{
  "type": "node",
  "id": 1861518706,
  "lat": 52.6042286,
  "lon": 1.7298114
},
{
  "type": "node",
  "id": 1861518779,
  "lat": 52.6041982,
  "lon": 1.7295873
},
{
  "type": "node",
  "id": 1861518781,
  "lat": 52.6042664,
  "lon": 1.7297940
},
{
  "type": "node",
  "id": 1861518813,
  "lat": 52.6043224,
  "lon": 1.7298463
},
{
  "type": "node",
  "id": 1861518815,
  "lat": 52.6043056,
  "lon": 1.7295493
},
{
  "type": "node",
  "id": 1861541061,
  "lat": 52.6044323,
  "lon": 1.7275791
},
{
  "type": "node",
  "id": 1861541081,
  "lat": 52.6043509,
  "lon": 1.7274517
},
{
  "type": "node",
  "id": 1861541083,
  "lat": 52.6043819,
  "lon": 1.7274251
},
{
  "type": "node",
  "id": 1861541088,
  "lat": 52.6043040,
  "lon": 1.7276932
},
{
  "type": "node",
  "id": 1861541105,
  "lat": 52.6042557,
  "lon": 1.7275512
},
{
  "type": "node",
  "id": 1861541107,
  "lat": 52.6042885,
  "lon": 1.7275518
},
{
  "type": "node",
  "id": 1861541182,
  "lat": 52.6042805,
  "lon": 1.7275283
},
{
  "type": "node",
  "id": 1861541203,
  "lat": 52.6043620,
  "lon": 1.7274841
},
{
  "type": "node",
  "id": 1861564604,
  "lat": 52.6054106,
  "lon": 1.7255059
},
{
  "type": "node",
  "id": 1861564630,
  "lat": 52.6053126,
  "lon": 1.7254276
},
{
  "type": "node",
  "id": 1861564644,
  "lat": 52.6052483,
  "lon": 1.7253270
},
{
  "type": "node",
  "id": 1861564678,
  "lat": 52.6054171,
  "lon": 1.7255320
},
{
  "type": "node",
  "id": 1861564710,
  "lat": 52.6053603,
  "lon": 1.7255870
},
{
  "type": "node",
  "id": 1861564747,
  "lat": 52.6052866,
  "lon": 1.7254463
},
{
  "type": "node",
  "id": 1861564753,
  "lat": 52.6054149,
  "lon": 1.7253604
},
{
  "type": "node",
  "id": 1861564768,
  "lat": 52.6053657,
  "lon": 1.7252263
},
{
  "type": "node",
  "id": 1861564957,
  "lat": 52.6053761,
  "lon": 1.7253914
},
{
  "type": "node",
  "id": 1861564967,
  "lat": 52.6054108,
  "lon": 1.7253482
},
{
  "type": "node",
  "id": 1861581049,
  "lat": 52.6037147,
  "lon": 1.7264017
},
{
  "type": "node",
  "id": 1861581056,
  "lat": 52.6036827,
  "lon": 1.7267333
},
{
  "type": "node",
  "id": 1861581077,
  "lat": 52.6036138,
  "lon": 1.7264745
},
{
  "type": "node",
  "id": 1861581095,
  "lat": 52.6032955,
  "lon": 1.7268305
},
{
  "type": "node",
  "id": 1861581115,
  "lat": 52.6033548,
  "lon": 1.7267931
},
{
  "type": "node",
  "id": 1861581151,
  "lat": 52.6037645,
  "lon": 1.7265888
},
{
  "type": "node",
  "id": 1861581166,
  "lat": 52.6033622,
  "lon": 1.7271173
},
{
  "type": "node",
  "id": 1861581168,
  "lat": 52.6034215,
  "lon": 1.7270800
},
{
  "type": "node",
  "id": 2175866399,
  "lat": 52.6037670,
  "lon": 1.7270247
},
{
  "type": "node",
  "id": 2175866411,
  "lat": 52.6038565,
  "lon": 1.7269534
},
{
  "type": "node",
  "id": 2175866431,
  "lat": 52.6038792,
  "lon": 1.7270271
},
{
  "type": "node",
  "id": 2175866434,
  "lat": 52.6038050,
  "lon": 1.7269929
},
{
  "type": "node",
  "id": 2175866437,
  "lat": 52.6038286,
  "lon": 1.7270695
},
{
  "type": "node",
  "id": 2175866462,
  "lat": 52.6039094,
  "lon": 1.7269091
},
{
  "type": "node",
  "id": 2175866466,
  "lat": 52.6037378,
  "lon": 1.7269300
},
{
  "type": "node",
  "id": 2175866473,
  "lat": 52.6038793,
  "lon": 1.7268116
},
{
  "type": "node",
  "id": 2343350115,
  "lat": 52.6037213,
  "lon": 1.7267053
},
{
  "type": "node",
  "id": 2343350116,
  "lat": 52.6037023,
  "lon": 1.7266336
},
{
  "type": "node",
  "id": 1861648979,
  "lat": 52.6077205,
  "lon": 1.7308026
},
{
  "type": "node",
  "id": 1861648989,
  "lat": 52.6075938,
  "lon": 1.7309140
},
{
  "type": "node",
  "id": 1861649000,
  "lat": 52.6074937,
  "lon": 1.7309528
},
{
  "type": "node",
  "id": 1861649093,
  "lat": 52.6076191,
  "lon": 1.7307168
},
{
  "type": "node",
  "id": 1861649095,
  "lat": 52.6074684,
  "lon": 1.7307597
},
{
  "type": "node",
  "id": 1861649098,
  "lat": 52.6076272,
  "lon": 1.7308214
},
{
  "type": "node",
  "id": 1861649101,
  "lat": 52.6077262,
  "lon": 1.7308830
},
{
  "type": "node",
  "id": 1861649117,
  "lat": 52.6075650,
  "lon": 1.7307288
},
{
  "type": "node",
  "id": 1874179206,
  "lat": 52.6051490,
  "lon": 1.7359281
},
{
  "type": "node",
  "id": 1874179213,
  "lat": 52.6048916,
  "lon": 1.7356346
},
{
  "type": "node",
  "id": 1874179220,
  "lat": 52.6050746,
  "lon": 1.7364262
},
{
  "type": "node",
  "id": 1874179225,
  "lat": 52.6051734,
  "lon": 1.7359417
},
{
  "type": "node",
  "id": 1874179236,
  "lat": 52.6050725,
  "lon": 1.7363312
},
{
  "type": "node",
  "id": 1874179242,
  "lat": 52.6051953,
  "lon": 1.7356802
},
{
  "type": "node",
  "id": 1874179244,
  "lat": 52.6048451,
  "lon": 1.7364044
},
{
  "type": "node",
  "id": 1874179249,
  "lat": 52.6051287,
  "lon": 1.7360225
},
{
  "type": "node",
  "id": 1874179251,
  "lat": 52.6051921,
  "lon": 1.7357754
},
{
  "type": "node",
  "id": 1874179253,
  "lat": 52.6050776,
  "lon": 1.7363327
},
{
  "type": "node",
  "id": 443404030,
  "lat": 52.6461443,
  "lon": 1.7359228
},
{
  "type": "node",
  "id": 443404031,
  "lat": 52.6461044,
  "lon": 1.7354974
},
{
  "type": "node",
  "id": 443404032,
  "lat": 52.6460265,
  "lon": 1.7355173
},
{
  "type": "node",
  "id": 443404033,
  "lat": 52.6460332,
  "lon": 1.7359937
},
{
  "type": "node",
  "id": 4336929652,
  "lat": 52.6460728,
  "lon": 1.7359837
},
{
  "type": "node",
  "id": 4336929665,
  "lat": 52.6459957,
  "lon": 1.7355935
},
{
  "type": "node",
  "id": 4336931193,
  "lat": 52.6460327,
  "lon": 1.7355841
},
{
  "type": "node",
  "id": 4336931199,
  "lat": 52.6460689,
  "lon": 1.7359420
},
{
  "type": "way",
  "id": 161419803,
  "nodes": [
    674737122,
    5151665511,
    3093838996,
    3093839002,
    5151665512,
    5151665513,
    5151665514,
    1733910620,
    1733910628,
    674737122
  ]
}

  ]
}
